{"type": "FeatureCollection", "features": [{"id": "0", "type": "Feature", "properties": {"building_id": "555687", "area_m2": 6626.320378309729}, "geometry": {"type": "Polygon", "coordinates": [[[25.277556, 54.6849296], [25.2773952, 54.684812499999985], [25.2768716, 54.684799], [25.2764495, 54.685053], [25.2762334, 54.6851687], [25.2755047, 54.6855905], [25.2753608, 54.6856851], [25.2753511, 54.6857129], [25.2759903, 54.6860526], [25.2762076, 54.6859881], [25.2762021, 54.6859817], [25.2766251, 54.6858576], [25.2770609, 54.6857333], [25.2780246, 54.6854819], [25.2780388, 54.685485], [25.2780589, 54.6854551], [25.2780453, 54.6854519], [25.2779557, 54.68531], [25.2778549, 54.6851504], [25.277556, 54.6849296]], [[25.2762368, 54.6853706], [25.2763938, 54.6852783], [25.2765832, 54.6851699], [25.2769523, 54.6849487], [25.2769845, 54.68494029999999], [25.2772772, 54.6849496], [25.277369, 54.6850148], [25.2776389, 54.6852071], [25.277627, 54.6852105], [25.2777636, 54.685436], [25.2776356, 54.6854718], [25.2775652, 54.6853806], [25.2774828, 54.6854025], [25.2774682, 54.6853865], [25.2773982, 54.6854032], [25.2774639, 54.6854856], [25.2772506, 54.6855422], [25.2772322, 54.68552], [25.2771777, 54.6855342], [25.2771965, 54.6855566], [25.276981, 54.6856139], [25.2769879, 54.6856225], [25.2766538, 54.6857221], [25.2762931, 54.6854476], [25.2763474, 54.6854236], [25.2762933, 54.6853847], [25.2762706, 54.68539479999998], [25.2762368, 54.6853706]], [[25.2761945, 54.6853928], [25.276252, 54.6854304], [25.2761487, 54.685476], [25.2762876, 54.6855836], [25.276266, 54.6855924], [25.2764022, 54.6856976], [25.2764266, 54.6856877], [25.2764965, 54.6857407], [25.2760577, 54.6858697], [25.2761351, 54.6859298], [25.2760749, 54.6859465], [25.2758782, 54.6858352], [25.2758984, 54.6858216], [25.2756486, 54.6856839], [25.2756602, 54.6856746], [25.2761945, 54.6853928]]]}}, {"id": "1", "type": "Feature", "properties": {"building_id": "1321209", "area_m2": 2112.136017761699}, "geometry": {"type": "Polygon", "coordinates": [[[25.2787111, 54.687194199999986], [25.2787337, 54.6871803], [25.2787423, 54.6871688], [25.2786499, 54.6868978], [25.2786313, 54.6869], [25.278606, 54.686820199999985], [25.2785872, 54.6868214], [25.278223, 54.6868706], [25.2777208, 54.6869655], [25.2778862, 54.687338], [25.2786732, 54.6872021], [25.2787111, 54.687194199999986]], [[25.2779353, 54.6871718], [25.2778893, 54.6870701], [25.2784273, 54.6869753], [25.2784673, 54.687081], [25.2779353, 54.6871718]]]}}, {"id": "2", "type": "Feature", "properties": {"building_id": "1576690", "area_m2": 2964.378094316705}, "geometry": {"type": "Polygon", "coordinates": [[[25.27994, 54.6862672], [25.2799271, 54.68624650000001], [25.2795969, 54.6862426], [25.2796032, 54.6864325], [25.2796349, 54.6867311], [25.2797395, 54.6869351], [25.2803061, 54.6868335], [25.2802535, 54.6867319], [25.2802026, 54.6866311], [25.2801881, 54.6866021], [25.2802223, 54.6865963], [25.2802098, 54.6864034], [25.2803771, 54.6863771], [25.2805621, 54.6863401], [25.2805395, 54.68629779999998], [25.2805623, 54.6862943], [25.2805164, 54.686211599999986], [25.27994, 54.6862672]], [[25.2799138, 54.6866722], [25.2798327, 54.6866734], [25.2798147, 54.6864873], [25.2798937, 54.6864803], [25.2799892, 54.6866579], [25.2799138, 54.6866722]]]}}, {"id": "3", "type": "Feature", "properties": {"building_id": "3006420", "area_m2": 2841.0131515673656}, "geometry": {"type": "Polygon", "coordinates": [[[25.2767101, 54.6873244], [25.2767273, 54.6873663], [25.276456, 54.6874108], [25.2763934, 54.6874219], [25.2764808, 54.6875863], [25.2773344, 54.68743639999999], [25.2770387, 54.6868561], [25.2770191, 54.6868193], [25.2764062, 54.6869251], [25.2764423, 54.686998], [25.2766014, 54.6873431], [25.2767101, 54.6873244]], [[25.2767329, 54.6870257], [25.276985, 54.6869825], [25.2770991, 54.6872064], [25.2770438, 54.6872037], [25.2769964, 54.6872079], [25.276955, 54.6872161], [25.2769025, 54.6872358], [25.2768749, 54.6872524], [25.2768569, 54.687265299999986], [25.2767329, 54.6870257]]]}}, {"id": "4", "type": "Feature", "properties": {"building_id": "15283812", "area_m2": 467.53443803763605}, "geometry": {"type": "Polygon", "coordinates": [[[25.2807071, 54.6857908], [25.2809068, 54.6857568], [25.2808117, 54.6855772], [25.2805143, 54.6855764], [25.2805113, 54.6858164], [25.2805489, 54.6858167], [25.2807071, 54.6857908]], [[25.2806461, 54.6856295], [25.2807038, 54.6856295], [25.2807621, 54.685740399999986], [25.2806535, 54.685756699999985], [25.2806461, 54.6856295]]]}}, {"id": "5", "type": "Feature", "properties": {"building_id": "15284189", "area_m2": 1828.8886262523456}, "geometry": {"type": "Polygon", "coordinates": [[[25.2821562, 54.6843275], [25.2821521, 54.68433679999998], [25.2822015, 54.6843448], [25.2822319, 54.6843256], [25.2823354, 54.6843421], [25.2824026, 54.6842251], [25.2824168, 54.6841435], [25.2822551, 54.6841343], [25.2822365, 54.6842027], [25.2819176, 54.6841643], [25.2818789, 54.6841612], [25.2818746, 54.6841345], [25.281778, 54.684119], [25.2816794, 54.684105], [25.2814226, 54.684067], [25.2814059, 54.6841039], [25.2813481, 54.6842127], [25.2815776, 54.684248], [25.2815438, 54.6843338], [25.2815017, 54.6843286], [25.2814795, 54.6843824], [25.2815186, 54.6843887], [25.2814852, 54.6844655], [25.2816122, 54.6845091], [25.2817109, 54.6845221], [25.2818314, 54.6845378], [25.2818483, 54.6845036], [25.2819223, 54.6845139], [25.2820121, 54.6843108], [25.2821562, 54.6843275]], [[25.2817434, 54.6842123], [25.2818432, 54.68422790000002], [25.2818082, 54.6843031], [25.2817062, 54.6842872], [25.2817434, 54.6842123]]]}}, {"id": "6", "type": "Feature", "properties": {"building_id": "15321744", "area_m2": 2228.549686464714}, "geometry": {"type": "Polygon", "coordinates": [[[25.2770387, 54.6868561], [25.2773344, 54.68743639999999], [25.2778862, 54.687338], [25.2777208, 54.6869655], [25.2777008, 54.6869252], [25.2775745, 54.6867184], [25.2775328, 54.6867273], [25.2774606, 54.6867426], [25.2774774, 54.6867808], [25.2770387, 54.6868561]], [[25.2773811, 54.6872133], [25.2773631, 54.6872162], [25.2772315, 54.6869678], [25.2775495, 54.6869119], [25.2775754, 54.6869603], [25.277395, 54.6869909], [25.2774748, 54.6871488], [25.2774877, 54.6871465], [25.2775226, 54.6872208], [25.277396, 54.6872421], [25.2773811, 54.6872133]]]}}, {"id": "7", "type": "Feature", "properties": {"building_id": "24569625", "area_m2": 2332.5066895481573}, "geometry": {"type": "Polygon", "coordinates": [[[25.282476, 54.6867279], [25.2828106, 54.6866628], [25.2828391, 54.6866613], [25.2828744, 54.6866693], [25.2828988, 54.6866849], [25.2829172, 54.68669989999999], [25.2833402, 54.6871098], [25.2830265, 54.6872256], [25.2824316, 54.68694450000001], [25.2824192, 54.6869497], [25.2821896, 54.6868204], [25.2821818, 54.68680339999999], [25.2821901, 54.6867854], [25.28221, 54.6867679], [25.282476, 54.6867279]]]}}, {"id": "8", "type": "Feature", "properties": {"building_id": "24569871", "area_m2": 4414.974926682956}, "geometry": {"type": "Polygon", "coordinates": [[[25.2818074, 54.686851], [25.2814501, 54.6869128], [25.2810922, 54.686976299999984], [25.2813246, 54.6874238], [25.2815495, 54.6878615], [25.2816394, 54.6878478], [25.281697, 54.687838], [25.2817166, 54.6878345], [25.2817961, 54.6878203], [25.2816867, 54.6875987], [25.2821508, 54.6875092], [25.2821136, 54.6874432], [25.2820964, 54.6874184], [25.2820634, 54.6873632], [25.2821876, 54.6873431], [25.2820551, 54.6870895], [25.2819757, 54.6871027], [25.2819537, 54.6870489], [25.2818074, 54.686851]]]}}, {"id": "9", "type": "Feature", "properties": {"building_id": "29493645", "area_m2": 1327.3387505689016}, "geometry": {"type": "Polygon", "coordinates": [[[25.2796945, 54.68369839999998], [25.2795829, 54.6838509], [25.2798557, 54.6839176], [25.2808194, 54.6841533], [25.2808885, 54.68405889999998], [25.2807669, 54.6840292], [25.2805089, 54.683966099999985], [25.2805508, 54.6839088], [25.2804937, 54.6838949], [25.2803286, 54.6838545], [25.2802785, 54.68384229999999], [25.2802574, 54.6838712], [25.279943, 54.6837943], [25.2799648, 54.6837645], [25.2796945, 54.68369839999998]]]}}, {"id": "10", "type": "Feature", "properties": {"building_id": "29544702", "area_m2": 2163.1269323170427}, "geometry": {"type": "Polygon", "coordinates": [[[25.2827673, 54.685896100000015], [25.2828769, 54.6860875], [25.282768, 54.6861057], [25.2829417, 54.6864216], [25.2829481, 54.6864338], [25.2837836, 54.6862806], [25.2837497, 54.6862162], [25.2836718, 54.68607019999999], [25.2835726, 54.6860879], [25.2835347, 54.6860171], [25.2832959, 54.68605969999999], [25.2833008, 54.6860687], [25.283331, 54.6861299], [25.2832646, 54.6861121], [25.2832076, 54.6861226], [25.2831814, 54.6861575], [25.2830792, 54.6861759], [25.2830212, 54.6860702], [25.2830445, 54.6860662], [25.2828713, 54.6857518], [25.2827415, 54.6857744], [25.2827645, 54.6858737], [25.2827673, 54.685896100000015]]]}}, {"id": "11", "type": "Feature", "properties": {"building_id": "37945010", "area_m2": 1282.0349918980098}, "geometry": {"type": "Polygon", "coordinates": [[[25.2798015, 54.6850264], [25.2795783, 54.6850289], [25.2795615, 54.6850324], [25.2795517, 54.6850384], [25.2795464, 54.6850481], [25.2795663, 54.68559770000001], [25.2795666, 54.68562020000001], [25.2797413, 54.68561579999999], [25.2798723, 54.6856144], [25.2798709, 54.6855947], [25.2798685, 54.6855409], [25.2798872, 54.68552789999998], [25.2798863, 54.6855125], [25.2798939, 54.6854978], [25.2798841, 54.6852842], [25.2798568, 54.68527139999998], [25.2798555, 54.6852212], [25.279826, 54.6852043], [25.2798221, 54.68513870000001], [25.2798015, 54.6850264]]]}}, {"id": "12", "type": "Feature", "properties": {"building_id": "37945012", "area_m2": 696.5422817350171}, "geometry": {"type": "Polygon", "coordinates": [[[25.2795666, 54.68562020000001], [25.279588, 54.6858232], [25.2797903, 54.6858247], [25.2797894, 54.6858742], [25.2800102, 54.685877], [25.2800245, 54.6858776], [25.2800232, 54.685828399999984], [25.280127, 54.6858295], [25.2803615, 54.68583], [25.2803639, 54.6857393], [25.2801572, 54.6857395], [25.2800962, 54.68574], [25.2800956, 54.6857509], [25.2797533, 54.6857507], [25.2797413, 54.68561579999999], [25.2795666, 54.68562020000001]]]}}, {"id": "13", "type": "Feature", "properties": {"building_id": "37945017", "area_m2": 364.6868025922928}, "geometry": {"type": "Polygon", "coordinates": [[[25.2802867, 54.6855376], [25.2803697, 54.685537], [25.2803639, 54.6857393], [25.2801572, 54.6857395], [25.2801524, 54.6855445], [25.2800581, 54.6855431], [25.2800564, 54.6855043], [25.2802861, 54.6855062], [25.2802867, 54.6855376]]]}}, {"id": "14", "type": "Feature", "properties": {"building_id": "37945022", "area_m2": 639.0917687502276}, "geometry": {"type": "Polygon", "coordinates": [[[25.2798288, 54.6860493], [25.2795947, 54.6860457], [25.279588, 54.6858232], [25.2797903, 54.6858247], [25.2797894, 54.6858742], [25.2797569, 54.6858745], [25.2797594, 54.6859684], [25.2800104, 54.6859706], [25.2800102, 54.685877], [25.2800245, 54.6858776], [25.2800232, 54.685828399999984], [25.280127, 54.6858295], [25.2801291, 54.6859075], [25.2801505, 54.6859078], [25.2801539, 54.6860585], [25.2798288, 54.6860493]]]}}, {"id": "15", "type": "Feature", "properties": {"building_id": "37945027", "area_m2": 1791.623550831587}, "geometry": {"type": "Polygon", "coordinates": [[[25.2812941, 54.686322], [25.281238, 54.6862112], [25.2812161, 54.6862032], [25.2811684, 54.6862103], [25.2811716, 54.686219399999985], [25.2808228, 54.6862773], [25.2808188, 54.6862701], [25.2807661, 54.6862796], [25.280754, 54.6862896], [25.2808177, 54.6864137], [25.2808394, 54.6864169], [25.2808456, 54.6864274], [25.2808268, 54.68643], [25.2809906, 54.6867495], [25.2812899, 54.686699699999984], [25.281314, 54.68674389999999], [25.2817759, 54.6866622], [25.2816526, 54.6865494], [25.2816244, 54.6865539], [25.2815097, 54.68657420000001], [25.281501, 54.6865636], [25.2815466, 54.6865474], [25.2813884, 54.6863857], [25.2812811, 54.6864071], [25.2813147, 54.686481], [25.2813562, 54.6865726], [25.2813954, 54.686565399999985], [25.2814021, 54.6865778], [25.281383, 54.6865815], [25.281387, 54.686587399999986], [25.281268, 54.68660830000001], [25.281271, 54.6866149], [25.2812482, 54.6866193], [25.2811948, 54.6866284], [25.2810635, 54.6863695], [25.2812296, 54.6863421], [25.281233, 54.686350799999985], [25.2812871, 54.6863416], [25.2812938, 54.68633], [25.2812941, 54.686322]]]}}, {"id": "16", "type": "Feature", "properties": {"building_id": "37945030", "area_m2": 1916.1504916882034}, "geometry": {"type": "Polygon", "coordinates": [[[25.2817024, 54.686449], [25.2816875, 54.6864497], [25.2816868, 54.686466], [25.2815842, 54.6864858], [25.2816244, 54.6865539], [25.2816526, 54.6865494], [25.2817759, 54.6866622], [25.2817937, 54.6866778], [25.281998, 54.6866404], [25.2819832, 54.6866166], [25.2821181, 54.6865918], [25.2821465, 54.68657180000001], [25.2821428, 54.6860854], [25.2819683, 54.6860837], [25.2819658, 54.6861173], [25.281718, 54.6861124], [25.2817171, 54.6861656], [25.2815498, 54.6861645], [25.2815462, 54.6862251], [25.2815696, 54.686224899999985], [25.2815632, 54.6863319], [25.2817074, 54.6863341], [25.2817024, 54.686449]]]}}, {"id": "17", "type": "Feature", "properties": {"building_id": "37945061", "area_m2": 1399.1349894476045}, "geometry": {"type": "Polygon", "coordinates": [[[25.2819673, 54.6857956], [25.2819684, 54.6858848], [25.2818558, 54.6858842], [25.2818571, 54.6859094], [25.2816998, 54.6859082], [25.2817008, 54.685778599999985], [25.281398, 54.6857598], [25.2814039, 54.6856934], [25.2818778, 54.6857199], [25.2818803, 54.6856166], [25.2818879, 54.6854197], [25.281699, 54.6854131], [25.2816449, 54.6854116], [25.2816499, 54.6853694], [25.2817002, 54.6853718], [25.2817033, 54.6853361], [25.2817659, 54.6853284], [25.281942, 54.6853373], [25.2821382, 54.6853465], [25.2821328, 54.6856127], [25.2821354, 54.685795], [25.2819673, 54.6857956]]]}}, {"id": "18", "type": "Feature", "properties": {"building_id": "37945067", "area_m2": 974.5114190672655}, "geometry": {"type": "Polygon", "coordinates": [[[25.278961, 54.68677679999998], [25.2790616, 54.6870793], [25.279068, 54.6870866], [25.279077, 54.6870918], [25.2790887, 54.6870941], [25.2791062, 54.6870942], [25.2794254, 54.68704189999998], [25.2794367, 54.6870389], [25.2794482, 54.687035], [25.2794573, 54.6870287], [25.2794612, 54.6870218], [25.2794629, 54.6870156], [25.2794345, 54.6867533], [25.2792143, 54.6867582], [25.278961, 54.68677679999998]]]}}, {"id": "19", "type": "Feature", "properties": {"building_id": "52021201", "area_m2": 981.2415740464213}, "geometry": {"type": "Polygon", "coordinates": [[[25.2792143, 54.6867582], [25.2794345, 54.6867533], [25.2793933, 54.6861332], [25.2791731, 54.6861381], [25.2792143, 54.6867582]]]}}, {"id": "20", "type": "Feature", "properties": {"building_id": "55449008", "area_m2": 954.2620550100025}, "geometry": {"type": "Polygon", "coordinates": [[[25.2760884, 54.6863372], [25.2757264, 54.6865277], [25.2758672, 54.6866176], [25.2759003, 54.6865998], [25.2761343, 54.68675], [25.2761698, 54.6867301], [25.2762199, 54.68676], [25.2763995, 54.686665], [25.2761443, 54.68650190000001], [25.2761819, 54.6864837], [25.2761881, 54.6864878], [25.2762646, 54.686447899999976], [25.2760884, 54.6863372]]]}}, {"id": "21", "type": "Feature", "properties": {"building_id": "55449009", "area_m2": 1159.0732532378174}, "geometry": {"type": "Polygon", "coordinates": [[[25.275106, 54.6863268], [25.2751928, 54.6862731], [25.2752272, 54.6862917], [25.2753021, 54.6862454], [25.2752689, 54.6862275], [25.2754914, 54.68609], [25.2755204, 54.6861056], [25.2756004, 54.68605620000001], [25.275572, 54.6860408], [25.2756197, 54.6860113], [25.2753647, 54.6858735], [25.2753136, 54.6859051], [25.2752809, 54.6858874], [25.2752067, 54.68593329999999], [25.2752395, 54.685951], [25.2750098, 54.6860929], [25.2749805, 54.6860771], [25.2749098, 54.6861207], [25.2749394, 54.6861367], [25.2748532, 54.68619], [25.275106, 54.6863268]]]}}, {"id": "22", "type": "Feature", "properties": {"building_id": "55449090", "area_m2": 167.85554813337595}, "geometry": {"type": "Polygon", "coordinates": [[[25.2733784, 54.68513669999999], [25.273259, 54.6851982], [25.2733117, 54.6852325], [25.2732937, 54.6852412], [25.2733382, 54.6852713], [25.2733592, 54.6852615], [25.2734127, 54.6852953], [25.2734916, 54.685255], [25.2735301, 54.685232], [25.2734934, 54.6852098], [25.2735083, 54.6852023], [25.2734251, 54.6851504], [25.2734102, 54.6851573], [25.2733784, 54.68513669999999]]]}}, {"id": "23", "type": "Feature", "properties": {"building_id": "55449091", "area_m2": 353.33727896205284}, "geometry": {"type": "Polygon", "coordinates": [[[25.2750651, 54.6848152], [25.2749112, 54.6849129], [25.2750118, 54.6849552], [25.2750013, 54.68496239999999], [25.2750599, 54.684986], [25.2750719, 54.6849784], [25.2752087, 54.685029], [25.2753583, 54.6849373], [25.2752554, 54.6848969], [25.275273, 54.6848815], [25.2751624, 54.6848366], [25.2751457, 54.6848504], [25.2750651, 54.6848152]]]}}, {"id": "24", "type": "Feature", "properties": {"building_id": "55449092", "area_m2": 212.0874947485619}, "geometry": {"type": "Polygon", "coordinates": [[[25.2750633, 54.6845502], [25.2749219, 54.684645], [25.2750809, 54.6847234], [25.2751235, 54.684699], [25.2751484, 54.6847132], [25.2752515, 54.6846487], [25.2750633, 54.6845502]]]}}, {"id": "25", "type": "Feature", "properties": {"building_id": "55449256", "area_m2": 187.88061872007358}, "geometry": {"type": "Polygon", "coordinates": [[[25.2742079, 54.6848562], [25.2742729, 54.6848805], [25.2742642, 54.6848887], [25.2743992, 54.6849409], [25.2745011, 54.6848481], [25.2743281, 54.6847752], [25.2743082, 54.6847678], [25.2742079, 54.6848562]]]}}, {"id": "26", "type": "Feature", "properties": {"building_id": "55449502", "area_m2": 316.61282053601553}, "geometry": {"type": "Polygon", "coordinates": [[[25.2738708, 54.6858639], [25.2737788, 54.6859033], [25.2737624, 54.6858905], [25.2736936, 54.68592], [25.2737735, 54.6859822], [25.2736864, 54.6860195], [25.2737881, 54.6860988], [25.2740359, 54.6859926], [25.2738708, 54.6858639]]]}}, {"id": "27", "type": "Feature", "properties": {"building_id": "55449900", "area_m2": 197.64483357482703}, "geometry": {"type": "Polygon", "coordinates": [[[25.2753893, 54.6854002], [25.2755437, 54.6853028], [25.2755397, 54.6852855], [25.2753986, 54.6852237], [25.2753242, 54.6852703], [25.2753129, 54.6852654], [25.2752663, 54.6852941], [25.2752762, 54.6853003], [25.2752497, 54.68531680000001], [25.2753893, 54.6854002]]]}}, {"id": "28", "type": "Feature", "properties": {"building_id": "55449901", "area_m2": 700.0895559177438}, "geometry": {"type": "Polygon", "coordinates": [[[25.2757028, 54.6851948], [25.2761377, 54.6849341], [25.2759438, 54.684826], [25.2755089, 54.6850867], [25.2757028, 54.6851948]]]}}, {"id": "29", "type": "Feature", "properties": {"building_id": "55999522", "area_m2": 1072.9071987280356}, "geometry": {"type": "Polygon", "coordinates": [[[25.276906, 54.686139199999985], [25.2771688, 54.6860568], [25.277422, 54.6859775], [25.2773289, 54.6858791], [25.2773215, 54.6858714], [25.2768056, 54.6860315], [25.276817, 54.6860431], [25.2767606, 54.686066], [25.2767445, 54.6860551], [25.2762765, 54.686255399999986], [25.2763993, 54.686357], [25.2768755, 54.6861564], [25.2768443, 54.6861311], [25.2768841, 54.6861158], [25.276906, 54.686139199999985]]]}}, {"id": "30", "type": "Feature", "properties": {"building_id": "55999523", "area_m2": 833.5785294712305}, "geometry": {"type": "Polygon", "coordinates": [[[25.2781754, 54.686498], [25.2782718, 54.68682759999999], [25.2782088, 54.6868346], [25.278223, 54.6868706], [25.2785872, 54.6868214], [25.2784779, 54.6864632], [25.2781754, 54.686498]]]}}, {"id": "31", "type": "Feature", "properties": {"building_id": "61490494", "area_m2": 659.9365720205362}, "geometry": {"type": "Polygon", "coordinates": [[[25.2775904, 54.6843529], [25.2776202, 54.6843406], [25.2780336, 54.684177], [25.2779728, 54.6840223], [25.2779216, 54.6840461], [25.2777739, 54.68410129999999], [25.2777614, 54.6840919], [25.2777576, 54.684074299999985], [25.277734, 54.6840544], [25.2776915, 54.6840529], [25.2776572, 54.6840666], [25.277649, 54.6840595], [25.277599, 54.68408], [25.2776074, 54.6840865], [25.2775732, 54.6841003], [25.2775634, 54.6841262], [25.2775935, 54.684149099999985], [25.2776161, 54.6841524], [25.2776257, 54.6841596], [25.2775757, 54.68418119999998], [25.2775787, 54.6842555], [25.2775522, 54.6842663], [25.277519, 54.6842788], [25.2775204, 54.6842956], [25.2775904, 54.6843529]]]}}, {"id": "32", "type": "Feature", "properties": {"building_id": "61490497", "area_m2": 600.8029645993744}, "geometry": {"type": "Polygon", "coordinates": [[[25.2781801, 54.6841099], [25.2787526, 54.6838908], [25.2787232, 54.6838659], [25.2786341, 54.683790399999985], [25.278619, 54.6837961], [25.2780654, 54.6840056], [25.2781801, 54.6841099]]]}}, {"id": "33", "type": "Feature", "properties": {"building_id": "61490565", "area_m2": 772.4462886516952}, "geometry": {"type": "Polygon", "coordinates": [[[25.2774962, 54.6839977], [25.2772333, 54.6840153], [25.2772233, 54.6840156], [25.2772952, 54.6844247], [25.277364, 54.684442899999986], [25.2775904, 54.6843529], [25.2775204, 54.6842956], [25.277519, 54.6842788], [25.2774962, 54.6839977]]]}}, {"id": "34", "type": "Feature", "properties": {"building_id": "61490566", "area_m2": 617.3859815933484}, "geometry": {"type": "Polygon", "coordinates": [[[25.2772635, 54.6838019], [25.2772333, 54.6840153], [25.2774962, 54.6839977], [25.2777553, 54.6839763], [25.2779474, 54.6839605], [25.2779271, 54.68389769999999], [25.2779129, 54.6838657], [25.2778907, 54.6838677], [25.2778151, 54.6838768], [25.277816, 54.6838834], [25.2778193, 54.6838975], [25.2775551, 54.683918], [25.2775435, 54.6839213], [25.2775343, 54.6839262], [25.2775272, 54.683931499999986], [25.2775213, 54.6839376], [25.2775172, 54.6839439], [25.2775159, 54.6839491], [25.2774988, 54.6839502], [25.2775074, 54.6839016], [25.2774764, 54.6838995], [25.2774852, 54.6838514], [25.2775042, 54.6838476], [25.2775177, 54.683841700000016], [25.2775259, 54.6838342], [25.2775294, 54.683825900000016], [25.2775263, 54.68381560000001], [25.2775194, 54.683808], [25.2775073, 54.6838008], [25.2774906, 54.6837964], [25.2772635, 54.6838019]]]}}, {"id": "35", "type": "Feature", "properties": {"building_id": "61491439", "area_m2": 86.71120132293294}, "geometry": {"type": "Polygon", "coordinates": [[[25.2733434, 54.6842503], [25.2733121, 54.6841845], [25.2733054, 54.6841766], [25.2732949, 54.6841705], [25.2732777, 54.6841661], [25.2732559, 54.6841625], [25.2732301, 54.6841626], [25.2731661, 54.6841702], [25.273187, 54.68421919999999], [25.2732055, 54.6842172], [25.2732315, 54.6842655], [25.2733434, 54.6842503]]]}}, {"id": "36", "type": "Feature", "properties": {"building_id": "61675623", "area_m2": 312.35496647989464}, "geometry": {"type": "Polygon", "coordinates": [[[25.2742152, 54.6864054], [25.2744859, 54.68629], [25.2743399, 54.686191], [25.2740746, 54.686299], [25.2742152, 54.6864054]]]}}, {"id": "37", "type": "Feature", "properties": {"building_id": "61675624", "area_m2": 1256.5880471303356}, "geometry": {"type": "Polygon", "coordinates": [[[25.2742461, 54.6864309], [25.2741079, 54.68649149999999], [25.2735, 54.6867383], [25.2735106, 54.6867463], [25.2735368, 54.6867369], [25.2735516, 54.6867408], [25.2735874, 54.6867728], [25.2735913, 54.6867763], [25.2735549, 54.6867919], [25.2734663, 54.6868223], [25.2733837, 54.6867321], [25.2732472, 54.6866431], [25.273572, 54.686508], [25.2736715, 54.6864666], [25.2740746, 54.686299], [25.2742152, 54.6864054], [25.2742461, 54.6864309]]]}}, {"id": "38", "type": "Feature", "properties": {"building_id": "61675625", "area_m2": 244.95604989438476}, "geometry": {"type": "Polygon", "coordinates": [[[25.2742461, 54.6864309], [25.2744286, 54.68657], [25.2744396, 54.6865784], [25.2744518, 54.6865877], [25.2743136, 54.6866483], [25.2742497, 54.6865996], [25.2741079, 54.68649149999999], [25.2742461, 54.6864309]]]}}, {"id": "39", "type": "Feature", "properties": {"building_id": "61675629", "area_m2": 1071.529946294985}, "geometry": {"type": "Polygon", "coordinates": [[[25.2732472, 54.6866431], [25.2727175, 54.686861399999984], [25.2727357, 54.6868762], [25.2727217, 54.68688189999999], [25.2726216, 54.6869228], [25.272311, 54.6870496], [25.2724233, 54.6871458], [25.2727531, 54.6870081], [25.2730319, 54.68689579999999], [25.2732142, 54.6868185], [25.273261, 54.6868548], [25.2733178, 54.6868343], [25.273265, 54.68678709999999], [25.2732992, 54.6867745], [25.2733837, 54.6867321], [25.2732472, 54.6866431]]]}}, {"id": "40", "type": "Feature", "properties": {"building_id": "61676565", "area_m2": 525.1219623345753}, "geometry": {"type": "Polygon", "coordinates": [[[25.275335, 54.6869057], [25.2757519, 54.6866948], [25.2755956, 54.6865938], [25.2751883, 54.6868077], [25.275335, 54.6869057]]]}}, {"id": "41", "type": "Feature", "properties": {"building_id": "61676567", "area_m2": 1670.6469529594772}, "geometry": {"type": "Polygon", "coordinates": [[[25.2779908, 54.6846317], [25.2780428, 54.6846145], [25.2780682, 54.6846378], [25.2781295, 54.6846181], [25.2781076, 54.684594199999985], [25.2782304, 54.68455059999999], [25.2780972, 54.684416], [25.2780825, 54.6844003], [25.2782589, 54.6843302], [25.2782993, 54.6843151], [25.2784634, 54.6844926], [25.2785726, 54.6844883], [25.2785842, 54.684571799999986], [25.2783603, 54.6845854], [25.2782618, 54.6845961], [25.2782069, 54.6846082], [25.2782151, 54.684625], [25.2781642, 54.6846417], [25.2781425, 54.6846631], [25.2786314, 54.684642199999985], [25.2787809, 54.6846337], [25.2787624, 54.6844372], [25.27876, 54.684382], [25.2785681, 54.6844193], [25.2783525, 54.68417980000001], [25.2781915, 54.684243299999984], [25.2778561, 54.684373], [25.2776464, 54.6844539], [25.2777011, 54.6845075], [25.2777186, 54.6845231], [25.2778334, 54.6844778], [25.2779908, 54.6846317]]]}}, {"id": "42", "type": "Feature", "properties": {"building_id": "61676568", "area_m2": 188.5199037430098}, "geometry": {"type": "Polygon", "coordinates": [[[25.274044, 54.6870333], [25.2742319, 54.6868935], [25.2741163, 54.686841], [25.2739267, 54.6869785], [25.2739468, 54.6869879], [25.274044, 54.6870333]]]}}, {"id": "43", "type": "Feature", "properties": {"building_id": "61676574", "area_m2": 392.2999989250984}, "geometry": {"type": "Polygon", "coordinates": [[[25.275335, 54.6869057], [25.2753664, 54.6869144], [25.2752836, 54.6870516], [25.2752587, 54.6870464], [25.2750293, 54.6870715], [25.2750159, 54.6870364], [25.2751414, 54.6868313], [25.2751883, 54.6868077], [25.275335, 54.6869057]]]}}, {"id": "44", "type": "Feature", "properties": {"building_id": "61692039", "area_m2": 1204.366151193008}, "geometry": {"type": "Polygon", "coordinates": [[[25.2776789, 54.6860575], [25.2778748, 54.6860173], [25.2778152, 54.6859196], [25.2777825, 54.6859114], [25.2777504, 54.6859163], [25.2777397, 54.6858986], [25.2777617, 54.6858934], [25.2777668, 54.6858994], [25.2779695, 54.685846], [25.277967, 54.685841], [25.2779946, 54.6858343], [25.2780249, 54.68587929999999], [25.2780433, 54.6858754], [25.278121, 54.6859906], [25.2781341, 54.686011], [25.2783573, 54.6859583], [25.2783484, 54.685943], [25.2781757, 54.6856706], [25.2781749, 54.6856626], [25.2781697, 54.6856542], [25.2781586, 54.6856471], [25.2781446, 54.6856438], [25.2781273, 54.6856447], [25.2781136, 54.685648], [25.2781043, 54.6856548], [25.2781008, 54.6856636], [25.2775264, 54.6858155], [25.2775288, 54.6858193], [25.2776789, 54.6860575]]]}}, {"id": "45", "type": "Feature", "properties": {"building_id": "61692042", "area_m2": 350.39360443234096}, "geometry": {"type": "Polygon", "coordinates": [[[25.2781111, 54.6850453], [25.2782903, 54.684967499999985], [25.2780662, 54.68479569999999], [25.2778829, 54.6848778], [25.2781111, 54.6850453]]]}}, {"id": "46", "type": "Feature", "properties": {"building_id": "61692043", "area_m2": 371.5813386553297}, "geometry": {"type": "Polygon", "coordinates": [[[25.2778829, 54.6848778], [25.2780662, 54.68479569999999], [25.2779109, 54.684672], [25.2778908, 54.684672499999984], [25.2778794, 54.68464380000001], [25.2776897, 54.6846616], [25.2777091, 54.6846741], [25.2776426, 54.6847042], [25.2778829, 54.6848778]]]}}, {"id": "47", "type": "Feature", "properties": {"building_id": "61692046", "area_m2": 740.5249500492127}, "geometry": {"type": "Polygon", "coordinates": [[[25.2782903, 54.684967499999985], [25.2784047, 54.6850565], [25.2785933, 54.6853791], [25.278528, 54.685392399999984], [25.2785361, 54.6854097], [25.2785717, 54.6854574], [25.2784381, 54.6854765], [25.2784225, 54.6854788], [25.2783994, 54.6854358], [25.2782122, 54.6851166], [25.2781111, 54.6850453], [25.2782903, 54.684967499999985]]]}}, {"id": "48", "type": "Feature", "properties": {"building_id": "61692047", "area_m2": 561.0879285962819}, "geometry": {"type": "Polygon", "coordinates": [[[25.2783573, 54.6859583], [25.2784484, 54.68624009999998], [25.2781924, 54.68626780000001], [25.2781689, 54.6861951], [25.2781141, 54.686201], [25.2780716, 54.68606969999998], [25.278125, 54.6860639], [25.2781088, 54.6860137], [25.2781341, 54.686011], [25.2783573, 54.6859583]]]}}, {"id": "49", "type": "Feature", "properties": {"building_id": "77178164", "area_m2": 751.3973069288805}, "geometry": {"type": "Polygon", "coordinates": [[[25.2823734, 54.6857757], [25.2823264, 54.6857768], [25.2823309, 54.68589809999999], [25.2823728, 54.6858991], [25.2823781, 54.68613650000001], [25.2823922, 54.686135], [25.2823924, 54.6861505], [25.2823926, 54.6861726], [25.2825736, 54.6861411], [25.2825732, 54.6861179], [25.2825729, 54.6861013], [25.2825852, 54.6860974], [25.2825772, 54.6858987], [25.2826081, 54.685898299999984], [25.2827673, 54.685896100000015], [25.2827645, 54.6858737], [25.2827415, 54.6857744], [25.2826054, 54.6857753], [25.2825663, 54.6857756], [25.2823734, 54.6857757]]]}}, {"id": "50", "type": "Feature", "properties": {"building_id": "77178166", "area_m2": 734.8496441165566}, "geometry": {"type": "Polygon", "coordinates": [[[25.2823926, 54.6861726], [25.282379, 54.6861763], [25.2823858, 54.6862562], [25.282388, 54.6862825], [25.2823953, 54.6862825], [25.2823951, 54.6863106], [25.2824199, 54.6863112], [25.2824613, 54.6863835], [25.2824161, 54.6863898], [25.2824217, 54.6864214], [25.282407, 54.686424], [25.2824097, 54.6864945], [25.2824369, 54.6865315], [25.2828294, 54.6864583], [25.282822, 54.686444], [25.2827808, 54.686367], [25.282696, 54.6863838], [25.2826037, 54.6862187], [25.2825994, 54.686211], [25.2826108, 54.6862075], [25.2825976, 54.6861878], [25.2826705, 54.6861743], [25.2826488, 54.6861275], [25.2825736, 54.6861411], [25.2823926, 54.6861726]]]}}, {"id": "51", "type": "Feature", "properties": {"building_id": "89582358", "area_m2": 1322.7737883018806}, "geometry": {"type": "Polygon", "coordinates": [[[25.2777732, 54.6860981], [25.2778686, 54.68635660000001], [25.2780554, 54.6868631], [25.2778213, 54.686892], [25.2776349, 54.6863869], [25.2775705, 54.6862125], [25.2775486, 54.68615290000001], [25.2776622, 54.6861233], [25.2777732, 54.6860981]]]}}, {"id": "52", "type": "Feature", "properties": {"building_id": "89594111", "area_m2": 2279.540291694853}, "geometry": {"type": "Polygon", "coordinates": [[[25.2785681, 54.6844193], [25.27876, 54.684382], [25.2790097, 54.6843304], [25.2790725, 54.6843174], [25.279309, 54.684267], [25.2792571, 54.6838985], [25.2792703, 54.683898099999986], [25.2792674, 54.6838739], [25.2792629, 54.6838735], [25.2792616, 54.6838608], [25.2792584, 54.6838552], [25.279252, 54.683852], [25.2792545, 54.6838474], [25.279244, 54.6838441], [25.2792382, 54.6838397], [25.2792253, 54.6838368], [25.2792102, 54.6838368], [25.2792039, 54.68384], [25.2791987, 54.683837], [25.2791873, 54.6838372], [25.2791303, 54.68385949999998], [25.2791362, 54.6838647], [25.2783853, 54.6841662], [25.2783525, 54.68417980000001], [25.2785681, 54.6844193]]]}}, {"id": "53", "type": "Feature", "properties": {"building_id": "89594122", "area_m2": 1095.763891314115}, "geometry": {"type": "Polygon", "coordinates": [[[25.2797003, 54.68441579999999], [25.2794841, 54.684423399999986], [25.2794102, 54.68380890000001], [25.2795829, 54.6838509], [25.2798557, 54.6839176], [25.2797906, 54.6840194], [25.2796636, 54.6840198], [25.2797003, 54.68441579999999]]]}}, {"id": "54", "type": "Feature", "properties": {"building_id": "89594154", "area_m2": 401.50172932600236}, "geometry": {"type": "Polygon", "coordinates": [[[25.2797164, 54.6847528], [25.2799229, 54.6847536], [25.2799203, 54.6845027], [25.2798516, 54.684502], [25.2796789, 54.6845002], [25.2796779, 54.6846116], [25.2797149, 54.6846118], [25.2797164, 54.6847528]]]}}, {"id": "55", "type": "Feature", "properties": {"building_id": "89594157", "area_m2": 1208.7081979997236}, "geometry": {"type": "Polygon", "coordinates": [[[25.2793598, 54.6848522], [25.2793703, 54.6850339], [25.279372, 54.6851022], [25.2794032, 54.6851026], [25.2794029, 54.685137799999985], [25.2793744, 54.6851376], [25.2793791, 54.6854036], [25.2794062, 54.6854036], [25.2794059, 54.6854384], [25.2793801, 54.6854382], [25.2793801, 54.6854419], [25.2790585, 54.685456299999984], [25.2790264, 54.6854565], [25.2790208, 54.685408], [25.2790156, 54.6853729], [25.2790405, 54.6853731], [25.2790723, 54.6853729], [25.2790726, 54.6853919], [25.2791031, 54.6853931], [25.2791196, 54.68541229999999], [25.2791299, 54.6854114], [25.2791265, 54.6853009], [25.2790944, 54.68529659999999], [25.2790763, 54.685284899999985], [25.2790708, 54.6852722], [25.2790783, 54.6852594], [25.2790903, 54.685250199999984], [25.2791052, 54.685245], [25.2791225, 54.6852415], [25.2791264, 54.6851425], [25.2791159, 54.6851426], [25.2790864, 54.68517159999998], [25.2790349, 54.6851713], [25.27902, 54.685171], [25.2790177, 54.6851314], [25.2790183, 54.6851126], [25.2791398, 54.6851043], [25.2791319, 54.6850321], [25.2791271, 54.6849959], [25.2790623, 54.6849963], [25.2790472, 54.6849915], [25.2790351, 54.6849847], [25.2790274, 54.684977], [25.2790276, 54.6849575], [25.2790351, 54.6849481], [25.2790492, 54.68494089999999], [25.2790638, 54.6849371], [25.2791231, 54.6849349], [25.279115, 54.6848612], [25.2793598, 54.6848522]]]}}, {"id": "56", "type": "Feature", "properties": {"building_id": "89594166", "area_m2": 546.893912729155}, "geometry": {"type": "Polygon", "coordinates": [[[25.2793331, 54.6845987], [25.2790942, 54.6846133], [25.2790848, 54.6844815], [25.2790529, 54.6844816], [25.2790505, 54.684437], [25.2790826, 54.684436199999986], [25.279082, 54.68442610000001], [25.2790725, 54.6843174], [25.279309, 54.684267], [25.2793175, 54.6844179], [25.2793331, 54.6845987]]]}}, {"id": "57", "type": "Feature", "properties": {"building_id": "89594168", "area_m2": 932.9612508200541}, "geometry": {"type": "Polygon", "coordinates": [[[25.2731, 54.6861764], [25.2731416, 54.6862111], [25.2731278, 54.6862168], [25.2733235, 54.686378], [25.2732566, 54.6864053], [25.2728029, 54.6865879], [25.2726979, 54.6865043], [25.2726878, 54.6865082], [25.272542, 54.686387799999984], [25.2725641, 54.6863799], [25.2725548, 54.6863727], [25.2727046, 54.6863127], [25.2727154, 54.6863206], [25.2727825, 54.6862926], [25.2727932, 54.6863018], [25.2729132, 54.6864062], [25.2731032, 54.6863286], [25.2729825, 54.68622370000001], [25.2731, 54.6861764]]]}}, {"id": "58", "type": "Feature", "properties": {"building_id": "89594182", "area_m2": 330.2417006422073}, "geometry": {"type": "Polygon", "coordinates": [[[25.2799923, 54.6847568], [25.2805032, 54.6847694], [25.2805094, 54.6846861], [25.2802926, 54.68468079999999], [25.280296, 54.68463469999999], [25.280218, 54.68463269999999], [25.2802145, 54.6846798], [25.2799984, 54.6846745], [25.2799923, 54.6847568]]]}}, {"id": "59", "type": "Feature", "properties": {"building_id": "89594189", "area_m2": 754.0220487398888}, "geometry": {"type": "Polygon", "coordinates": [[[25.2793353, 54.6847257], [25.2793288, 54.6846619], [25.2793385, 54.6846526], [25.2793331, 54.6845987], [25.2790942, 54.6846133], [25.2790663, 54.6846155], [25.2789808, 54.6846224], [25.2787809, 54.6846337], [25.2786314, 54.684642199999985], [25.2786417, 54.6847096], [25.2789893, 54.6846909], [25.2789837, 54.6846521], [25.2790275, 54.68464979999999], [25.2790381, 54.6847384], [25.2790394, 54.684752], [25.2790093, 54.6847531], [25.2790032, 54.6847632], [25.2790119, 54.6848421], [25.2790234, 54.6848631], [25.279115, 54.6848612], [25.2793598, 54.6848522], [25.2793577, 54.6847984], [25.2793425, 54.6847938], [25.2793353, 54.6847257]]]}}, {"id": "60", "type": "Feature", "properties": {"building_id": "89594194", "area_m2": 382.6038811586467}, "geometry": {"type": "Polygon", "coordinates": [[[25.2823255, 54.6856281], [25.2823653, 54.6856272], [25.2826107, 54.6856046], [25.2826187, 54.6856028], [25.2825926, 54.6855061], [25.2826663, 54.6855008], [25.2826476, 54.68543159999999], [25.2824505, 54.6854492], [25.2823114, 54.6854609], [25.282301, 54.6854617], [25.2823255, 54.6856281]]]}}, {"id": "61", "type": "Feature", "properties": {"building_id": "89613971", "area_m2": 255.60976466024786}, "geometry": {"type": "Polygon", "coordinates": [[[25.2746184, 54.685843], [25.2743698, 54.6859438], [25.2742434, 54.68584520000001], [25.274458, 54.6857533], [25.2746184, 54.685843]]]}}, {"id": "62", "type": "Feature", "properties": {"building_id": "89613975", "area_m2": 201.30041125710517}, "geometry": {"type": "Polygon", "coordinates": [[[25.2736138, 54.6861614], [25.2734816, 54.6862092], [25.2734721, 54.686199], [25.2733723, 54.6862343], [25.273274, 54.6861509], [25.2733573, 54.68611820000001], [25.2733715, 54.6861271], [25.2735156, 54.6860735], [25.2736138, 54.6861614]]]}}, {"id": "63", "type": "Feature", "properties": {"building_id": "89613977", "area_m2": 210.30196355749584}, "geometry": {"type": "Polygon", "coordinates": [[[25.2750614, 54.6854048], [25.2751416, 54.6853577], [25.2751681, 54.6853673], [25.2752497, 54.68531680000001], [25.2753893, 54.6854002], [25.2752286, 54.6854968], [25.2750614, 54.6854048]]]}}, {"id": "64", "type": "Feature", "properties": {"building_id": "89613996", "area_m2": 358.2753356607601}, "geometry": {"type": "Polygon", "coordinates": [[[25.27472, 54.685614499999986], [25.2746963, 54.68562769999998], [25.2746377, 54.6856608], [25.2746207, 54.6856518], [25.274566, 54.6856842], [25.2745562, 54.6856807], [25.2744474, 54.6857474], [25.274458, 54.6857533], [25.2746184, 54.685843], [25.2747606, 54.6857783], [25.2748493, 54.6857301], [25.2748416, 54.68572660000001], [25.2748561, 54.6857173], [25.2748786, 54.68570349999999], [25.27472, 54.685614499999986]]]}}, {"id": "65", "type": "Feature", "properties": {"building_id": "89614002", "area_m2": 217.28457433897074}, "geometry": {"type": "Polygon", "coordinates": [[[25.2743687, 54.6853683], [25.2745712, 54.685483], [25.2744555, 54.6855513], [25.274405, 54.6855227], [25.2743642, 54.6855468], [25.2742905, 54.6855051], [25.2743347, 54.685479], [25.2742563, 54.6854346], [25.2743687, 54.6853683]]]}}, {"id": "66", "type": "Feature", "properties": {"building_id": "89614010", "area_m2": 869.3339143604476}, "geometry": {"type": "Polygon", "coordinates": [[[25.2738379, 54.6854372], [25.273908, 54.6854714], [25.2738566, 54.6855], [25.2738658, 54.6855065], [25.2738152, 54.6855412], [25.2736471, 54.6854477], [25.2737483, 54.6853775], [25.2736858, 54.6853494], [25.2738055, 54.6852637], [25.2739455, 54.6851862], [25.273963, 54.6851982], [25.2740127, 54.6851714], [25.2739766, 54.6851468], [25.2741415, 54.6850555], [25.2742507, 54.6851247], [25.274382, 54.6851868], [25.2742423, 54.6852866], [25.274125, 54.685235699999986], [25.2740631, 54.6852646], [25.2740975, 54.68529], [25.2738379, 54.6854372]]]}}, {"id": "67", "type": "Feature", "properties": {"building_id": "112045108", "area_m2": 360.70827777029615}, "geometry": {"type": "Polygon", "coordinates": [[[25.2822681, 54.685154], [25.2825316, 54.685132], [25.2825263, 54.6850638], [25.2825246, 54.6849534], [25.2822828, 54.6849599], [25.2822489, 54.6849818], [25.2822551, 54.6850735], [25.2822681, 54.685154]]]}}, {"id": "68", "type": "Feature", "properties": {"building_id": "112045111", "area_m2": 237.37288546620834}, "geometry": {"type": "Polygon", "coordinates": [[[25.2828462, 54.685049], [25.2825263, 54.6850638], [25.2825246, 54.6849534], [25.2828372, 54.6849505], [25.2828462, 54.685049]]]}}, {"id": "69", "type": "Feature", "properties": {"building_id": "112045113", "area_m2": 491.6238603134478}, "geometry": {"type": "Polygon", "coordinates": [[[25.2825306, 54.6852874], [25.2825464, 54.6853541], [25.2829562, 54.685326299999986], [25.2829397, 54.6852542], [25.2829657, 54.6852526], [25.2829362, 54.6850996], [25.282812, 54.6851086], [25.2828234, 54.6851628], [25.2828348, 54.6851625], [25.2828413, 54.685205], [25.2828167, 54.6851973], [25.282515, 54.6852221], [25.2825306, 54.6852874]]]}}, {"id": "70", "type": "Feature", "properties": {"building_id": "112045115", "area_m2": 5854.2367454310315}, "geometry": {"type": "Polygon", "coordinates": [[[25.2840656, 54.686033], [25.2841547, 54.6860171], [25.2841091, 54.6859318], [25.2841232, 54.6859293], [25.2841168, 54.6859173], [25.2841079, 54.6859007], [25.2841525, 54.6858927], [25.284147, 54.68588230000001], [25.2841099, 54.68581279999999], [25.2838802, 54.6853826], [25.2838308, 54.6853914], [25.2837737, 54.6852845], [25.2836676, 54.68530339999999], [25.2836435, 54.6852583], [25.2832161, 54.6853346], [25.2832295, 54.6853597], [25.2830539, 54.685391], [25.2829777, 54.6854046], [25.2829918, 54.6854311], [25.2828182, 54.6854621], [25.2830034, 54.685809], [25.2830489, 54.6858008], [25.2832015, 54.6860865], [25.2833008, 54.6860687], [25.2832959, 54.68605969999999], [25.2835347, 54.6860171], [25.2835726, 54.6860879], [25.2836718, 54.68607019999999], [25.2837497, 54.6862162], [25.2838125, 54.686205], [25.2838531, 54.6861977], [25.2838924, 54.6861907], [25.2839285, 54.6862581], [25.2841064, 54.68622709999999], [25.2840255, 54.6860787], [25.2840138, 54.6860552], [25.2840433, 54.6860499], [25.2840541, 54.686049], [25.2840628, 54.6860452], [25.284067, 54.6860393], [25.2840656, 54.686033]]]}}, {"id": "71", "type": "Feature", "properties": {"building_id": "112045116", "area_m2": 271.1867157248323}, "geometry": {"type": "Polygon", "coordinates": [[[25.2825306, 54.6852874], [25.2822927, 54.6853057], [25.2822841, 54.6853057], [25.2822756, 54.6852254], [25.2822681, 54.685154], [25.2825316, 54.685132], [25.2825492, 54.6852001], [25.2824531, 54.6852048], [25.2824547, 54.6852144], [25.2824572, 54.6852296], [25.282515, 54.6852221], [25.2825306, 54.6852874]]]}}, {"id": "72", "type": "Feature", "properties": {"building_id": "112045120", "area_m2": 670.8390276416893}, "geometry": {"type": "Polygon", "coordinates": [[[25.2833459, 54.68506569999999], [25.2833322, 54.6852198], [25.2831289, 54.6852146], [25.2831387, 54.685072], [25.2828497, 54.6850753], [25.2828462, 54.685049], [25.2828372, 54.6849505], [25.2832042, 54.6849469], [25.2832042, 54.68494169999999], [25.2833075, 54.68494049999999], [25.2833078, 54.6849458], [25.2833503, 54.6849447], [25.2833459, 54.68506569999999]]]}}, {"id": "73", "type": "Feature", "properties": {"building_id": "112185041", "area_m2": 937.1156033972333}, "geometry": {"type": "Polygon", "coordinates": [[[25.283175, 54.6846204], [25.2828399, 54.6845962], [25.2827318, 54.6845894], [25.2823561, 54.6845507], [25.2823939, 54.6844731], [25.2824002, 54.6844645], [25.2824758, 54.68430259999999], [25.2826417, 54.684328], [25.282766, 54.6843437], [25.2827426, 54.6844094], [25.2826749, 54.6844014], [25.2826497, 54.6844744], [25.2825492, 54.6844701], [25.2825455, 54.6844839], [25.2825418, 54.684498], [25.2830857, 54.6845393], [25.2830869, 54.6845322], [25.283512, 54.6845667], [25.2834966, 54.6846392], [25.283175, 54.6846204]]]}}, {"id": "74", "type": "Feature", "properties": {"building_id": "112185042", "area_m2": 99.4211921938445}, "geometry": {"type": "Polygon", "coordinates": [[[25.2827051, 54.6848993], [25.2828813, 54.6848946], [25.282875, 54.6848162], [25.2828341, 54.68481719999998], [25.2826989, 54.6848208], [25.2827016, 54.6848553], [25.2827051, 54.6848993]]]}}, {"id": "75", "type": "Feature", "properties": {"building_id": "112185044", "area_m2": 471.17238564424554}, "geometry": {"type": "Polygon", "coordinates": [[[25.2830962, 54.6841883], [25.2830851, 54.6840672], [25.2830205, 54.6840613], [25.2830225, 54.684047], [25.2827161, 54.6840265], [25.2826714, 54.6839532], [25.2828287, 54.6839583], [25.282879, 54.6839623], [25.2830993, 54.683981], [25.2832248, 54.683992], [25.2832301, 54.6840397], [25.2832596, 54.6840391], [25.2832892, 54.6841887], [25.2832907, 54.6841963], [25.2830962, 54.6841883]]]}}, {"id": "76", "type": "Feature", "properties": {"building_id": "112185046", "area_m2": 520.4390584138407}, "geometry": {"type": "Polygon", "coordinates": [[[25.2816787, 54.68460119999999], [25.2817109, 54.6845221], [25.2818314, 54.6845378], [25.2818263, 54.6845504], [25.2820856, 54.6845904], [25.2821442, 54.6844597], [25.2822015, 54.6843448], [25.2822319, 54.6843256], [25.2823354, 54.6843421], [25.2822795, 54.6844791], [25.2821995, 54.6846642], [25.281984, 54.684638], [25.2816787, 54.68460119999999]]]}}, {"id": "77", "type": "Feature", "properties": {"building_id": "112185049", "area_m2": 87.9970541211717}, "geometry": {"type": "Polygon", "coordinates": [[[25.2824465, 54.6849045], [25.2824473, 54.6848594], [25.2825129, 54.6848588], [25.2825116, 54.6848404], [25.2825614, 54.684840499999986], [25.2825618, 54.68485779999999], [25.2827016, 54.6848553], [25.2827051, 54.6848993], [25.2824465, 54.6849045]]]}}, {"id": "78", "type": "Feature", "properties": {"building_id": "112185054", "area_m2": 186.3410428526323}, "geometry": {"type": "Polygon", "coordinates": [[[25.2813046, 54.6853301], [25.2813958, 54.6853299], [25.2813938, 54.6853508], [25.2814778, 54.6853503], [25.2814762, 54.6852126], [25.2813787, 54.6852127], [25.2813777, 54.6851985], [25.2812684, 54.6851981], [25.2812702, 54.6852835], [25.2813052, 54.6852834], [25.2813046, 54.6853301]]]}}, {"id": "79", "type": "Feature", "properties": {"building_id": "112185058", "area_m2": 387.6063448241178}, "geometry": {"type": "Polygon", "coordinates": [[[25.2826113, 54.6847493], [25.2822939, 54.6847298], [25.2823236, 54.6846453], [25.2823561, 54.6845507], [25.2827318, 54.6845894], [25.2827205, 54.68464920000001], [25.2825836, 54.68463819999999], [25.28258, 54.6846533], [25.2824325, 54.68464130000001], [25.2824278, 54.684654399999985], [25.2824223, 54.68466940000001], [25.282465, 54.6846694], [25.2824646, 54.68468139999999], [25.2826499, 54.68468829999998], [25.2826489, 54.6847504], [25.2826113, 54.6847493]]]}}, {"id": "80", "type": "Feature", "properties": {"building_id": "112185059", "area_m2": 468.26847344176133}, "geometry": {"type": "Polygon", "coordinates": [[[25.2824758, 54.68430259999999], [25.2825719, 54.6841443], [25.2825894, 54.684043899999985], [25.2826044, 54.6839472], [25.2826714, 54.6839532], [25.2827161, 54.6840265], [25.2827123, 54.6840528], [25.2827082, 54.6840913], [25.2829598, 54.6841101], [25.2829445, 54.6841797], [25.2827882, 54.6841668], [25.2827818, 54.684195500000015], [25.2827268, 54.6841911], [25.2827332, 54.684162], [25.2827009, 54.684158899999986], [25.2826189, 54.684294], [25.282653, 54.6843025], [25.2826417, 54.684328], [25.2824758, 54.68430259999999]]]}}, {"id": "81", "type": "Feature", "properties": {"building_id": "112185061", "area_m2": 334.35370145416147}, "geometry": {"type": "Polygon", "coordinates": [[[25.2820578, 54.684865], [25.2819469, 54.6847938], [25.2819552, 54.68473859999999], [25.2819671, 54.6846833], [25.281984, 54.684638], [25.2821995, 54.6846642], [25.2821874, 54.6847561], [25.2821763, 54.6848772], [25.2821601, 54.684876], [25.2820578, 54.684865]]]}}, {"id": "82", "type": "Feature", "properties": {"building_id": "112185062", "area_m2": 461.57675029111635}, "geometry": {"type": "Polygon", "coordinates": [[[25.2822551, 54.6841343], [25.2824168, 54.6841435], [25.2824481, 54.6840302], [25.2824821, 54.6839082], [25.2822523, 54.6838922], [25.2821542, 54.6838887], [25.2819741, 54.6838806], [25.2819864, 54.6839277], [25.2820019, 54.6839281], [25.2822252, 54.6839429], [25.2822144, 54.6839996], [25.2822565, 54.6840018], [25.2822519, 54.6840174], [25.2822226, 54.68413239999999], [25.2822551, 54.6841343]]]}}, {"id": "83", "type": "Feature", "properties": {"building_id": "112185065", "area_m2": 232.68678296438605}, "geometry": {"type": "Polygon", "coordinates": [[[25.2814079, 54.6856142], [25.2814085, 54.6855326], [25.2814112, 54.6854202], [25.2814125, 54.6854017], [25.2814741, 54.6854023], [25.2815272, 54.685402], [25.2815292, 54.6854082], [25.2816449, 54.6854116], [25.281699, 54.6854131], [25.2816919, 54.6854538], [25.2815273, 54.6854462], [25.2815279, 54.6855299], [25.2815372, 54.6855295], [25.2815361, 54.68561349999999], [25.2814079, 54.6856142]]]}}, {"id": "84", "type": "Feature", "properties": {"building_id": "112185066", "area_m2": 1344.1806229975944}, "geometry": {"type": "Polygon", "coordinates": [[[25.2813788, 54.684964], [25.2813392, 54.6849387], [25.2813514, 54.68482510000001], [25.2813877, 54.68482679999999], [25.2814098, 54.6847483], [25.2813642, 54.6847442], [25.2813978, 54.6846302], [25.2814005, 54.6846236], [25.2814192, 54.6846256], [25.281434, 54.6845694], [25.2815768, 54.6845908], [25.2816787, 54.68460119999999], [25.281984, 54.684638], [25.2819671, 54.6846833], [25.2819121, 54.6846783], [25.2819081, 54.684688], [25.2817974, 54.6846756], [25.28179, 54.6847004], [25.2817096, 54.6846919], [25.2817176, 54.6846663], [25.2816077, 54.6846535], [25.281615, 54.6846143], [25.2815607, 54.6846074], [25.2815131, 54.6847675], [25.2815709, 54.6847727], [25.2815741, 54.6847597], [25.2816754, 54.6847659], [25.281672, 54.6847803], [25.2819469, 54.6847938], [25.2820578, 54.684865], [25.2821601, 54.684876], [25.2821442, 54.6849587], [25.282093, 54.6849812], [25.282027, 54.6849804], [25.2820283, 54.6849686], [25.2818436, 54.6849645], [25.2818437, 54.6849754], [25.2816328, 54.68497029999998], [25.2816384, 54.684958], [25.2814494, 54.684953], [25.2814467, 54.6849647], [25.2813788, 54.684964]]]}}, {"id": "85", "type": "Feature", "properties": {"building_id": "112185068", "area_m2": 682.0172247205298}, "geometry": {"type": "Polygon", "coordinates": [[[25.2806492, 54.6849758], [25.2806575, 54.6849073], [25.2806624, 54.6848793], [25.2806776, 54.6848054], [25.2807011, 54.6848052], [25.2812229, 54.6848121], [25.2812225, 54.6848247], [25.2812178, 54.684981100000016], [25.2806492, 54.6849758]]]}}, {"id": "86", "type": "Feature", "properties": {"building_id": "112185069", "area_m2": 1029.8883611537215}, "geometry": {"type": "Polygon", "coordinates": [[[25.2795383, 54.68495579999998], [25.2794813, 54.6844991], [25.2796789, 54.6845002], [25.2796779, 54.6846116], [25.2796398, 54.6846108], [25.2796709, 54.6848794], [25.2805326, 54.6849016], [25.2805649, 54.6849039], [25.2806575, 54.6849073], [25.2806492, 54.6849758], [25.2805291, 54.6849732], [25.2795383, 54.68495579999998]]]}}, {"id": "87", "type": "Feature", "properties": {"building_id": "112185465", "area_m2": 64.13464621620324}, "geometry": {"type": "Polygon", "coordinates": [[[25.2801329, 54.6862046], [25.2801357, 54.6861122], [25.2802324, 54.6861132], [25.2802296, 54.6862056], [25.2801329, 54.6862046]]]}}, {"id": "88", "type": "Feature", "properties": {"building_id": "112185466", "area_m2": 932.4626312782558}, "geometry": {"type": "Polygon", "coordinates": [[[25.2809768, 54.6859236], [25.2806939, 54.68594], [25.2806441, 54.6859338], [25.2806107, 54.6859206], [25.2805898, 54.6859061], [25.2805695, 54.6858847], [25.2805489, 54.6858167], [25.2807071, 54.6857908], [25.2809068, 54.6857568], [25.2810199, 54.6859194], [25.2810057, 54.6859196], [25.2810487, 54.6859812], [25.2811115, 54.6859755], [25.2811342, 54.68603190000001], [25.2811698, 54.6860265], [25.2811926, 54.68610910000001], [25.280978, 54.68613], [25.2809773, 54.6861237], [25.2808224, 54.686137], [25.2808171, 54.68615779999999], [25.2807145, 54.68616020000002], [25.2807138, 54.6861536], [25.2806783, 54.6861567], [25.2806639, 54.6860988], [25.2806415, 54.68609989999999], [25.2806195, 54.686032], [25.2809438, 54.6860017], [25.2809411, 54.6859927], [25.2810197, 54.68598450000001], [25.2809768, 54.6859236]]]}}, {"id": "89", "type": "Feature", "properties": {"building_id": "112187496", "area_m2": 350.2988775319139}, "geometry": {"type": "Polygon", "coordinates": [[[25.2798015, 54.6850264], [25.2802011, 54.685029], [25.280204, 54.685066099999986], [25.2801975, 54.6851504], [25.2800789, 54.6851487], [25.2800753, 54.6851587], [25.2800681, 54.6851659], [25.2800489, 54.6851681], [25.2800298, 54.685164], [25.2800209, 54.6851562], [25.2798451, 54.6851529], [25.2798452, 54.6851386], [25.2798221, 54.68513870000001], [25.2798015, 54.6850264]]]}}, {"id": "90", "type": "Feature", "properties": {"building_id": "112187498", "area_m2": 296.1427985092917}, "geometry": {"type": "Polygon", "coordinates": [[[25.2819701, 54.6860224], [25.2819684, 54.6858848], [25.2819673, 54.6857956], [25.2821354, 54.685795], [25.2821493, 54.68579489999998], [25.2821509, 54.685923], [25.2821521, 54.68602159999999], [25.2821345, 54.6860217], [25.2819701, 54.6860224]]]}}, {"id": "91", "type": "Feature", "properties": {"building_id": "112187499", "area_m2": 204.68664205253398}, "geometry": {"type": "Polygon", "coordinates": [[[25.2813774, 54.6851819], [25.2813776, 54.6851372], [25.2814056, 54.6851373], [25.2814061, 54.685041], [25.2816147, 54.6850414], [25.2816147, 54.6850473], [25.2817045, 54.6850475], [25.2817042, 54.6850891], [25.2816127, 54.685089], [25.2816125, 54.6851401], [25.2814773, 54.6851399], [25.281477, 54.6851821], [25.2813774, 54.6851819]]]}}, {"id": "92", "type": "Feature", "properties": {"building_id": "112187500", "area_m2": 917.6592441419801}, "geometry": {"type": "Polygon", "coordinates": [[[25.2802535, 54.6867319], [25.2805865, 54.6866756], [25.2805949, 54.6866907], [25.2806948, 54.68667269999999], [25.2806868, 54.6866567], [25.2807186, 54.6866511], [25.2805621, 54.6863401], [25.2803771, 54.6863771], [25.280396, 54.6864176], [25.2802525, 54.686443899999986], [25.2802603, 54.6865487], [25.280281, 54.6866004], [25.2802277, 54.6866094], [25.2802297, 54.6866249], [25.2802026, 54.6866311], [25.2802535, 54.6867319]]]}}, {"id": "93", "type": "Feature", "properties": {"building_id": "112187501", "area_m2": 92.315396603713}, "geometry": {"type": "Polygon", "coordinates": [[[25.2819005, 54.6869537], [25.2819995, 54.6869361], [25.2819422, 54.6868284], [25.281823, 54.6868494], [25.2819005, 54.6869537]]]}}, {"id": "94", "type": "Feature", "properties": {"building_id": "112187503", "area_m2": 1396.8904072494342}, "geometry": {"type": "Polygon", "coordinates": [[[25.2806352, 54.6846116], [25.2807287, 54.6842074], [25.2807715, 54.6842101], [25.280792, 54.68418459999999], [25.2808194, 54.6841533], [25.2808885, 54.68405889999998], [25.2807669, 54.6840292], [25.280803, 54.6839763], [25.2808515, 54.6839836], [25.281179, 54.6840301], [25.2811601, 54.6840719], [25.2811135, 54.6840643], [25.2810258, 54.6842077], [25.2808937, 54.684189], [25.2809029, 54.6841724], [25.280868, 54.6841651], [25.2808456, 54.6841973], [25.2808291, 54.6842162], [25.2808618, 54.6842188], [25.2808183, 54.6843794], [25.2811973, 54.684426299999984], [25.2814852, 54.6844655], [25.2816122, 54.6845091], [25.2815768, 54.6845908], [25.281434, 54.6845694], [25.2810806, 54.6845271], [25.2807881, 54.6844919], [25.2807481, 54.6846218], [25.2806352, 54.6846116]]]}}, {"id": "95", "type": "Feature", "properties": {"building_id": "112187506", "area_m2": 273.98223838751767}, "geometry": {"type": "Polygon", "coordinates": [[[25.2818924, 54.68520440000001], [25.2818935, 54.6850488], [25.2821388, 54.6850493], [25.2821377, 54.685205], [25.2818924, 54.68520440000001]]]}}, {"id": "96", "type": "Feature", "properties": {"building_id": "112187507", "area_m2": 635.2091867429257}, "geometry": {"type": "Polygon", "coordinates": [[[25.2806581, 54.6850339], [25.2807015, 54.6851832], [25.2807178, 54.6852173], [25.2808645, 54.6852052], [25.2808559, 54.6851556], [25.2810719, 54.6851565], [25.2810731, 54.6851344], [25.2813776, 54.6851372], [25.2814056, 54.6851373], [25.2814061, 54.685041], [25.2806581, 54.6850339]]]}}, {"id": "97", "type": "Feature", "properties": {"building_id": "112187508", "area_m2": 437.07701620647845}, "geometry": {"type": "Polygon", "coordinates": [[[25.2813774, 54.6851819], [25.281477, 54.6851821], [25.2815339, 54.6851818], [25.2815339, 54.68516790000001], [25.2817795, 54.6851677], [25.281778, 54.68520429999999], [25.2818924, 54.68520440000001], [25.2821377, 54.685205], [25.282135, 54.6853154], [25.2819153, 54.6853082], [25.281918, 54.6852901], [25.2816707, 54.6852923], [25.2816596, 54.6852176], [25.2815341, 54.6852185], [25.2815335, 54.685212599999986], [25.2814762, 54.6852126], [25.2813787, 54.6852127], [25.2813777, 54.6851985], [25.2813774, 54.6851819]]]}}, {"id": "98", "type": "Feature", "properties": {"building_id": "112187509", "area_m2": 652.2346424213736}, "geometry": {"type": "Polygon", "coordinates": [[[25.2801975, 54.6851504], [25.2802002, 54.6851948], [25.2803745, 54.6851954], [25.2803759, 54.6852225], [25.2804134, 54.6852227], [25.2804127, 54.6852018], [25.2804208, 54.6851946], [25.2804483, 54.6851948], [25.2804583, 54.6852173], [25.2804328, 54.68521959999999], [25.2804245, 54.6852229], [25.2804204, 54.6852274], [25.2804208, 54.6852361], [25.2804439, 54.6852923], [25.2804174, 54.6852958], [25.2804237, 54.6853116], [25.2804268, 54.6853222], [25.2804419, 54.6853206], [25.2804622, 54.6853609], [25.2806947, 54.685363], [25.2806614, 54.68527529999999], [25.28059, 54.6850891], [25.2805928, 54.685078699999984], [25.280569, 54.6850634], [25.2805478, 54.685069], [25.2804255, 54.6850681], [25.2804251, 54.6850617], [25.2803534, 54.6850613], [25.2803527, 54.6850673], [25.280204, 54.685066099999986], [25.2801975, 54.6851504]]]}}, {"id": "99", "type": "Feature", "properties": {"building_id": "112188090", "area_m2": 248.27847150732617}, "geometry": {"type": "Polygon", "coordinates": [[[25.276708, 54.6865088], [25.2768126, 54.6866188], [25.277046, 54.6865399], [25.2769272, 54.6864277], [25.2767243, 54.686498], [25.276708, 54.6865088]]]}}, {"id": "100", "type": "Feature", "properties": {"building_id": "112188091", "area_m2": 146.0666786386974}, "geometry": {"type": "Polygon", "coordinates": [[[25.2765643, 54.6865538], [25.276708, 54.6865088], [25.2767243, 54.686498], [25.2766354, 54.6864045], [25.276476, 54.6864583], [25.2765643, 54.6865538]]]}}, {"id": "101", "type": "Feature", "properties": {"building_id": "112188092", "area_m2": 429.4390507394343}, "geometry": {"type": "Polygon", "coordinates": [[[25.2760904, 54.6869236], [25.2764468, 54.6868616], [25.276881, 54.6867218], [25.2768328, 54.6866743], [25.2768134, 54.6866575], [25.276123, 54.6868788], [25.2760688, 54.6868447], [25.2760134, 54.6868714], [25.2760904, 54.6869236]]]}}, {"id": "102", "type": "Feature", "properties": {"building_id": "112260578", "area_m2": 492.9945263615686}, "geometry": {"type": "Polygon", "coordinates": [[[25.2790323, 54.68592549999998], [25.2790263, 54.6858455], [25.2791694, 54.6858416], [25.2791595, 54.6857679], [25.2791347, 54.6857855], [25.2790019, 54.6857892], [25.2790017, 54.6857786], [25.2789917, 54.6857159], [25.2791218, 54.6857124], [25.2793869, 54.6857046], [25.2793789, 54.6859156], [25.2791723, 54.6859202], [25.2791072, 54.6859241], [25.2790323, 54.68592549999998]]]}}, {"id": "103", "type": "Feature", "properties": {"building_id": "112260582", "area_m2": 503.43564604321733}, "geometry": {"type": "Polygon", "coordinates": [[[25.2790323, 54.68592549999998], [25.2786943, 54.68594190000001], [25.2785727, 54.6857297], [25.2785936, 54.685728], [25.2789917, 54.6857159], [25.2790017, 54.6857786], [25.2788214, 54.6857835], [25.2788856, 54.6858573], [25.2790263, 54.6858455], [25.2790323, 54.68592549999998]]]}}, {"id": "104", "type": "Feature", "properties": {"building_id": "112260585", "area_m2": 441.7338120368364}, "geometry": {"type": "Polygon", "coordinates": [[[25.2790585, 54.685456299999984], [25.2790572, 54.6854929], [25.27917, 54.6854908], [25.2791732, 54.6855963], [25.2791722, 54.6856786], [25.2791171, 54.68568170000001], [25.2791218, 54.6857124], [25.2793869, 54.6857046], [25.2793864, 54.6855972], [25.2793801, 54.6854419], [25.2790585, 54.685456299999984]]]}}, {"id": "105", "type": "Feature", "properties": {"building_id": "112260588", "area_m2": 981.6747284894922}, "geometry": {"type": "Polygon", "coordinates": [[[25.2791218, 54.6857124], [25.2789917, 54.6857159], [25.2785936, 54.685728], [25.2784381, 54.6854765], [25.2785717, 54.6854574], [25.2786969, 54.6854412], [25.2790208, 54.685408], [25.2790264, 54.6854565], [25.2790585, 54.685456299999984], [25.2790572, 54.6854929], [25.2787317, 54.6855109], [25.2787142, 54.6854842], [25.2786739, 54.6854899], [25.2786872, 54.6855127], [25.2787107, 54.68551269999998], [25.2787204, 54.6855139], [25.278728, 54.6855176], [25.2787325, 54.6855215], [25.2787337, 54.6855261], [25.278732, 54.68553], [25.2787273, 54.6855356], [25.2787189, 54.6855393], [25.278703, 54.685539499999976], [25.2787302, 54.6855826], [25.2791086, 54.6855712], [25.2791171, 54.68568170000001], [25.2791218, 54.6857124]]]}}, {"id": "106", "type": "Feature", "properties": {"building_id": "112260591", "area_m2": 462.96945366044747}, "geometry": {"type": "Polygon", "coordinates": [[[25.2789578, 54.686142899999986], [25.2789521, 54.6860578], [25.2791811, 54.686052799999985], [25.2791723, 54.6859202], [25.2793789, 54.6859156], [25.2793933, 54.6861332], [25.2791731, 54.6861381], [25.2789578, 54.686142899999986]]]}}, {"id": "107", "type": "Feature", "properties": {"building_id": "112260698", "area_m2": 466.11975783951186}, "geometry": {"type": "Polygon", "coordinates": [[[25.2790234, 54.6848631], [25.2790249, 54.6848996], [25.2789429, 54.684903], [25.2789396, 54.6849794], [25.2785994, 54.684983], [25.2785999, 54.6849039], [25.2785685, 54.684904199999984], [25.278564, 54.6848356], [25.2787206, 54.684833], [25.2787307, 54.6848289], [25.2787467, 54.6848264], [25.2787702, 54.6848297], [25.2787816, 54.6848324], [25.2788571, 54.6848325], [25.2788526, 54.684785], [25.2789831, 54.6847799], [25.2789908, 54.6848428], [25.2790119, 54.6848421], [25.2790234, 54.6848631]]]}}, {"id": "108", "type": "Feature", "properties": {"building_id": "112260699", "area_m2": 130.43697009443045}, "geometry": {"type": "Polygon", "coordinates": [[[25.2790349, 54.6851713], [25.2790329, 54.6852166], [25.2788118, 54.685220399999984], [25.2788079, 54.6851386], [25.2790177, 54.6851314], [25.27902, 54.685171], [25.2790349, 54.6851713]]]}}, {"id": "109", "type": "Feature", "properties": {"building_id": "112260700", "area_m2": 195.59989316816032}, "geometry": {"type": "Polygon", "coordinates": [[[25.2786969, 54.6854412], [25.2787008, 54.6853419], [25.279041, 54.6853411], [25.2790405, 54.6853731], [25.2790156, 54.6853729], [25.2790208, 54.685408], [25.2786969, 54.6854412]]]}}, {"id": "110", "type": "Feature", "properties": {"building_id": "112261372", "area_m2": 307.07382210263575}, "geometry": {"type": "Polygon", "coordinates": [[[25.2781754, 54.686498], [25.2781391, 54.6863927], [25.2783413, 54.6863694], [25.2783276, 54.6863296], [25.2784645, 54.6863139], [25.2785145, 54.6864589], [25.2784779, 54.6864632], [25.2781754, 54.686498]]]}}, {"id": "111", "type": "Feature", "properties": {"building_id": "133070550", "area_m2": 145.0836902063136}, "geometry": {"type": "Polygon", "coordinates": [[[25.2804512, 54.6854762], [25.2806909, 54.6854801], [25.280695, 54.6853958], [25.2804554, 54.6853919], [25.2804512, 54.6854762]]]}}, {"id": "112", "type": "Feature", "properties": {"building_id": "133074549", "area_m2": 69.92098874489916}, "geometry": {"type": "Polygon", "coordinates": [[[25.2784192, 54.6848042], [25.2784621, 54.6849061], [25.2783611, 54.6849221], [25.2783247, 54.684849499999984], [25.2784192, 54.6848042]]]}}, {"id": "113", "type": "Feature", "properties": {"building_id": "135402354", "area_m2": 219.60398929814934}, "geometry": {"type": "Polygon", "coordinates": [[[25.2806624, 54.6848793], [25.2806776, 54.6848054], [25.2807011, 54.6848052], [25.2807481, 54.6846218], [25.2806352, 54.6846116], [25.2805649, 54.6849039], [25.2806575, 54.6849073], [25.2806624, 54.6848793]]]}}, {"id": "114", "type": "Feature", "properties": {"building_id": "144481669", "area_m2": 448.5175694120267}, "geometry": {"type": "Polygon", "coordinates": [[[25.2795947, 54.6860457], [25.2798288, 54.6860493], [25.2798291, 54.6860656], [25.2798307, 54.6861381], [25.2798521, 54.68614809999998], [25.2799947, 54.6861467], [25.2799983, 54.68624590000001], [25.2799271, 54.68624650000001], [25.2795969, 54.6862426], [25.2795949, 54.686061], [25.2795947, 54.6860457]]]}}, {"id": "115", "type": "Feature", "properties": {"building_id": "144481671", "area_m2": 436.68903084874654}, "geometry": {"type": "Polygon", "coordinates": [[[25.2789578, 54.686142899999986], [25.2787424, 54.6861415], [25.2786787, 54.6859427], [25.2786943, 54.68594190000001], [25.2790323, 54.68592549999998], [25.2791072, 54.6859241], [25.2791179, 54.6860071], [25.2790515, 54.6860086], [25.2790435, 54.6859993], [25.2789362, 54.686004], [25.2789357, 54.6860152], [25.2788953, 54.6860164], [25.2788982, 54.68604409999999], [25.2789429, 54.6860455], [25.2789521, 54.6860578], [25.2789578, 54.686142899999986]]]}}, {"id": "116", "type": "Feature", "properties": {"building_id": "158175730", "area_m2": 378.6626453809063}, "geometry": {"type": "Polygon", "coordinates": [[[25.2800263, 54.6845789], [25.2805215, 54.684585099999985], [25.2805423, 54.684428], [25.2803671, 54.6844229], [25.2803658, 54.6844481], [25.2803282, 54.6844481], [25.2803269, 54.6845112], [25.2800352, 54.6845074], [25.2800263, 54.6845789]]]}}, {"id": "117", "type": "Feature", "properties": {"building_id": "216023201", "area_m2": 256.6362222204504}, "geometry": {"type": "Polygon", "coordinates": [[[25.2750614, 54.6854048], [25.2752286, 54.6854968], [25.2752039, 54.6855119], [25.2750568, 54.6855995], [25.2749074, 54.6855129], [25.2749279, 54.6855015], [25.2748792, 54.6854675], [25.2748801, 54.6854548], [25.2749001, 54.6854435], [25.2749188, 54.6854444], [25.2749532, 54.685459], [25.2750259, 54.685413899999986], [25.2750501, 54.6853996], [25.2750614, 54.6854048]]]}}, {"id": "118", "type": "Feature", "properties": {"building_id": "216023203", "area_m2": 303.9383633517763}, "geometry": {"type": "Polygon", "coordinates": [[[25.27472, 54.685614499999986], [25.2748786, 54.68570349999999], [25.2748877, 54.6857073], [25.2749065, 54.68569450000001], [25.2750568, 54.6855995], [25.2749074, 54.6855129], [25.2748069, 54.6854604], [25.274755, 54.685492899999986], [25.2747995, 54.6855178], [25.2747751, 54.6855331], [25.274774, 54.6855419], [25.274778, 54.6855481], [25.2747898, 54.6855544], [25.2747247, 54.6855933], [25.2747054, 54.685605], [25.27472, 54.685614499999986]]]}}, {"id": "119", "type": "Feature", "properties": {"building_id": "226111284", "area_m2": 528.3733386385437}, "geometry": {"type": "Polygon", "coordinates": [[[25.2763934, 54.6874219], [25.276456, 54.6874108], [25.2764345, 54.687373399999984], [25.2764839, 54.6873631], [25.2763073, 54.6870234], [25.2764423, 54.686998], [25.2764062, 54.6869251], [25.2761216, 54.6869753], [25.2761766, 54.6870723], [25.2761948, 54.6871044], [25.2763748, 54.6873897], [25.2763934, 54.6874219]]]}}, {"id": "120", "type": "Feature", "properties": {"building_id": "226361621", "area_m2": 1545.8652263460854}, "geometry": {"type": "Polygon", "coordinates": [[[25.2792143, 54.6867582], [25.2791731, 54.6861381], [25.2789578, 54.686142899999986], [25.2787424, 54.6861415], [25.278961, 54.68677679999998], [25.2792143, 54.6867582]]]}}, {"id": "121", "type": "Feature", "properties": {"building_id": "227149992", "area_m2": 1294.6990489859459}, "geometry": {"type": "Polygon", "coordinates": [[[25.2746352, 54.686714], [25.2745147, 54.68662290000001], [25.2743293, 54.686710699999985], [25.27441, 54.6867675], [25.2745766, 54.6874101], [25.2745875, 54.6874096], [25.2747977, 54.6873968], [25.2748114, 54.6873959], [25.2746352, 54.686714]]]}}, {"id": "122", "type": "Feature", "properties": {"building_id": "234017669", "area_m2": 239.1414736512249}, "geometry": {"type": "Polygon", "coordinates": [[[25.2823734, 54.6857757], [25.2825663, 54.6857756], [25.2825632, 54.68565980000001], [25.2826135, 54.685659], [25.2826107, 54.6856046], [25.2823653, 54.6856272], [25.28237, 54.6857109], [25.2823734, 54.6857757]]]}}, {"id": "123", "type": "Feature", "properties": {"building_id": "234461686", "area_m2": 125.8576410480687}, "geometry": {"type": "Polygon", "coordinates": [[[25.2824473, 54.6848594], [25.2824465, 54.6849045], [25.282262, 54.6849067], [25.2822705, 54.6848073], [25.2824478, 54.6848101], [25.2824473, 54.6848594]]]}}, {"id": "124", "type": "Feature", "properties": {"building_id": "234461687", "area_m2": 117.29633027479413}, "geometry": {"type": "Polygon", "coordinates": [[[25.2822939, 54.6847298], [25.2826113, 54.6847493], [25.2826099, 54.6847963], [25.28249, 54.6847899], [25.2822738, 54.6847802], [25.2822802, 54.684729099999984], [25.2822939, 54.6847298]]]}}, {"id": "125", "type": "Feature", "properties": {"building_id": "237351461", "area_m2": 651.4276966955829}, "geometry": {"type": "Polygon", "coordinates": [[[25.2769176, 54.685518], [25.2769425, 54.685558], [25.2768187, 54.6856024], [25.2767633, 54.6855407], [25.2767935, 54.685529], [25.2765178, 54.6852439], [25.2766759, 54.685185199999985], [25.2767226, 54.685232], [25.2766776, 54.6852483], [25.2768657, 54.6854426], [25.2770507, 54.6853862], [25.2771562, 54.685353699999986], [25.2772239, 54.6853327], [25.2772647, 54.6853766], [25.2772888, 54.6854029], [25.2769176, 54.685518]]]}}, {"id": "126", "type": "Feature", "properties": {"building_id": "295370665", "area_m2": 803.0274695579513}, "geometry": {"type": "Polygon", "coordinates": [[[25.2725444, 54.6857496], [25.2725457, 54.68608420000001], [25.2727989, 54.6860875], [25.2727909, 54.6861573], [25.2728463, 54.6861598], [25.2728888, 54.6861619], [25.2729006, 54.6860735], [25.2730072, 54.6860762], [25.2730042, 54.6858615], [25.272955, 54.6858615], [25.272952, 54.68580870000001], [25.2727815, 54.6858114], [25.2727884, 54.6860331], [25.2726636, 54.68603310000001], [25.2726592, 54.6857821], [25.2727298, 54.6857823], [25.2727277, 54.6857525], [25.2725444, 54.6857496]]]}}, {"id": "127", "type": "Feature", "properties": {"building_id": "295370667", "area_m2": 131.75050692912308}, "geometry": {"type": "Polygon", "coordinates": [[[25.2734127, 54.6852953], [25.2736303, 54.685425399999986], [25.2737017, 54.6853856], [25.2734916, 54.685255], [25.2734127, 54.6852953]]]}}, {"id": "128", "type": "Feature", "properties": {"building_id": "301674178", "area_m2": 248.44397771040633}, "geometry": {"type": "Polygon", "coordinates": [[[25.282875, 54.6848162], [25.2829898, 54.6848103], [25.2829853, 54.6847448], [25.2831696, 54.684744], [25.2831731, 54.6848815], [25.2828813, 54.6848946], [25.282875, 54.6848162]]]}}, {"id": "129", "type": "Feature", "properties": {"building_id": "301674179", "area_m2": 97.18055464546507}, "geometry": {"type": "Polygon", "coordinates": [[[25.2826972, 54.6847996], [25.2826099, 54.6847963], [25.2826113, 54.6847493], [25.2826489, 54.6847504], [25.2828285, 54.6847481], [25.2828341, 54.68481719999998], [25.2826989, 54.6848208], [25.2826972, 54.6847996]]]}}, {"id": "130", "type": "Feature", "properties": {"building_id": "321850492", "area_m2": 716.0496329793484}, "geometry": {"type": "Polygon", "coordinates": [[[25.2727531, 54.6870081], [25.272921, 54.687144899999986], [25.2728132, 54.68719], [25.2728859, 54.6872527], [25.2731397, 54.6871495], [25.2730993, 54.6871159], [25.2731981, 54.68707519999999], [25.2732665, 54.6871292], [25.2734289, 54.68705949999998], [25.2733633, 54.6870064], [25.273234, 54.6870596], [25.2730319, 54.68689579999999], [25.2727531, 54.6870081]]]}}, {"id": "131", "type": "Feature", "properties": {"building_id": "321850495", "area_m2": 411.6102103851375}, "geometry": {"type": "Polygon", "coordinates": [[[25.2736811, 54.6869019], [25.2736168, 54.6868343], [25.2735549, 54.6867919], [25.2734663, 54.6868223], [25.2735984, 54.6869542], [25.2738421, 54.6870754], [25.2740586, 54.6871852], [25.2741308, 54.68713549999999], [25.2736811, 54.6869019]]]}}, {"id": "132", "type": "Feature", "properties": {"building_id": "321850496", "area_m2": 367.414845777668}, "geometry": {"type": "Polygon", "coordinates": [[[25.2734663, 54.6868223], [25.2735984, 54.6869542], [25.2738421, 54.6870754], [25.2736809, 54.6871293], [25.2735848, 54.687038399999985], [25.2735681, 54.6870437], [25.2732992, 54.6867745], [25.2733837, 54.6867321], [25.2734663, 54.6868223]]]}}, {"id": "133", "type": "Feature", "properties": {"building_id": "328146593", "area_m2": 142.1815080821518}, "geometry": {"type": "Polygon", "coordinates": [[[25.281307, 54.6841489], [25.2813324, 54.6840928], [25.2814059, 54.6841039], [25.2814226, 54.684067], [25.281179, 54.6840301], [25.2811601, 54.6840719], [25.2811369, 54.6841232], [25.281307, 54.6841489]]]}}, {"id": "134", "type": "Feature", "properties": {"building_id": "328146596", "area_m2": 347.01476885183024}, "geometry": {"type": "Polygon", "coordinates": [[[25.2819741, 54.6838806], [25.2819684, 54.6838484], [25.2819568, 54.6837612], [25.2818461, 54.6837661], [25.2818581, 54.68387950000001], [25.2818611, 54.6839201], [25.2818605, 54.6839434], [25.2818662, 54.68402849999998], [25.2818758, 54.6841291], [25.2820797, 54.6841302], [25.282077, 54.6840953], [25.2819968, 54.6840947], [25.2820019, 54.6839281], [25.2819864, 54.6839277], [25.2819741, 54.6838806]]]}}, {"id": "135", "type": "Feature", "properties": {"building_id": "377249786", "area_m2": 136.16749670023026}, "geometry": {"type": "Polygon", "coordinates": [[[25.2741135, 54.6855625], [25.2741227, 54.6855569], [25.2741815, 54.6855207], [25.2742059, 54.685505699999986], [25.2740378, 54.6854086], [25.2739254, 54.6854703], [25.273988, 54.685508], [25.2740236, 54.6854934], [25.2740806, 54.6855261], [25.2740647, 54.6855362], [25.2741135, 54.6855625]]]}}, {"id": "136", "type": "Feature", "properties": {"building_id": "377249787", "area_m2": 130.99618972848907}, "geometry": {"type": "Polygon", "coordinates": [[[25.2742536, 54.685633399999986], [25.2742741, 54.68564439999998], [25.2743525, 54.6856944], [25.274378, 54.6857094], [25.2744149, 54.685688], [25.2743981, 54.685677], [25.2746083, 54.68555580000001], [25.2745602, 54.685530599999986], [25.2743861, 54.6856349], [25.2743163, 54.6855963], [25.2742536, 54.685633399999986]]]}}, {"id": "137", "type": "Feature", "properties": {"building_id": "482999971", "area_m2": 99.99392789940178}, "geometry": {"type": "Polygon", "coordinates": [[[25.2774725, 54.6861705], [25.2775486, 54.68615290000001], [25.2776622, 54.6861233], [25.2776255, 54.6860689], [25.2776223, 54.6860642], [25.2774341, 54.6861096], [25.2774432, 54.6861241], [25.2774268, 54.6861358], [25.2774414, 54.6861565], [25.277466, 54.68616020000001], [25.2774725, 54.6861705]]]}}, {"id": "138", "type": "Feature", "properties": {"building_id": "484190797", "area_m2": 32.795042626605}, "geometry": {"type": "Polygon", "coordinates": [[[25.2772647, 54.6853766], [25.2773455, 54.6853515], [25.2773046, 54.6853076], [25.2772239, 54.6853327], [25.2772647, 54.6853766]]]}}, {"id": "139", "type": "Feature", "properties": {"building_id": "532529708", "area_m2": 216.1376044044917}, "geometry": {"type": "Polygon", "coordinates": [[[25.2831861, 54.6844663], [25.283215, 54.68440789999999], [25.2832169, 54.6844044], [25.282766, 54.6843437], [25.2827426, 54.6844094], [25.2831861, 54.6844663]]]}}, {"id": "140", "type": "Feature", "properties": {"building_id": "572986084", "area_m2": 135.96334011514432}, "geometry": {"type": "Polygon", "coordinates": [[[25.274072, 54.6857497], [25.2741549, 54.685803], [25.2743525, 54.6856944], [25.2742741, 54.68564439999998], [25.274072, 54.6857497]]]}}, {"id": "141", "type": "Feature", "properties": {"building_id": "572986085", "area_m2": 232.31371335170525}, "geometry": {"type": "Polygon", "coordinates": [[[25.2746092, 54.6849043], [25.2745425, 54.6849439], [25.2745313, 54.6849376], [25.2743632, 54.68503739999998], [25.2744522, 54.6850875], [25.2744712, 54.6850763], [25.2744904, 54.6850649], [25.2745302, 54.6850873], [25.2747269, 54.68497039999998], [25.2746092, 54.6849043]]]}}, {"id": "142", "type": "Feature", "properties": {"building_id": "572986086", "area_m2": 118.1008275350637}, "geometry": {"type": "Polygon", "coordinates": [[[25.2746009, 54.68478859999998], [25.2745321, 54.6847635], [25.2745415, 54.6847563], [25.2744552, 54.6847224], [25.2744031, 54.6847718], [25.2743545, 54.6847513], [25.2743281, 54.6847752], [25.2745011, 54.6848481], [25.274522, 54.6848323], [25.2745422, 54.6848383], [25.2746009, 54.68478859999998]]]}}, {"id": "143", "type": "Feature", "properties": {"building_id": "572986087", "area_m2": 58.22023618424705}, "geometry": {"type": "Polygon", "coordinates": [[[25.2740572, 54.6848752], [25.2739805, 54.6848535], [25.2739081, 54.68493869999999], [25.2739848, 54.6849605], [25.2740572, 54.6848752]]]}}, {"id": "144", "type": "Feature", "properties": {"building_id": "572986088", "area_m2": 326.4358458371954}, "geometry": {"type": "Polygon", "coordinates": [[[25.2757868, 54.6847098], [25.2757392, 54.6846957], [25.2755861, 54.68479159999998], [25.2755696, 54.6847841], [25.2754275, 54.6848724], [25.2754823, 54.6849005], [25.2754574, 54.684919500000014], [25.2755301, 54.6849516], [25.2758132, 54.6847818], [25.2758439, 54.6847993], [25.2758928, 54.6847706], [25.2757868, 54.6847098]]]}}, {"id": "145", "type": "Feature", "properties": {"building_id": "589805208", "area_m2": 487.2138853175685}, "geometry": {"type": "Polygon", "coordinates": [[[25.2768328, 54.6866743], [25.2769243, 54.6866438], [25.2769874, 54.686705], [25.277349, 54.686597200000016], [25.2774147, 54.6866764], [25.2773559, 54.686695], [25.2774102, 54.6867656], [25.2773061, 54.6867952], [25.2772766, 54.6867648], [25.2770846, 54.6868002], [25.2770742, 54.68678], [25.2769336, 54.6868035], [25.2769156, 54.6867706], [25.2769249, 54.686767], [25.276881, 54.6867218], [25.2768328, 54.6866743]]]}}, {"id": "146", "type": "Feature", "properties": {"building_id": "997356122", "area_m2": 267.88468139368763}, "geometry": {"type": "Polygon", "coordinates": [[[25.2737877, 54.6867542], [25.2739756, 54.686665], [25.2739105, 54.6866163], [25.2737145, 54.6867076], [25.2736799, 54.686683], [25.2735368, 54.6867369], [25.2735516, 54.6867408], [25.2735874, 54.6867728], [25.2735913, 54.6867763], [25.2735549, 54.6867919], [25.2736168, 54.6868343], [25.2736866, 54.6868066], [25.2737274, 54.6867838], [25.2737582, 54.6868048], [25.2738185, 54.6867752], [25.2737877, 54.6867542]]]}}, {"id": "147", "type": "Feature", "properties": {"building_id": "1077046660", "area_m2": 49.54904762249649}, "geometry": {"type": "Polygon", "coordinates": [[[25.2795866, 54.6868629], [25.2795947, 54.6869691], [25.2796596, 54.6869675], [25.2796515, 54.6868613], [25.2795866, 54.6868629]]]}}, {"id": "148", "type": "Feature", "properties": {"building_id": "1090775905", "area_m2": 38.60866906721541}, "geometry": {"type": "Polygon", "coordinates": [[[25.2816794, 54.684105], [25.281778, 54.684119], [25.2817878, 54.6840646], [25.2816933, 54.6840513], [25.2816794, 54.684105]]]}}, {"id": "149", "type": "Feature", "properties": {"building_id": "1090775906", "area_m2": 106.27181364273683}, "geometry": {"type": "Polygon", "coordinates": [[[25.2826476, 54.68543159999999], [25.2826395, 54.68540609999999], [25.2824793, 54.6854202], [25.2824739, 54.6853881], [25.2823058, 54.6853963], [25.2823114, 54.6854609], [25.2824505, 54.6854492], [25.2826476, 54.68543159999999]]]}}, {"id": "150", "type": "Feature", "properties": {"building_id": "1091759859", "area_m2": 27.586587799074906}, "geometry": {"type": "Polygon", "coordinates": [[[25.2731825, 54.6857354], [25.2731541, 54.6857039], [25.2730582, 54.6857329], [25.2730866, 54.68576439999999], [25.2731825, 54.6857354]]]}}, {"id": "151", "type": "Feature", "properties": {"building_id": "1091759860", "area_m2": 26.82479213180413}, "geometry": {"type": "Polygon", "coordinates": [[[25.2731825, 54.6857354], [25.2730866, 54.68576439999999], [25.2731145, 54.6857952], [25.273136, 54.6857882], [25.2732102, 54.685766399999984], [25.2731825, 54.6857354]]]}}, {"id": "152", "type": "Feature", "properties": {"building_id": "1091759861", "area_m2": 33.18583172005647}, "geometry": {"type": "Polygon", "coordinates": [[[25.273136, 54.6857882], [25.2731795, 54.6858377], [25.2732538, 54.6858159], [25.2732102, 54.685766399999984], [25.273136, 54.6857882]]]}}, {"id": "153", "type": "Feature", "properties": {"building_id": "1091759863", "area_m2": 37.03321833593427}, "geometry": {"type": "Polygon", "coordinates": [[[25.273226, 54.6854825], [25.2731427, 54.685527], [25.273196, 54.6855605], [25.2732793, 54.6855159], [25.273226, 54.6854825]]]}}, {"id": "154", "type": "Feature", "properties": {"building_id": "1091759868", "area_m2": 79.90871254813929}, "geometry": {"type": "Polygon", "coordinates": [[[25.2748851, 54.6853067], [25.2749812, 54.68535880000001], [25.2750229, 54.6853344], [25.2750459, 54.685347], [25.2750639, 54.6853458], [25.2751, 54.6853228], [25.2749579, 54.6852544], [25.2748851, 54.6853067]]]}}, {"id": "155", "type": "Feature", "properties": {"building_id": "1091759872", "area_m2": 56.235793804134545}, "geometry": {"type": "Polygon", "coordinates": [[[25.2771562, 54.685353699999986], [25.2771215, 54.6853147], [25.2770969, 54.6853221], [25.277075, 54.6852975], [25.2769933, 54.6853218], [25.2770507, 54.6853862], [25.2771562, 54.685353699999986]]]}}, {"id": "156", "type": "Feature", "properties": {"building_id": "1131089116", "area_m2": 71.98908999630842}, "geometry": {"type": "Polygon", "coordinates": [[[25.2777553, 54.6839763], [25.2777673, 54.684017], [25.2778797, 54.6840076], [25.2779218, 54.68402360000001], [25.2779216, 54.6840461], [25.2779728, 54.6840223], [25.2779474, 54.6839605], [25.2777553, 54.6839763]]]}}, {"id": "157", "type": "Feature", "properties": {"building_id": "1131091815", "area_m2": 149.93394982087125}, "geometry": {"type": "Polygon", "coordinates": [[[25.2787624, 54.6844372], [25.2787907, 54.6844365], [25.2788096, 54.6844641], [25.2788916, 54.6844474], [25.2788839, 54.6844347], [25.2789663, 54.684419], [25.2789611, 54.6844115], [25.2790448, 54.6843938], [25.2790097, 54.6843304], [25.27876, 54.684382], [25.2787624, 54.6844372]]]}}, {"id": "158", "type": "Feature", "properties": {"building_id": "1131091816", "area_m2": 109.34256490757676}, "geometry": {"type": "Polygon", "coordinates": [[[25.2788272, 54.6846309], [25.2788218, 54.6845657], [25.2790554, 54.6845541], [25.2790663, 54.6846155], [25.2789808, 54.6846224], [25.2788272, 54.6846309]]]}}, {"id": "159", "type": "Feature", "properties": {"building_id": "1131475908", "area_m2": 791.8534357449029}, "geometry": {"type": "Polygon", "coordinates": [[[25.281398, 54.6857598], [25.2814039, 54.6856934], [25.2814045, 54.68564], [25.2812295, 54.68563419999999], [25.2811798, 54.6855276], [25.2814085, 54.6855326], [25.2814112, 54.6854202], [25.2812912, 54.6854202], [25.2812905, 54.6854272], [25.2812466, 54.6854272], [25.2812469, 54.68541939999999], [25.2811336, 54.68541789999998], [25.2811336, 54.6854256], [25.2809249, 54.6854198], [25.2810699, 54.6857334], [25.2811188, 54.6857342], [25.2811188, 54.6857435], [25.2812301, 54.6857435], [25.2812301, 54.6857323], [25.2812737, 54.6857323], [25.2812724, 54.6857578], [25.281398, 54.6857598]]]}}, {"id": "160", "type": "Feature", "properties": {"building_id": "1131475916", "area_m2": 65.01422224744476}, "geometry": {"type": "Polygon", "coordinates": [[[25.280235, 54.6853661], [25.2802796, 54.6853662], [25.2802797, 54.6853487], [25.2803094, 54.6853487], [25.2803095, 54.6853301], [25.2803202, 54.68533020000002], [25.2803208, 54.685249], [25.2802358, 54.6852488], [25.280235, 54.6853661]]]}}, {"id": "161", "type": "Feature", "properties": {"building_id": "1131529724", "area_m2": 46.919876990814345}, "geometry": {"type": "Polygon", "coordinates": [[[25.2827205, 54.68464920000001], [25.2828285, 54.684656], [25.2828399, 54.6845962], [25.2827318, 54.6845894], [25.2827205, 54.68464920000001]]]}}, {"id": "162", "type": "Feature", "properties": {"building_id": "1131529727", "area_m2": 163.925375176325}, "geometry": {"type": "Polygon", "coordinates": [[[25.2810603, 54.6845888], [25.2813978, 54.6846302], [25.2814005, 54.6846236], [25.2814192, 54.6846256], [25.281434, 54.6845694], [25.2810806, 54.6845271], [25.2810603, 54.6845888]]]}}, {"id": "163", "type": "Feature", "properties": {"building_id": "1132442846", "area_m2": 152.0976283449235}, "geometry": {"type": "Polygon", "coordinates": [[[25.2775328, 54.6867273], [25.2775, 54.6866773], [25.2776136, 54.6866548], [25.2777612, 54.6869112], [25.2777008, 54.6869252], [25.2775745, 54.6867184], [25.2775328, 54.6867273]]]}}, {"id": "164", "type": "Feature", "properties": {"building_id": "1132669611", "area_m2": 41.34957400768848}, "geometry": {"type": "Polygon", "coordinates": [[[25.2743136, 54.6866483], [25.2741723, 54.6866646], [25.2741582, 54.6866299], [25.2742497, 54.6865996], [25.2743136, 54.6866483]]]}}, {"id": "165", "type": "Feature", "properties": {"building_id": "1132669622", "area_m2": 26.462069208925108}, "geometry": {"type": "Polygon", "coordinates": [[[25.274044, 54.6870333], [25.2740103, 54.687057], [25.2739164, 54.6870106], [25.2739468, 54.6869879], [25.274044, 54.6870333]]]}}, {"id": "166", "type": "Feature", "properties": {"building_id": "1132680724", "area_m2": 99.10201874903146}, "geometry": {"type": "Polygon", "coordinates": [[[25.2754321, 54.6846491], [25.275671, 54.684735], [25.2757158, 54.6846933], [25.2754769, 54.6846074], [25.2754321, 54.6846491]]]}}, {"id": "167", "type": "Feature", "properties": {"building_id": "1132680728", "area_m2": 29.47821052375268}, "geometry": {"type": "Polygon", "coordinates": [[[25.2734839, 54.68547079999998], [25.2735381, 54.6854404], [25.2736037, 54.6854794], [25.2735495, 54.6855098], [25.2734839, 54.68547079999998]]]}}, {"id": "168", "type": "Feature", "properties": {"building_id": "1132680729", "area_m2": 30.739360089626146}, "geometry": {"type": "Polygon", "coordinates": [[[25.2730042, 54.6855951], [25.2729494, 54.6855624], [25.2730168, 54.6855245], [25.2730717, 54.6855571], [25.2730042, 54.6855951]]]}}, {"id": "169", "type": "Feature", "properties": {"building_id": "1132680738", "area_m2": 68.09030067917021}, "geometry": {"type": "Polygon", "coordinates": [[[25.2742536, 54.685633399999986], [25.2741227, 54.6855569], [25.2741815, 54.6855207], [25.2743163, 54.6855963], [25.2742536, 54.685633399999986]]]}}, {"id": "170", "type": "Feature", "properties": {"building_id": "1132680739", "area_m2": 235.75588861460625}, "geometry": {"type": "Polygon", "coordinates": [[[25.2746083, 54.68555580000001], [25.2746232, 54.6855626], [25.2747367, 54.685483099999985], [25.274755, 54.685492899999986], [25.2748069, 54.6854604], [25.274858, 54.6854284], [25.2748058, 54.6854043], [25.2748756, 54.685360199999984], [25.2749382, 54.6853956], [25.2749908, 54.6853641], [25.2749812, 54.68535880000001], [25.2748851, 54.6853067], [25.2748339, 54.6853398], [25.274798, 54.6853217], [25.2746154, 54.685488], [25.2745602, 54.685530599999986], [25.2746083, 54.68555580000001]]]}}, {"id": "171", "type": "Feature", "properties": {"building_id": "1271387313", "area_m2": 209.62443109259618}, "geometry": {"type": "Polygon", "coordinates": [[[25.2729825, 54.68622370000001], [25.2728415, 54.68628189999998], [25.2727932, 54.6863018], [25.2729132, 54.6864062], [25.2731032, 54.6863286], [25.2729825, 54.68622370000001]]]}}]}