{"type": "FeatureCollection", "features": [{"id": "0", "type": "Feature", "properties": {"building_id": "7419504", "area_m2": 875.0629626276506}, "geometry": {"type": "Polygon", "coordinates": [[[-95.3635693, 29.758915199999986], [-95.3637048, 29.7589985], [-95.3636691, 29.7590423], [-95.3637936, 29.7591189], [-95.3636245, 29.7593261], [-95.3633645, 29.7591662], [-95.3635693, 29.758915199999986]], [[-95.363667, 29.7592184], [-95.3636966, 29.7591841], [-95.3635427, 29.759084], [-95.3635131, 29.7591184], [-95.363667, 29.7592184]]]}}, {"id": "1", "type": "Feature", "properties": {"building_id": "44130575", "area_m2": 2180.529689439719}, "geometry": {"type": "Polygon", "coordinates": [[[-95.3630362, 29.7608084], [-95.3628761, 29.7607146], [-95.3628853, 29.7607027], [-95.3627668, 29.7606333], [-95.3626953, 29.7607289], [-95.3626362, 29.7606948], [-95.3625731, 29.7606579], [-95.3625975, 29.760623], [-95.3626513, 29.7605555], [-95.3625046, 29.7604695], [-95.3624712, 29.7605123], [-95.3623458, 29.760441], [-95.36257780000001, 29.7601492], [-95.3626981, 29.7602197], [-95.3625728, 29.7603808], [-95.3627231, 29.7604689], [-95.3628494, 29.7603067], [-95.3629732, 29.7603793], [-95.3628452, 29.7605439], [-95.3630002, 29.7606348], [-95.3631316, 29.7604659], [-95.363249, 29.7605348], [-95.3630362, 29.7608084]]]}}, {"id": "2", "type": "Feature", "properties": {"building_id": "44130644", "area_m2": 2062.9071784548587}, "geometry": {"type": "Polygon", "coordinates": [[[-95.3640743, 29.7606804], [-95.3637162, 29.76046690000001], [-95.3637025, 29.7604252], [-95.3639536, 29.7601163], [-95.3639994, 29.7601051], [-95.3641819, 29.7602157], [-95.3642483, 29.7605166], [-95.3641216, 29.7606737], [-95.3640743, 29.7606804]]]}}, {"id": "3", "type": "Feature", "properties": {"building_id": "44130646", "area_m2": 5855.347719042084}, "geometry": {"type": "Polygon", "coordinates": [[[-95.3634087, 29.7603202], [-95.3627552, 29.7599292], [-95.36320470000001, 29.75936289999999], [-95.3638583, 29.7597538], [-95.3634087, 29.7603202]]]}}, {"id": "4", "type": "Feature", "properties": {"building_id": "44530797", "area_m2": 2267.8220558001353}, "geometry": {"type": "Polygon", "coordinates": [[[-95.3624622, 29.7563539], [-95.3619704, 29.756057], [-95.362014, 29.7560025], [-95.3622028, 29.7557669], [-95.3626756, 29.7560533], [-95.3626945, 29.7560637], [-95.3626508, 29.7561184], [-95.3624884, 29.7563211], [-95.3624622, 29.7563539]]]}}, {"id": "5", "type": "Feature", "properties": {"building_id": "44530801", "area_m2": 2176.215721816954}, "geometry": {"type": "Polygon", "coordinates": [[[-95.3634617, 29.7566074], [-95.3633901, 29.7565646], [-95.3629949, 29.7563284], [-95.3629769, 29.7563176], [-95.3632021, 29.7560337], [-95.3632332, 29.7560523], [-95.3636032, 29.7562735], [-95.3636868, 29.7563235], [-95.3634617, 29.7566074]]]}}, {"id": "6", "type": "Feature", "properties": {"building_id": "44530804", "area_m2": 961.9605975462263}, "geometry": {"type": "Polygon", "coordinates": [[[-95.36422060000001, 29.7571596], [-95.3643132, 29.7570419], [-95.3644024, 29.7569293], [-95.3646666, 29.7570872], [-95.3644849, 29.7573179], [-95.36422060000001, 29.7571596]]]}}, {"id": "7", "type": "Feature", "properties": {"building_id": "44631716", "area_m2": 2710.297119504607}, "geometry": {"type": "Polygon", "coordinates": [[[-95.3644545, 29.7594004], [-95.3646649, 29.7591353], [-95.3653123, 29.7595282], [-95.365103, 29.7597897], [-95.3644545, 29.7594004]]]}}, {"id": "8", "type": "Feature", "properties": {"building_id": "44631717", "area_m2": 2577.1126518383335}, "geometry": {"type": "Polygon", "coordinates": [[[-95.3657792, 29.7589125], [-95.3654502, 29.7593279], [-95.3652201, 29.7591914], [-95.365323, 29.7590624], [-95.365086, 29.7589199], [-95.3652749, 29.758683], [-95.3653135, 29.7586346], [-95.3654335, 29.7587058], [-95.3655922, 29.7588013], [-95.3657792, 29.7589125]]]}}, {"id": "9", "type": "Feature", "properties": {"building_id": "44632298", "area_m2": 19235.0073325644}, "geometry": {"type": "Polygon", "coordinates": [[[-95.3672352, 29.7625336], [-95.3663925, 29.76202830000001], [-95.3667803, 29.7615279], [-95.368067, 29.7623083], [-95.3680708, 29.7623106], [-95.3681052, 29.7623315], [-95.3681416, 29.7623536], [-95.3682364, 29.7624106], [-95.3683096, 29.7624546], [-95.3683274, 29.7624653], [-95.3685012, 29.7625698], [-95.3688997, 29.7625721], [-95.3690631, 29.7625731], [-95.3694548, 29.7628137], [-95.3691408, 29.7632053], [-95.3688291, 29.7630202], [-95.3680332, 29.7630078], [-95.3679293, 29.7629463], [-95.3679133, 29.7629429], [-95.3678462, 29.7629024], [-95.3677508, 29.762845], [-95.3677118, 29.7628208], [-95.3676931, 29.7628092], [-95.3676812, 29.7628018], [-95.3676435, 29.7627784], [-95.3675975, 29.7628351], [-95.3675659, 29.7628158], [-95.3675262, 29.7628647], [-95.3674681, 29.7628292], [-95.3671521, 29.762636], [-95.3672352, 29.7625336]]]}}, {"id": "10", "type": "Feature", "properties": {"building_id": "44821975", "area_m2": 3610.9225912832035}, "geometry": {"type": "Polygon", "coordinates": [[[-95.367464, 29.7582656], [-95.366953, 29.7579548], [-95.3673097, 29.7575129], [-95.3678206, 29.7578237], [-95.367464, 29.7582656]]]}}, {"id": "11", "type": "Feature", "properties": {"building_id": "44821978", "area_m2": 5335.588872210677}, "geometry": {"type": "Polygon", "coordinates": [[[-95.3672168, 29.7571071], [-95.3665816, 29.7567122], [-95.3670022, 29.7561906], [-95.3676374, 29.7565855], [-95.3672168, 29.7571071]]]}}, {"id": "12", "type": "Feature", "properties": {"building_id": "44821979", "area_m2": 5490.101010523954}, "geometry": {"type": "Polygon", "coordinates": [[[-95.3666074, 29.757844799999987], [-95.3663944, 29.7577131], [-95.3659808, 29.7574573], [-95.3663012, 29.7570429], [-95.3664014, 29.7569133], [-95.3670451, 29.7573008], [-95.3666074, 29.757844799999987]]]}}, {"id": "13", "type": "Feature", "properties": {"building_id": "44821981", "area_m2": 1326.900757861292}, "geometry": {"type": "Polygon", "coordinates": [[[-95.3646034, 29.7614956], [-95.364394, 29.7617561], [-95.36467310000002, 29.7619277], [-95.3644922, 29.7621544], [-95.3639655, 29.7618428], [-95.3639755, 29.7618347], [-95.3640158, 29.7618696], [-95.3640674, 29.7618957], [-95.3641338, 29.7619185], [-95.3642089, 29.7619278], [-95.3645978, 29.7614412], [-95.3646034, 29.7614956]]]}}, {"id": "14", "type": "Feature", "properties": {"building_id": "44821986", "area_m2": 2446.8473176816133}, "geometry": {"type": "Polygon", "coordinates": [[[-95.36766770000001, 29.7594738], [-95.3673118, 29.7592565], [-95.3676569, 29.7588305], [-95.3680174, 29.7590419], [-95.36766770000001, 29.7594738]]]}}, {"id": "15", "type": "Feature", "properties": {"building_id": "44821987", "area_m2": 2398.670304241576}, "geometry": {"type": "Polygon", "coordinates": [[[-95.3686604, 29.7582805], [-95.3685259, 29.7582031], [-95.3685078, 29.75819640000001], [-95.3684874, 29.7581909], [-95.368457, 29.7581863], [-95.3684106, 29.758183599999985], [-95.36835530000002, 29.7581865], [-95.3683029, 29.7581939], [-95.3682517, 29.7582096], [-95.3682066, 29.7582316], [-95.368175, 29.7582484], [-95.3681365, 29.7582754], [-95.3680968, 29.7583112], [-95.36814110000002, 29.7583363], [-95.3679339, 29.7585708], [-95.3680243, 29.7586269], [-95.3680593, 29.758645], [-95.368089, 29.7586574], [-95.3681236, 29.7586697], [-95.3681525, 29.7586764], [-95.3681822, 29.7586821], [-95.368208, 29.7586844], [-95.3682342, 29.7586851], [-95.3682623, 29.7586844], [-95.3682915, 29.7586821], [-95.3683166, 29.7586774], [-95.3683416, 29.75867110000001], [-95.3683655, 29.7586627], [-95.3683847, 29.758655], [-95.3684025, 29.7586467], [-95.3684198, 29.7586376], [-95.3684367, 29.7586273], [-95.3684568, 29.7586146], [-95.3684733, 29.7586019], [-95.36848950000001, 29.7585882], [-95.3685053, 29.7585718], [-95.3685199, 29.7585567], [-95.3684651, 29.7585236], [-95.3686604, 29.7582805]]]}}, {"id": "16", "type": "Feature", "properties": {"building_id": "45591845", "area_m2": 2373.684839397562}, "geometry": {"type": "Polygon", "coordinates": [[[-95.368864, 29.7566419], [-95.3688347, 29.7566798], [-95.3686843, 29.7568748], [-95.3680352, 29.7564743], [-95.3682042, 29.7562437], [-95.3685336, 29.7564425], [-95.368864, 29.7566419]]]}}, {"id": "17", "type": "Feature", "properties": {"building_id": "45591846", "area_m2": 3595.5699427246745}, "geometry": {"type": "Polygon", "coordinates": [[[-95.369226, 29.7575426], [-95.3692614, 29.7575645], [-95.3692855, 29.7575332], [-95.3693388, 29.7575606], [-95.3691069, 29.7578589], [-95.3690514, 29.7579304], [-95.3689989, 29.757997899999985], [-95.3689447, 29.7580676], [-95.3688663, 29.7580221], [-95.3687835, 29.757971], [-95.3687093, 29.7579253], [-95.3685826, 29.7578493], [-95.3687662, 29.7576197], [-95.368528, 29.7574802], [-95.3685556, 29.7574447], [-95.368581, 29.7574107], [-95.3686075, 29.7573751], [-95.3686318, 29.7573426], [-95.3686554, 29.7573109], [-95.3686825, 29.7572746], [-95.3687096, 29.7572384], [-95.369226, 29.7575426]]]}}, {"id": "18", "type": "Feature", "properties": {"building_id": "45591857", "area_m2": 3100.148891594381}, "geometry": {"type": "Polygon", "coordinates": [[[-95.3693223, 29.7564685], [-95.3697014, 29.757174099999986], [-95.369599, 29.7572121], [-95.3695978, 29.7572979], [-95.3695371, 29.7573809], [-95.3689311, 29.7570216], [-95.3689126, 29.7570064], [-95.3690689, 29.7569742], [-95.3690851, 29.7569532], [-95.3693038, 29.7566684], [-95.3692437, 29.7565712], [-95.3693223, 29.7564685]]]}}, {"id": "19", "type": "Feature", "properties": {"building_id": "54169593", "area_m2": 295.158161848477}, "geometry": {"type": "Polygon", "coordinates": [[[-95.3625966, 29.761356799999987], [-95.3625503, 29.7614137], [-95.3625381, 29.7614061], [-95.3623849, 29.76131440000001], [-95.3623547, 29.7613537], [-95.362258, 29.761296], [-95.3622904, 29.7612556], [-95.3623342, 29.7612003], [-95.3625966, 29.761356799999987]]]}}, {"id": "20", "type": "Feature", "properties": {"building_id": "54169596", "area_m2": 5950.499774342275}, "geometry": {"type": "Polygon", "coordinates": [[[-95.3662547, 29.7609464], [-95.365904, 29.760733], [-95.3663539, 29.7601643], [-95.3667031, 29.760367], [-95.3670149, 29.7605581], [-95.3668228, 29.7607961], [-95.3666568, 29.7610046], [-95.3665616, 29.7611268], [-95.3662547, 29.7609464]]]}}, {"id": "21", "type": "Feature", "properties": {"building_id": "54169598", "area_m2": 3967.570617736532}, "geometry": {"type": "Polygon", "coordinates": [[[-95.3675499, 29.7614639], [-95.3669089, 29.7610863], [-95.3672263, 29.7606891], [-95.36785620000002, 29.7610683], [-95.3675499, 29.7614639]]]}}, {"id": "22", "type": "Feature", "properties": {"building_id": "54169601", "area_m2": 6193.980348427929}, "geometry": {"type": "Polygon", "coordinates": [[[-95.3649266, 29.7603798], [-95.3655951, 29.7607793], [-95.3651305, 29.7613654], [-95.3644619, 29.7609659], [-95.3649266, 29.7603798]]]}}, {"id": "23", "type": "Feature", "properties": {"building_id": "54358314", "area_m2": 3953.1713096512417}, "geometry": {"type": "Polygon", "coordinates": [[[-95.3618926, 29.7605867], [-95.3612393, 29.7601939], [-95.3614204, 29.7599669], [-95.3616937, 29.7601313], [-95.3617519, 29.7600583], [-95.3618669, 29.7601279], [-95.362083, 29.7598586], [-95.3620882, 29.7598513], [-95.3623525, 29.7600102], [-95.3618926, 29.7605867]]]}}, {"id": "24", "type": "Feature", "properties": {"building_id": "54358538", "area_m2": 2569.1364513083336}, "geometry": {"type": "Polygon", "coordinates": [[[-95.365155, 29.7564856], [-95.3648735, 29.7563143], [-95.3647652, 29.7562484], [-95.3644673, 29.75606709999999], [-95.3645732, 29.755936], [-95.3646559, 29.7558336], [-95.3653436, 29.7562521], [-95.365155, 29.7564856]]]}}, {"id": "25", "type": "Feature", "properties": {"building_id": "54358539", "area_m2": 2710.834078333932}, "geometry": {"type": "Polygon", "coordinates": [[[-95.3638442, 29.7553628], [-95.36424310000001, 29.7559301], [-95.3640021, 29.7562263], [-95.3636082, 29.755659], [-95.36376370000002, 29.7554638], [-95.3638442, 29.7553628]]]}}, {"id": "26", "type": "Feature", "properties": {"building_id": "54358597", "area_m2": 2852.140791660431}, "geometry": {"type": "Polygon", "coordinates": [[[-95.3654152, 29.75778430000001], [-95.36476390000001, 29.7573903], [-95.3649858, 29.7571123], [-95.3653275, 29.7573242], [-95.3656348, 29.7575147], [-95.3654738, 29.7577123], [-95.3654152, 29.75778430000001]]]}}, {"id": "27", "type": "Feature", "properties": {"building_id": "54358731", "area_m2": 2661.088403024734}, "geometry": {"type": "Polygon", "coordinates": [[[-95.369392, 29.7605345], [-95.3689832, 29.7602928], [-95.3691034, 29.76013950000001], [-95.3691573, 29.7601714], [-95.3691889, 29.7601313], [-95.36922010000002, 29.7601497], [-95.3692907, 29.7600608], [-95.369263, 29.7600441], [-95.3692983, 29.7599999], [-95.3692483, 29.7599703], [-95.3693604, 29.7598277], [-95.3697648, 29.7600671], [-95.3696478, 29.760216], [-95.369598, 29.7601866], [-95.3695648, 29.760228], [-95.3695411, 29.7602137], [-95.3694733, 29.760299], [-95.3695019, 29.760316], [-95.3694692, 29.7603575], [-95.3695113, 29.7603825], [-95.369392, 29.7605345]]]}}, {"id": "28", "type": "Feature", "properties": {"building_id": "54367926", "area_m2": 968.5812962774971}, "geometry": {"type": "Polygon", "coordinates": [[[-95.3633897, 29.7586813], [-95.3632466, 29.7585886], [-95.3633275, 29.7584915], [-95.36306810000002, 29.7583367], [-95.36315690000002, 29.7582267], [-95.363572, 29.7584667], [-95.3633897, 29.7586813]]]}}, {"id": "29", "type": "Feature", "properties": {"building_id": "54369011", "area_m2": 3316.7787935256224}, "geometry": {"type": "Polygon", "coordinates": [[[-95.3650443, 29.7618511], [-95.3650548, 29.7618413], [-95.3650651, 29.7618072], [-95.3650903, 29.761781], [-95.3651141, 29.761769799999986], [-95.3651135, 29.761765], [-95.3651216, 29.7617493], [-95.3651478, 29.7617172], [-95.3651583, 29.7617135], [-95.3651757, 29.7617173], [-95.3652082, 29.7617372], [-95.3652174, 29.7617461], [-95.3652174, 29.761758], [-95.3652117, 29.7617695], [-95.3652341, 29.761773], [-95.3652628, 29.76177769999999], [-95.3653018, 29.7618022], [-95.365327, 29.7618423], [-95.3653861, 29.7618794], [-95.3654006, 29.7618738], [-95.3654396, 29.7618718], [-95.36548160000001, 29.7618881], [-95.3655102, 29.7619199], [-95.3655167, 29.761958], [-95.3655233, 29.761961299999985], [-95.3655333, 29.7619494], [-95.3655438, 29.7619456], [-95.36556120000002, 29.7619494], [-95.3655938, 29.761969299999986], [-95.3656029, 29.7619782], [-95.3656029, 29.7619901], [-95.3655989, 29.7619985], [-95.3656438, 29.7620127], [-95.3656827, 29.7620332], [-95.3657182, 29.7620729], [-95.365725, 29.7620649], [-95.3657355, 29.7620612], [-95.36575290000002, 29.762065], [-95.3657854, 29.7620849], [-95.3657946, 29.7620938], [-95.3657946, 29.7621057], [-95.3657889, 29.7621173], [-95.3657703, 29.7621404], [-95.3657606, 29.7621488], [-95.3657457, 29.7621531], [-95.3657317, 29.7621512], [-95.3657274, 29.7621486], [-95.3657259, 29.7621664], [-95.3657098, 29.7622009], [-95.3656816, 29.7622463], [-95.3656373, 29.7623006], [-95.3656045, 29.7623301], [-95.36556160000002, 29.7623616], [-95.3655722, 29.7623715], [-95.3655722, 29.7623834], [-95.3655665, 29.762395], [-95.36554790000001, 29.762418100000012], [-95.3655382, 29.7624265], [-95.3655234, 29.7624308], [-95.3655093, 29.7624289], [-95.36547680000001, 29.762409], [-95.3654696, 29.7624001], [-95.3654683, 29.7623904], [-95.3654765, 29.7623746], [-95.3654644, 29.7623742], [-95.365435, 29.7623646], [-95.3653938, 29.7623444], [-95.3653582, 29.7623067], [-95.3653496, 29.7623146], [-95.3653387, 29.7623178], [-95.3653229, 29.7623157], [-95.3652872, 29.7622961], [-95.3652798, 29.7622869], [-95.3652788, 29.7622785], [-95.3652871, 29.7622626], [-95.3652683, 29.7622415], [-95.36525740000002, 29.7622308], [-95.3652477, 29.7622235], [-95.3652297, 29.7622123], [-95.3651996, 29.7621986], [-95.3651888, 29.7621963], [-95.3651788, 29.7621962], [-95.3651652, 29.76219], [-95.3650933, 29.7621456], [-95.36506450000002, 29.7621464], [-95.3650352, 29.7621409], [-95.3649986, 29.7621177], [-95.364973, 29.7620945], [-95.3649664, 29.7620756], [-95.36496240000001, 29.7620791], [-95.3649476, 29.7620833], [-95.36493350000002, 29.7620814], [-95.364901, 29.7620615], [-95.3648939, 29.7620526], [-95.36489250000001, 29.762043], [-95.3649006, 29.7620273], [-95.3649268, 29.7619952], [-95.3649373, 29.7619914], [-95.3649407, 29.7619922], [-95.3649433, 29.7619779], [-95.3649502, 29.7619557], [-95.3649651, 29.7619291], [-95.3649907, 29.761905], [-95.3650028, 29.7618995], [-95.3650096, 29.7618862], [-95.3650358, 29.7618541], [-95.3650443, 29.7618511]]]}}, {"id": "30", "type": "Feature", "properties": {"building_id": "54393368", "area_m2": 2072.1780202053096}, "geometry": {"type": "Polygon", "coordinates": [[[-95.3674516, 29.75609180000001], [-95.3671935, 29.7559323], [-95.3676024, 29.7554334], [-95.3678584, 29.75559160000001], [-95.3678255, 29.7556316], [-95.3674854, 29.7560506], [-95.3674516, 29.75609180000001]]]}}, {"id": "31", "type": "Feature", "properties": {"building_id": "143339226", "area_m2": 1277.022291160569}, "geometry": {"type": "Polygon", "coordinates": [[[-95.3636241, 29.7577335], [-95.36341930000002, 29.7576122], [-95.363421, 29.7576052], [-95.3633512, 29.7575626], [-95.3633386, 29.7575781], [-95.3632989, 29.7575534], [-95.3635075, 29.7572891], [-95.3638346, 29.7574888], [-95.3638109, 29.7575186], [-95.3637993, 29.7575116], [-95.3636241, 29.7577335]]]}}, {"id": "32", "type": "Feature", "properties": {"building_id": "231641270", "area_m2": 2209.2033100203817}, "geometry": {"type": "Polygon", "coordinates": [[[-95.3628306, 29.7571715], [-95.3625545, 29.7574958], [-95.3626051, 29.7575298], [-95.3625502, 29.7575906], [-95.362502, 29.7575624], [-95.3621689, 29.7573648], [-95.3624804, 29.7569587], [-95.3628306, 29.7571715]]]}}, {"id": "33", "type": "Feature", "properties": {"building_id": "232239869", "area_m2": 2355.1796870538533}, "geometry": {"type": "Polygon", "coordinates": [[[-95.36939730000002, 29.7591451], [-95.3693755, 29.7591323], [-95.3692138, 29.75934], [-95.3690988, 29.7592725], [-95.3692337, 29.759099199999987], [-95.3690908, 29.75901540000001], [-95.369023, 29.7589757], [-95.3688, 29.7588449], [-95.3688287, 29.7588081], [-95.3688036, 29.7587934], [-95.3688807, 29.7586942], [-95.3689106, 29.7587118], [-95.36894, 29.758674], [-95.36909, 29.7587619], [-95.369236, 29.7585742], [-95.36939570000001, 29.7586678], [-95.36925020000001, 29.7588549], [-95.3695063, 29.7590051], [-95.36939730000002, 29.7591451]]]}}, {"id": "34", "type": "Feature", "properties": {"building_id": "257997076", "area_m2": 9324.594434923058}, "geometry": {"type": "Polygon", "coordinates": [[[-95.3696177, 29.7621791], [-95.3695485, 29.7620993], [-95.3694585, 29.7621535], [-95.3694195, 29.7621158], [-95.36929040000001, 29.7621854], [-95.3689634, 29.7617798], [-95.3692014, 29.7616314], [-95.3695151, 29.7610964], [-95.3696698, 29.7612571], [-95.36975, 29.7611256], [-95.370238, 29.7614889], [-95.370148, 29.7615804], [-95.3702902, 29.7616851], [-95.3702501, 29.7617172], [-95.3703397, 29.761781], [-95.3705041, 29.7618981], [-95.3704613, 29.7619361], [-95.3704069, 29.7618991], [-95.3703048, 29.7618297], [-95.3702055, 29.7617621], [-95.3701847, 29.7617787], [-95.3702222, 29.7618152], [-95.369889, 29.76213], [-95.3698171, 29.7620599], [-95.3696177, 29.7621791]]]}}, {"id": "35", "type": "Feature", "properties": {"building_id": "260514261", "area_m2": 2372.2649958813354}, "geometry": {"type": "Polygon", "coordinates": [[[-95.3676381, 29.7571867], [-95.3677021, 29.7571061], [-95.3678515, 29.7569177], [-95.3679272, 29.7568222], [-95.3680262, 29.7568813], [-95.3682425, 29.7570106], [-95.3683388, 29.757068199999985], [-95.3682711, 29.7571536], [-95.36811620000002, 29.7573489], [-95.3680497, 29.7574327], [-95.3679541, 29.7573756], [-95.3677317, 29.7572426], [-95.3676381, 29.7571867]]]}}, {"id": "36", "type": "Feature", "properties": {"building_id": "260517512", "area_m2": 1788.1097786595585}, "geometry": {"type": "Polygon", "coordinates": [[[-95.363879, 29.7580694], [-95.3641212, 29.7577776], [-95.3640892, 29.7577505], [-95.3641012, 29.7577432], [-95.3641167, 29.7577447], [-95.36412, 29.7577426], [-95.3640897, 29.7577132], [-95.3640519, 29.7576798], [-95.3639875, 29.7576235], [-95.3639039, 29.7575656], [-95.3638214, 29.7575145], [-95.3638111, 29.7575264], [-95.363806, 29.7575223], [-95.3636179, 29.7577575], [-95.3633165, 29.7575732], [-95.3632747, 29.7576255], [-95.3632726, 29.7576446], [-95.3636625, 29.7578259], [-95.3639019, 29.7580134], [-95.3639034, 29.7580203], [-95.3638951, 29.7580208], [-95.363894, 29.7580167], [-95.3638777, 29.7580174], [-95.3638433, 29.7580429], [-95.363879, 29.7580694]]]}}, {"id": "37", "type": "Feature", "properties": {"building_id": "260523421", "area_m2": 279.7642245042673}, "geometry": {"type": "Polygon", "coordinates": [[[-95.3643088, 29.76126], [-95.3639118, 29.7617513], [-95.3639059, 29.7616971], [-95.36424550000001, 29.7612598], [-95.3643088, 29.76126]]]}}, {"id": "38", "type": "Feature", "properties": {"building_id": "260523422", "area_m2": 2531.1293014771873}, "geometry": {"type": "Polygon", "coordinates": [[[-95.3639755, 29.7618347], [-95.3640158, 29.7618696], [-95.3640674, 29.7618957], [-95.3641338, 29.7619185], [-95.3642089, 29.7619278], [-95.3645978, 29.7614412], [-95.364577, 29.7613997], [-95.3645421, 29.7613508], [-95.3645073, 29.7613206], [-95.3644402, 29.7612903], [-95.3643866, 29.761274], [-95.3643088, 29.76126], [-95.3639118, 29.7617513], [-95.363936, 29.7617979], [-95.3639755, 29.7618347]]]}}, {"id": "39", "type": "Feature", "properties": {"building_id": "292900436", "area_m2": 2435.6069673965776}, "geometry": {"type": "Polygon", "coordinates": [[[-95.3664691, 29.755836], [-95.3663977, 29.7557949], [-95.3660369, 29.7562652], [-95.366055, 29.7563258], [-95.3661289, 29.7564576], [-95.3661827, 29.7564703], [-95.366232, 29.7564604], [-95.3667313, 29.7560202], [-95.3667196, 29.7559838], [-95.3664691, 29.755836]]]}}, {"id": "40", "type": "Feature", "properties": {"building_id": "418411146", "area_m2": 412.77635623128583}, "geometry": {"type": "Polygon", "coordinates": [[[-95.3648614, 29.7616916], [-95.3647537, 29.7616263], [-95.3647704, 29.7616056], [-95.3646224, 29.7615159], [-95.3646967, 29.761423399999988], [-95.36495240000002, 29.7615784], [-95.3648614, 29.7616916]]]}}, {"id": "41", "type": "Feature", "properties": {"building_id": "436948264", "area_m2": 3364.3481342533614}, "geometry": {"type": "Polygon", "coordinates": [[[-95.367799, 29.756348], [-95.3678365, 29.7563364], [-95.3678579, 29.7563201], [-95.3682537, 29.75581390000001], [-95.3682591, 29.7557907], [-95.3682457, 29.7557721], [-95.3679782, 29.7556142], [-95.3679515, 29.7556072], [-95.3679274, 29.7556235], [-95.3678926, 29.7556699], [-95.3678255, 29.7556316], [-95.3674854, 29.7560506], [-95.3675232, 29.756072], [-95.36755560000002, 29.7560925], [-95.3675342, 29.7561181], [-95.3675182, 29.756139], [-95.3675155, 29.7561622], [-95.3675369, 29.7561854], [-95.367799, 29.756348]]]}}, {"id": "42", "type": "Feature", "properties": {"building_id": "463949972", "area_m2": 2981.290829091994}, "geometry": {"type": "Polygon", "coordinates": [[[-95.363507, 29.7626701], [-95.3634146, 29.7622954], [-95.3634153, 29.762279], [-95.3634215, 29.7622643], [-95.363561, 29.7620933], [-95.3636978, 29.7619246], [-95.364092, 29.7621789], [-95.3639122, 29.7624043], [-95.3638466, 29.7623649], [-95.3637959, 29.7624285], [-95.3638581, 29.7624659], [-95.3637801, 29.7625637], [-95.36373, 29.7625329], [-95.36358, 29.7627156], [-95.363507, 29.7626701]]]}}, {"id": "43", "type": "Feature", "properties": {"building_id": "463949973", "area_m2": 1654.7927449167016}, "geometry": {"type": "Polygon", "coordinates": [[[-95.3614811, 29.7598947], [-95.3616971, 29.7596254], [-95.362083, 29.7598586], [-95.3618669, 29.7601279], [-95.3617519, 29.7600583], [-95.3614811, 29.7598947]]]}}, {"id": "44", "type": "Feature", "properties": {"building_id": "463949974", "area_m2": 1568.2023135607337}, "geometry": {"type": "Polygon", "coordinates": [[[-95.3621171, 29.7586832], [-95.3618833, 29.758978], [-95.3616973, 29.7588669], [-95.3615516, 29.7587734], [-95.3617771, 29.75848], [-95.3621171, 29.7586832]]]}}, {"id": "45", "type": "Feature", "properties": {"building_id": "463949975", "area_m2": 2882.9758363654796}, "geometry": {"type": "Polygon", "coordinates": [[[-95.3628328, 29.75776270000001], [-95.3630519, 29.7574875], [-95.3632881, 29.7571909], [-95.362969, 29.7570012], [-95.3628306, 29.7571715], [-95.3625545, 29.7574958], [-95.3626051, 29.7575298], [-95.3625502, 29.7575906], [-95.3628328, 29.75776270000001]]]}}, {"id": "46", "type": "Feature", "properties": {"building_id": "463949976", "area_m2": 942.8161158435291}, "geometry": {"type": "Polygon", "coordinates": [[[-95.3624804, 29.7569587], [-95.3626166, 29.7567931], [-95.362969, 29.7570012], [-95.3628306, 29.7571715], [-95.3624804, 29.7569587]]]}}, {"id": "47", "type": "Feature", "properties": {"building_id": "503660106", "area_m2": 2589.202782460156}, "geometry": {"type": "Polygon", "coordinates": [[[-95.3628078, 29.7594307], [-95.36274820000001, 29.7594202], [-95.3626895, 29.7594085], [-95.3626274, 29.7593958], [-95.3625644, 29.759383499999984], [-95.3621969, 29.7591597], [-95.3621292, 29.759075], [-95.3623008, 29.7588602], [-95.3624206, 29.7588871], [-95.3627791, 29.7591074], [-95.3628163, 29.759153], [-95.3628479, 29.7591938], [-95.3628882, 29.7592457], [-95.3629207, 29.7592887], [-95.3628078, 29.7594307]]]}}, {"id": "48", "type": "Feature", "properties": {"building_id": "503660107", "area_m2": 3258.8736630440153}, "geometry": {"type": "Polygon", "coordinates": [[[-95.3625301, 29.7598114], [-95.3618733, 29.7594063], [-95.3621292, 29.759075], [-95.3621969, 29.7591597], [-95.3625644, 29.759383499999984], [-95.3626274, 29.7593958], [-95.3626895, 29.7594085], [-95.36274820000001, 29.7594202], [-95.3628078, 29.7594307], [-95.36259110000002, 29.7597278], [-95.3625301, 29.7598114]]]}}, {"id": "49", "type": "Feature", "properties": {"building_id": "510321515", "area_m2": 216.39991362826856}, "geometry": {"type": "Polygon", "coordinates": [[[-95.3622335, 29.7613257], [-95.3624807, 29.7614765], [-95.3625381, 29.7614061], [-95.3623849, 29.76131440000001], [-95.3623547, 29.7613537], [-95.362258, 29.761296], [-95.3622335, 29.7613257]]]}}, {"id": "50", "type": "Feature", "properties": {"building_id": "510321516", "area_m2": 2824.2871739036}, "geometry": {"type": "Polygon", "coordinates": [[[-95.3635032, 29.7618227], [-95.3628895, 29.7614525], [-95.36285, 29.7614286], [-95.3626324, 29.7617006], [-95.3632857, 29.7620945], [-95.3635032, 29.7618227]]]}}, {"id": "51", "type": "Feature", "properties": {"building_id": "510321962", "area_m2": 1101.4815657794074}, "geometry": {"type": "Polygon", "coordinates": [[[-95.3644506, 29.7590206], [-95.3641595, 29.7588425], [-95.3640227, 29.75901119999999], [-95.3641804, 29.7591076], [-95.3640609, 29.7592549], [-95.3641931, 29.7593364], [-95.3644506, 29.7590206]]]}}, {"id": "52", "type": "Feature", "properties": {"building_id": "510321963", "area_m2": 1283.3467297435102}, "geometry": {"type": "Polygon", "coordinates": [[[-95.3640079, 29.7595627], [-95.3636245, 29.7593261], [-95.3637936, 29.7591189], [-95.3638999, 29.759184], [-95.3638745, 29.759215], [-95.3639801, 29.7592801], [-95.3640209, 29.7592302], [-95.3640609, 29.7592549], [-95.3641931, 29.7593364], [-95.3640079, 29.7595627]]]}}, {"id": "53", "type": "Feature", "properties": {"building_id": "510321964", "area_m2": 1376.8009910005799}, "geometry": {"type": "Polygon", "coordinates": [[[-95.3627867, 29.7611287], [-95.3625216, 29.7609628], [-95.3626502, 29.7607936], [-95.3626953, 29.7607289], [-95.3627668, 29.7606333], [-95.3628853, 29.7607027], [-95.3628761, 29.7607146], [-95.3630362, 29.7608084], [-95.3627867, 29.7611287]]]}}, {"id": "54", "type": "Feature", "properties": {"building_id": "510321965", "area_m2": 398.83079790841134}, "geometry": {"type": "Polygon", "coordinates": [[[-95.3621197, 29.7607242], [-95.3622145, 29.7606078], [-95.362365, 29.7607004], [-95.3624271, 29.7607386], [-95.3623378, 29.7608555], [-95.3621197, 29.7607242]]]}}, {"id": "55", "type": "Feature", "properties": {"building_id": "510321966", "area_m2": 234.73089615891757}, "geometry": {"type": "Polygon", "coordinates": [[[-95.362365, 29.7607004], [-95.3624271, 29.7607386], [-95.3623378, 29.7608555], [-95.3623953, 29.7608848], [-95.3625471, 29.7606903], [-95.3624752, 29.760646], [-95.3624564, 29.7606719], [-95.3624105, 29.7606438], [-95.362365, 29.7607004]]]}}, {"id": "56", "type": "Feature", "properties": {"building_id": "510321967", "area_m2": 486.9901049902867}, "geometry": {"type": "Polygon", "coordinates": [[[-95.3623458, 29.760441], [-95.3624712, 29.7605123], [-95.3625046, 29.7604695], [-95.3626513, 29.7605555], [-95.3625975, 29.760623], [-95.3625419, 29.7605907], [-95.36251390000001, 29.7606265], [-95.3624967, 29.76061640000001], [-95.3624752, 29.760646], [-95.3624564, 29.7606719], [-95.3624105, 29.7606438], [-95.3622598, 29.7605527], [-95.3623458, 29.760441]]]}}, {"id": "57", "type": "Feature", "properties": {"building_id": "510321969", "area_m2": 164.1835730767761}, "geometry": {"type": "Polygon", "coordinates": [[[-95.3624588, 29.7609237], [-95.3625895, 29.7607567], [-95.3626502, 29.7607936], [-95.3625216, 29.7609628], [-95.3624588, 29.7609237]]]}}, {"id": "58", "type": "Feature", "properties": {"building_id": "510321971", "area_m2": 2758.027984882882}, "geometry": {"type": "Polygon", "coordinates": [[[-95.3624799, 29.7582388], [-95.362052, 29.7579822], [-95.3620143, 29.7580298], [-95.3619413, 29.757986], [-95.36176890000002, 29.7578815], [-95.3615883, 29.7581049], [-95.3622531, 29.7585173], [-95.3624799, 29.7582388]]]}}, {"id": "59", "type": "Feature", "properties": {"building_id": "510321973", "area_m2": 1292.7480224675362}, "geometry": {"type": "Polygon", "coordinates": [[[-95.3623754, 29.7577411], [-95.3627242, 29.7579468], [-95.3625275, 29.7581841], [-95.3621909, 29.7579753], [-95.3622397, 29.7579109], [-95.3623754, 29.7577411]]]}}, {"id": "60", "type": "Feature", "properties": {"building_id": "510321974", "area_m2": 1496.962167625105}, "geometry": {"type": "Polygon", "coordinates": [[[-95.3638506, 29.7590882], [-95.3637048, 29.7589985], [-95.3635693, 29.758915199999986], [-95.3638026, 29.7586293], [-95.3641595, 29.7588425], [-95.3640227, 29.75901119999999], [-95.3639529, 29.7589628], [-95.3638506, 29.7590882]]]}}, {"id": "61", "type": "Feature", "properties": {"building_id": "510321975", "area_m2": 1365.5454182789858}, "geometry": {"type": "Polygon", "coordinates": [[[-95.3620381, 29.75753919999999], [-95.3623754, 29.7577411], [-95.3622397, 29.7579109], [-95.3620809, 29.7578059], [-95.3619413, 29.757986], [-95.36176890000002, 29.7578815], [-95.3620381, 29.75753919999999]]]}}, {"id": "62", "type": "Feature", "properties": {"building_id": "510321976", "area_m2": 229.24078396316384}, "geometry": {"type": "Polygon", "coordinates": [[[-95.3623953, 29.7608848], [-95.3625471, 29.7606903], [-95.3625731, 29.7606579], [-95.3626362, 29.7606948], [-95.3625895, 29.7607567], [-95.3624588, 29.7609237], [-95.3623953, 29.7608848]]]}}, {"id": "63", "type": "Feature", "properties": {"building_id": "510322324", "area_m2": 684.8448659954038}, "geometry": {"type": "Polygon", "coordinates": [[[-95.3641085, 29.7582197], [-95.3642022, 29.7580958], [-95.36437690000001, 29.7581907], [-95.3645542, 29.7583003], [-95.36445850000001, 29.7584217], [-95.3642256, 29.7582895], [-95.3641085, 29.7582197]]]}}, {"id": "64", "type": "Feature", "properties": {"building_id": "510322325", "area_m2": 130.06797905891943}, "geometry": {"type": "Polygon", "coordinates": [[[-95.3642022, 29.7580958], [-95.3642529, 29.7580475], [-95.36441390000002, 29.7581447], [-95.36437690000001, 29.7581907], [-95.3642022, 29.7580958]]]}}, {"id": "65", "type": "Feature", "properties": {"building_id": "510322326", "area_m2": 814.5240768187723}, "geometry": {"type": "Polygon", "coordinates": [[[-95.3639313, 29.758444], [-95.3641085, 29.7582197], [-95.3642256, 29.7582895], [-95.364186, 29.7583396], [-95.3642365, 29.7583697], [-95.3641893, 29.7584295], [-95.3643428, 29.7585208], [-95.3642737, 29.7586082], [-95.36423790000002, 29.7585869], [-95.36421660000002, 29.7586138], [-95.3639313, 29.758444]]]}}, {"id": "66", "type": "Feature", "properties": {"building_id": "510322327", "area_m2": 2157.981902448741}, "geometry": {"type": "Polygon", "coordinates": [[[-95.3650449, 29.7582707], [-95.3643906, 29.7578756], [-95.3642529, 29.7580475], [-95.36441390000002, 29.7581447], [-95.36437690000001, 29.7581907], [-95.3645542, 29.7583003], [-95.3648709, 29.7584885], [-95.3650449, 29.7582707]]]}}, {"id": "67", "type": "Feature", "properties": {"building_id": "510322328", "area_m2": 2902.3217676192317}, "geometry": {"type": "Polygon", "coordinates": [[[-95.3649493, 29.7599893], [-95.3649028, 29.7599621], [-95.36484990000001, 29.7600314], [-95.3647687, 29.7599819], [-95.3647479, 29.7600087], [-95.3646782, 29.75996970000001], [-95.3642216, 29.7596938], [-95.3642622, 29.7596418], [-95.364292, 29.75966], [-95.36432550000002, 29.7596152], [-95.3642993, 29.7595989], [-95.3644545, 29.7594004], [-95.365103, 29.7597897], [-95.3649493, 29.7599893]]]}}, {"id": "68", "type": "Feature", "properties": {"building_id": "510322329", "area_m2": 1699.430184581292}, "geometry": {"type": "Polygon", "coordinates": [[[-95.3646023, 29.7588292], [-95.3643178, 29.75866], [-95.3642856, 29.7586409], [-95.36445850000001, 29.7584217], [-95.3645542, 29.7583003], [-95.3648709, 29.7584885], [-95.3646023, 29.7588292]]]}}, {"id": "69", "type": "Feature", "properties": {"building_id": "510322923", "area_m2": 1417.9123032328557}, "geometry": {"type": "Polygon", "coordinates": [[[-95.3648141, 29.7589474], [-95.3649004, 29.7588393], [-95.364928, 29.7588559], [-95.3650138, 29.7587483], [-95.3649866, 29.758732], [-95.3651065, 29.7585818], [-95.3652749, 29.758683], [-95.365086, 29.7589199], [-95.365323, 29.7590624], [-95.3652201, 29.7591914], [-95.3648141, 29.7589474]]]}}, {"id": "70", "type": "Feature", "properties": {"building_id": "510322926", "area_m2": 1492.0381337403262}, "geometry": {"type": "Polygon", "coordinates": [[[-95.3652576, 29.7583924], [-95.3651065, 29.7585818], [-95.3652749, 29.758683], [-95.3653135, 29.7586346], [-95.3653242, 29.7586212], [-95.3654437, 29.758693], [-95.3654335, 29.7587058], [-95.3655922, 29.7588013], [-95.3656075, 29.7587821], [-95.3658104, 29.758904], [-95.3659071, 29.7587828], [-95.3652576, 29.7583924]]]}}, {"id": "71", "type": "Feature", "properties": {"building_id": "510322928", "area_m2": 435.6421656832018}, "geometry": {"type": "Polygon", "coordinates": [[[-95.3656683, 29.7594678], [-95.3657537, 29.7593588], [-95.3660088, 29.7595096], [-95.3659243, 29.7596183], [-95.3656683, 29.7594678]]]}}, {"id": "72", "type": "Feature", "properties": {"building_id": "510322929", "area_m2": 458.2741804270744}, "geometry": {"type": "Polygon", "coordinates": [[[-95.36605910000002, 29.7596973], [-95.3659243, 29.7596183], [-95.3660088, 29.7595096], [-95.3660936, 29.7594006], [-95.3662284, 29.7594796], [-95.36605910000002, 29.7596973]]]}}, {"id": "73", "type": "Feature", "properties": {"building_id": "510322930", "area_m2": 1140.9676597295538}, "geometry": {"type": "Polygon", "coordinates": [[[-95.3663152, 29.7598518], [-95.36605910000002, 29.7596973], [-95.3662284, 29.7594796], [-95.3662817, 29.7594184], [-95.36653730000002, 29.7595705], [-95.3663152, 29.7598518]]]}}, {"id": "74", "type": "Feature", "properties": {"building_id": "510322931", "area_m2": 2824.955384161638}, "geometry": {"type": "Polygon", "coordinates": [[[-95.365904, 29.7591855], [-95.3662817, 29.7594184], [-95.36653730000002, 29.7595705], [-95.3667618, 29.7592927], [-95.36612780000002, 29.7589077], [-95.365904, 29.7591855]]]}}, {"id": "75", "type": "Feature", "properties": {"building_id": "510323321", "area_m2": 2468.3234902428744}, "geometry": {"type": "Polygon", "coordinates": [[[-95.3651536, 29.75695509999999], [-95.3653607, 29.75669], [-95.365969, 29.757049], [-95.3657704, 29.7573016], [-95.3654758, 29.7571361], [-95.3651536, 29.75695509999999]]]}}, {"id": "76", "type": "Feature", "properties": {"building_id": "510323324", "area_m2": 3247.9117356516244}, "geometry": {"type": "Polygon", "coordinates": [[[-95.3633873, 29.7569184], [-95.3627914, 29.7565642], [-95.3627069, 29.7565138], [-95.3626242, 29.7564646], [-95.3626542, 29.7564199], [-95.3624884, 29.7563211], [-95.3626508, 29.7561184], [-95.3628147, 29.7562184], [-95.3629011, 29.7562713], [-95.3629769, 29.7563176], [-95.3629949, 29.7563284], [-95.3633901, 29.7565646], [-95.3634002, 29.75669860000001], [-95.363504, 29.7567701], [-95.3633873, 29.7569184]]]}}, {"id": "77", "type": "Feature", "properties": {"building_id": "510323325", "area_m2": 2723.0031839971584}, "geometry": {"type": "Polygon", "coordinates": [[[-95.36619250000001, 29.7567636], [-95.3660776, 29.7569103], [-95.365969, 29.757049], [-95.3653607, 29.75669], [-95.3655842, 29.7564046], [-95.3659667, 29.7566303], [-95.36619250000001, 29.7567636]]]}}, {"id": "78", "type": "Feature", "properties": {"building_id": "510323326", "area_m2": 2852.378882997938}, "geometry": {"type": "Polygon", "coordinates": [[[-95.3642208, 29.7564138], [-95.36428610000002, 29.7563329], [-95.3643658, 29.7562343], [-95.3644284, 29.7561567], [-95.3647039, 29.7563244], [-95.3647652, 29.7562484], [-95.3648735, 29.7563143], [-95.3648094, 29.7563936], [-95.3650909, 29.756565], [-95.364886, 29.7568187], [-95.3643221, 29.7564754], [-95.3642208, 29.7564138]]]}}, {"id": "79", "type": "Feature", "properties": {"building_id": "510323328", "area_m2": 5544.904813155779}, "geometry": {"type": "Polygon", "coordinates": [[[-95.3660368, 29.7585934], [-95.365403, 29.7582057], [-95.3656277, 29.7579289], [-95.3658454, 29.7576607], [-95.3664792, 29.7580484], [-95.3660368, 29.7585934]]]}}, {"id": "80", "type": "Feature", "properties": {"building_id": "580965929", "area_m2": 5808.840288704114}, "geometry": {"type": "Polygon", "coordinates": [[[-95.3661718, 29.7600336], [-95.3659464, 29.7603125], [-95.3657222, 29.7605989], [-95.3650723, 29.7602093], [-95.36528190000001, 29.7599457], [-95.3655219, 29.759644], [-95.3661718, 29.7600336]]]}}, {"id": "81", "type": "Feature", "properties": {"building_id": "580990725", "area_m2": 3676.28951651273}, "geometry": {"type": "Polygon", "coordinates": [[[-95.3674934, 29.7598496], [-95.3673111, 29.7600783], [-95.3671852, 29.7600026], [-95.3670965, 29.7601106], [-95.3672804, 29.7602262], [-95.3671571, 29.7603754], [-95.3665135, 29.7599747], [-95.3666368, 29.7598255], [-95.3668102, 29.7599336], [-95.3668964, 29.7598286], [-95.3668643, 29.7598093], [-95.3670463, 29.759581], [-95.3674934, 29.7598496]]]}}, {"id": "82", "type": "Feature", "properties": {"building_id": "581322288", "area_m2": 2066.176550059196}, "geometry": {"type": "Polygon", "coordinates": [[[-95.366055, 29.7563258], [-95.3660369, 29.7562652], [-95.3663977, 29.7557949], [-95.3664691, 29.755836], [-95.3664888, 29.7558101], [-95.36620940000002, 29.7556467], [-95.365743, 29.7562247], [-95.3660042, 29.7563865], [-95.366055, 29.7563258]]]}}, {"id": "83", "type": "Feature", "properties": {"building_id": "698102746", "area_m2": 959.348495287207}, "geometry": {"type": "Polygon", "coordinates": [[[-95.3629236, 29.7585542], [-95.3630019, 29.7584563], [-95.3629255, 29.7584102], [-95.3631013, 29.7581903], [-95.3629098, 29.7580749], [-95.3628238, 29.7581824], [-95.36291660000002, 29.7582383], [-95.3628461, 29.7583264], [-95.362752, 29.7582697], [-95.3626543, 29.758392], [-95.3629236, 29.7585542]]]}}, {"id": "84", "type": "Feature", "properties": {"building_id": "698102747", "area_m2": 714.7677794573178}, "geometry": {"type": "Polygon", "coordinates": [[[-95.3633897, 29.7586813], [-95.36329350000001, 29.7588082], [-95.3629383, 29.758587], [-95.3630345, 29.7584624], [-95.3632466, 29.7585886], [-95.3633897, 29.7586813]]]}}, {"id": "85", "type": "Feature", "properties": {"building_id": "698102748", "area_m2": 1408.947644409376}, "geometry": {"type": "Polygon", "coordinates": [[[-95.36329350000001, 29.7588082], [-95.36312070000001, 29.7590332], [-95.3627197, 29.7587934], [-95.3629096, 29.7585712], [-95.3629383, 29.758587], [-95.36329350000001, 29.7588082]]]}}, {"id": "86", "type": "Feature", "properties": {"building_id": "698102749", "area_m2": 953.4226808208263}, "geometry": {"type": "Polygon", "coordinates": [[[-95.3627197, 29.7587934], [-95.3624659, 29.7586407], [-95.362644, 29.7584046], [-95.3629096, 29.7585712], [-95.3627197, 29.7587934]]]}}, {"id": "87", "type": "Feature", "properties": {"building_id": "698102750", "area_m2": 3100.478386137265}, "geometry": {"type": "Polygon", "coordinates": [[[-95.36476390000001, 29.7573903], [-95.3645318, 29.7576969], [-95.3651874, 29.7580866], [-95.3654152, 29.75778430000001], [-95.36476390000001, 29.7573903]]]}}, {"id": "88", "type": "Feature", "properties": {"building_id": "1207370159", "area_m2": 1975.8224384360503}, "geometry": {"type": "Polygon", "coordinates": [[[-95.3640008, 29.75738709999999], [-95.3642701, 29.757049], [-95.3639015, 29.7568278], [-95.3638248, 29.756924], [-95.3636322, 29.7571658], [-95.363912, 29.7573338], [-95.3640008, 29.75738709999999]]]}}, {"id": "89", "type": "Feature", "properties": {"building_id": "1207370160", "area_m2": 1894.2786448428865}, "geometry": {"type": "Polygon", "coordinates": [[[-95.363918, 29.7568056], [-95.3640979, 29.7565789], [-95.3647572, 29.7569729], [-95.3646666, 29.7570872], [-95.3644024, 29.7569293], [-95.3643132, 29.7570419], [-95.363918, 29.7568056]]]}}, {"id": "90", "type": "Feature", "properties": {"building_id": "1207370162", "area_m2": 484.8178254092545}, "geometry": {"type": "Polygon", "coordinates": [[[-95.3643915, 29.7574342], [-95.3641282, 29.7572737], [-95.36422060000001, 29.7571596], [-95.3644849, 29.7573179], [-95.3643915, 29.7574342]]]}}, {"id": "91", "type": "Feature", "properties": {"building_id": "1287739891", "area_m2": 444.09809400409483}, "geometry": {"type": "Polygon", "coordinates": [[[-95.3620941, 29.7612593], [-95.3620133, 29.7613668], [-95.3617466, 29.7612064], [-95.3618267, 29.7611001], [-95.3620941, 29.7612593]]]}}, {"id": "92", "type": "Feature", "properties": {"building_id": "1300611447", "area_m2": 134.94574983979234}, "geometry": {"type": "Polygon", "coordinates": [[[-95.3624105, 29.7606438], [-95.3622598, 29.7605527], [-95.3622145, 29.7606078], [-95.362365, 29.7607004], [-95.3624105, 29.7606438]]]}}, {"id": "93", "type": "Feature", "properties": {"building_id": "1300611448", "area_m2": 184.72059071356807}, "geometry": {"type": "Polygon", "coordinates": [[[-95.3620133, 29.7613668], [-95.3619785, 29.76141039999999], [-95.3617118, 29.7612501], [-95.3617466, 29.7612064], [-95.3620133, 29.7613668]]]}}, {"id": "94", "type": "Feature", "properties": {"building_id": "1300611449", "area_m2": 2248.4038425269564}, "geometry": {"type": "Polygon", "coordinates": [[[-95.3622335, 29.7613257], [-95.3621032, 29.7612483], [-95.3620941, 29.7612593], [-95.3620133, 29.7613668], [-95.3619785, 29.76141039999999], [-95.3618936, 29.7615256], [-95.36181150000002, 29.7616296], [-95.3621903, 29.7618548], [-95.3624807, 29.7614765], [-95.3622335, 29.7613257]]]}}, {"id": "95", "type": "Feature", "properties": {"building_id": "1300611450", "area_m2": 319.598391209423}, "geometry": {"type": "Polygon", "coordinates": [[[-95.3625966, 29.761356799999987], [-95.3623342, 29.7612003], [-95.3623966, 29.7611219], [-95.3626572, 29.7612817], [-95.3625966, 29.761356799999987]]]}}, {"id": "96", "type": "Feature", "properties": {"building_id": "1300611451", "area_m2": 489.60475390416644}, "geometry": {"type": "Polygon", "coordinates": [[[-95.3621549, 29.7611822], [-95.3622468, 29.7610635], [-95.3619967, 29.7609133], [-95.3619739, 29.7609162], [-95.361893, 29.761025], [-95.3621549, 29.7611822]]]}}, {"id": "97", "type": "Feature", "properties": {"building_id": "1300611452", "area_m2": 327.498523418899}, "geometry": {"type": "Polygon", "coordinates": [[[-95.3620941, 29.7612593], [-95.3621032, 29.7612483], [-95.3621549, 29.7611822], [-95.361893, 29.761025], [-95.3618874, 29.7610216], [-95.3618267, 29.7611001], [-95.3620941, 29.7612593]]]}}, {"id": "98", "type": "Feature", "properties": {"building_id": "1329397847", "area_m2": 544.7378573084138}, "geometry": {"type": "Polygon", "coordinates": [[[-95.3643915, 29.7574342], [-95.36428690000001, 29.7575634], [-95.36402370000002, 29.7574028], [-95.3641282, 29.7572737], [-95.3643915, 29.7574342]]]}}, {"id": "99", "type": "Feature", "properties": {"building_id": "1474489489", "area_m2": 5495.592158974949}, "geometry": {"type": "Polygon", "coordinates": [[[-95.3636416, 29.7616313], [-95.3639266, 29.7612782], [-95.3638971, 29.7612651], [-95.3639351, 29.7612573], [-95.3639023, 29.7611372], [-95.3639452, 29.7611284], [-95.3639169, 29.7610251], [-95.3638707, 29.7610346], [-95.3638368, 29.7609107], [-95.3638084, 29.7609165], [-95.3638233, 29.7608953], [-95.3634466, 29.7606786], [-95.36315, 29.7610528], [-95.3629965, 29.7612449], [-95.3632439, 29.7614034], [-95.3636416, 29.7616313]]]}}, {"id": "100", "type": "Feature", "properties": {"building_id": "1482853653", "area_m2": 687.9364275580737}, "geometry": {"type": "Polygon", "coordinates": [[[-95.366409, 29.7612842], [-95.366274, 29.7614506], [-95.3662379, 29.7614003], [-95.3662027, 29.7613509], [-95.3661649, 29.7613166], [-95.3661136, 29.7612836], [-95.3660962, 29.761275], [-95.3660628, 29.7612586], [-95.36601090000002, 29.7612417], [-95.36597310000002, 29.7612319], [-95.3660742, 29.7610847], [-95.366409, 29.7612842]]]}}, {"id": "101", "type": "Feature", "properties": {"building_id": "1511789579", "area_m2": 2577.99458166821}, "geometry": {"type": "Polygon", "coordinates": [[[-95.3632726, 29.7576446], [-95.3632809, 29.7576594], [-95.36326660000002, 29.757689500000012], [-95.363232, 29.7576695], [-95.3631228, 29.7578196], [-95.3631587, 29.7578404], [-95.3631252, 29.7578712], [-95.3631045, 29.7578746], [-95.3631519, 29.757915], [-95.3633015, 29.758033], [-95.363327, 29.7580493], [-95.3633855, 29.7580863], [-95.3635517, 29.7581701], [-95.3636336, 29.7582066], [-95.3637173, 29.7582322], [-95.3637198, 29.758225], [-95.3637148, 29.758214], [-95.3637333, 29.7581819], [-95.3637711, 29.7582023], [-95.363879, 29.7580694], [-95.3638433, 29.7580429], [-95.3638777, 29.7580174], [-95.363894, 29.7580167], [-95.3638951, 29.7580208], [-95.3639034, 29.7580203], [-95.3639019, 29.7580134], [-95.3636625, 29.7578259], [-95.3632726, 29.7576446]]]}}, {"id": "102", "type": "Feature", "properties": {"building_id": "0a710fc2-6708-4af8-bf14-cceb3c9b2b49", "area_m2": 2942.504144517324}, "geometry": {"type": "Polygon", "coordinates": [[[-95.3686328, 29.7557525], [-95.3692685, 29.7561367], [-95.3694966, 29.7558448], [-95.3688636, 29.7554583], [-95.3686328, 29.7557525]]]}}, {"id": "103", "type": "Feature", "properties": {"building_id": "c3be9c86-ce36-4f15-9125-39984810b8d8", "area_m2": 76.86937119651867}, "geometry": {"type": "Polygon", "coordinates": [[[-95.3679242, 29.7607852], [-95.36782, 29.7607876], [-95.3680066, 29.7608625], [-95.3680172, 29.7608426], [-95.3680158, 29.7607948], [-95.3679517, 29.7607962], [-95.3679242, 29.7607852]]]}}, {"id": "104", "type": "Feature", "properties": {"building_id": "c3be9c86-ce36-4f15-9125-39984810b8d8", "area_m2": 212.30801418682407}, "geometry": {"type": "Polygon", "coordinates": [[[-95.3681558, 29.7608149], [-95.3681564, 29.7608319], [-95.3680614, 29.7607937], [-95.368043, 29.7607942], [-95.3680209, 29.7608357], [-95.3680496, 29.7608472], [-95.3680276, 29.7608885], [-95.3681391, 29.7609333], [-95.3681761, 29.760863799999985], [-95.3681752, 29.7608354], [-95.3681792, 29.7608353], [-95.3682434, 29.7608611], [-95.368274, 29.7608035], [-95.368179, 29.7607654], [-95.3681622, 29.760797], [-95.3682041, 29.7608138], [-95.3681558, 29.7608149]]]}}, {"id": "105", "type": "Feature", "properties": {"building_id": "279048d7-cd5b-4e16-b4b1-9e3114e29d76", "area_m2": 2271.61219074852}, "geometry": {"type": "Polygon", "coordinates": [[[-95.3685604, 29.7606154], [-95.3685628, 29.7606177], [-95.368457, 29.7603647], [-95.3680934, 29.7602257], [-95.3680851, 29.7602421], [-95.3681518, 29.76040150000001], [-95.3681418, 29.7604211], [-95.3680752, 29.7603568], [-95.3680589, 29.760389], [-95.3680184, 29.7604017], [-95.3680017, 29.7603856], [-95.3680857, 29.7605865], [-95.3681784, 29.7605573], [-95.3681798, 29.7605562], [-95.3682614, 29.7606348], [-95.3682932, 29.7606248], [-95.3682676, 29.7606752], [-95.3682795, 29.7607036], [-95.3683067, 29.7606951], [-95.3683245, 29.7607377], [-95.3682873, 29.760811], [-95.3683244, 29.7608252], [-95.3683518, 29.7608037], [-95.368329, 29.7607817], [-95.3683488, 29.7607425], [-95.3685561, 29.7609425], [-95.3687091, 29.7608943], [-95.368675, 29.7608126], [-95.3686367, 29.7607979], [-95.3685604, 29.7606154]]]}}, {"id": "106", "type": "Feature", "properties": {"building_id": "26afa1fd-e9bb-4425-9c2e-2935054476d5", "area_m2": 1057.1564858044856}, "geometry": {"type": "Polygon", "coordinates": [[[-95.3684444, 29.7595787], [-95.3684053, 29.7596327], [-95.3684166, 29.759697599999985], [-95.3687456, 29.7598773], [-95.3687559, 29.7599365], [-95.3688274, 29.7599755], [-95.368959, 29.7597939], [-95.3690558, 29.7597812], [-95.3689527, 29.7597249], [-95.3689262, 29.7597284], [-95.3689177, 29.7596796], [-95.3688784, 29.7596847], [-95.3688815, 29.7597028], [-95.36886, 29.7597325], [-95.3688243, 29.759713], [-95.368831, 29.7597516], [-95.3685008, 29.7595713], [-95.3684444, 29.7595787]]]}}]}