{"type": "FeatureCollection", "features": [{"id": "0", "type": "Feature", "properties": {"building_id": "27306847", "area_m2": 2326.6759259166943}, "geometry": {"type": "Polygon", "coordinates": [[[8.5518995, 47.3724165], [8.5517759, 47.37236450000001], [8.5517925, 47.3723466], [8.5517201, 47.3723169], [8.5517308, 47.3723057], [8.5516989, 47.3722923], [8.5516428, 47.3723218], [8.5516517, 47.372329], [8.5515662, 47.37237480000001], [8.5515386, 47.37235110000001], [8.5515467, 47.3723466], [8.5515397, 47.3723405], [8.551497, 47.3723624], [8.5514262, 47.3723013], [8.5520758, 47.3719669], [8.5521617, 47.3715986], [8.5522804, 47.3716129], [8.5522712, 47.3716404], [8.5523109, 47.3716475], [8.5523027, 47.371682], [8.5523237, 47.3716886], [8.5523062, 47.3717584], [8.552284, 47.3717586], [8.552275, 47.3718033], [8.5523343, 47.3718259], [8.5523829, 47.3718444], [8.5524218, 47.3718063], [8.5525209, 47.3718496], [8.5524844, 47.3718898], [8.5521927, 47.3722107], [8.5521197, 47.3721799], [8.5521043, 47.3722006], [8.5520848, 47.3722212], [8.5520726, 47.372216], [8.5518995, 47.3724165]]]}}, {"id": "1", "type": "Feature", "properties": {"building_id": "27307158", "area_m2": 1563.246451470589}, "geometry": {"type": "Polygon", "coordinates": [[[8.5520823, 47.3726912], [8.5518896, 47.3726119], [8.5525235, 47.37190589999999], [8.5527162, 47.3719852], [8.5520823, 47.3726912]]]}}, {"id": "2", "type": "Feature", "properties": {"building_id": "33806997", "area_m2": 392.17778276559557}, "geometry": {"type": "Polygon", "coordinates": [[[8.5520914, 47.3745426], [8.5519622, 47.3743505], [8.5520201, 47.37433269999999], [8.5520281, 47.3743445], [8.5521224, 47.3743154], [8.5521139, 47.3743027], [8.5521741, 47.3742841], [8.5523032, 47.374476], [8.5522418, 47.3744949], [8.5522352, 47.3744852], [8.5521893, 47.3744994], [8.5521451, 47.374513], [8.5521523, 47.3745238], [8.5520914, 47.3745426]]]}}, {"id": "3", "type": "Feature", "properties": {"building_id": "33806998", "area_m2": 960.530449567159}, "geometry": {"type": "Polygon", "coordinates": [[[8.5535344, 47.3744613], [8.5532126, 47.3742946], [8.5531777, 47.3743255], [8.5531386, 47.3743052], [8.5531176, 47.3742942], [8.5530999, 47.3742851], [8.5530628, 47.3742659], [8.5530959, 47.37423660000001], [8.5530314, 47.3742032], [8.5531875, 47.3740651], [8.5536909, 47.3743274], [8.5536273, 47.3743846], [8.5535344, 47.3744613]]]}}, {"id": "4", "type": "Feature", "properties": {"building_id": "33806999", "area_m2": 717.0591718481385}, "geometry": {"type": "Polygon", "coordinates": [[[8.5529731, 47.3747211], [8.5529682, 47.3747261], [8.5531911, 47.3748389], [8.5532636, 47.3748756], [8.5533059, 47.3748373], [8.5533318, 47.3748504], [8.5533694, 47.3748164], [8.5533424, 47.37480270000001], [8.5533788, 47.3747698], [8.5533991, 47.37478], [8.5535818, 47.3746139], [8.5535371, 47.3745922], [8.5533628, 47.3747503], [8.5532472, 47.3746918], [8.5533906, 47.374562], [8.553298, 47.3745147], [8.5532258, 47.3745777], [8.5531519, 47.3746459], [8.5530914, 47.3746148], [8.553056, 47.3746456], [8.5530294, 47.3746316], [8.5529715, 47.3746821], [8.5530004, 47.3746973], [8.5529731, 47.3747211]]]}}, {"id": "5", "type": "Feature", "properties": {"building_id": "33807000", "area_m2": 488.32235689752537}, "geometry": {"type": "Polygon", "coordinates": [[[8.5539325, 47.3736212], [8.5540685, 47.3734805], [8.5541364, 47.373405], [8.55396, 47.373329799999986], [8.5538963, 47.373400300000014], [8.5538791, 47.373394], [8.5537896, 47.3734897], [8.5538046, 47.3734957], [8.5537539, 47.3735521], [8.5537685, 47.3735808], [8.5539325, 47.3736212]]]}}, {"id": "6", "type": "Feature", "properties": {"building_id": "33807003", "area_m2": 162.74768140018577}, "geometry": {"type": "Polygon", "coordinates": [[[8.5520202, 47.3734477], [8.5520784, 47.373468], [8.5520849, 47.3734581], [8.5521521, 47.3734833], [8.5520533, 47.3736098], [8.5519311, 47.3735663], [8.5520202, 47.3734477]]]}}, {"id": "7", "type": "Feature", "properties": {"building_id": "33818863", "area_m2": 203.92630716996908}, "geometry": {"type": "Polygon", "coordinates": [[[8.5541217, 47.3728185], [8.5542251, 47.3727018], [8.5540747, 47.3726391], [8.553968, 47.3727547], [8.5541217, 47.3728185]]]}}, {"id": "8", "type": "Feature", "properties": {"building_id": "37699716", "area_m2": 1583.9163035837105}, "geometry": {"type": "Polygon", "coordinates": [[[8.5531184, 47.3753212], [8.5532747, 47.3754015], [8.5532669, 47.3754085], [8.5533008, 47.37542590000001], [8.5535965, 47.3755778], [8.5538752, 47.3753289], [8.5533893, 47.3750793], [8.5531184, 47.3753212]]]}}, {"id": "9", "type": "Feature", "properties": {"building_id": "37699717", "area_m2": 725.0173819469727}, "geometry": {"type": "Polygon", "coordinates": [[[8.5538142, 47.3754615], [8.5539846, 47.37555], [8.5536183, 47.37587349999998], [8.553457, 47.3757897], [8.5535466, 47.3757105], [8.5535375, 47.3757058], [8.5536147, 47.3756376], [8.5538142, 47.3754615]]]}}, {"id": "10", "type": "Feature", "properties": {"building_id": "61588658", "area_m2": 307.47875903935477}, "geometry": {"type": "Polygon", "coordinates": [[[8.5525827, 47.3735483], [8.5525095, 47.3736652], [8.5522438, 47.3735889], [8.5523169, 47.373472], [8.5525827, 47.3735483]]]}}, {"id": "11", "type": "Feature", "properties": {"building_id": "61588659", "area_m2": 269.5424955537811}, "geometry": {"type": "Polygon", "coordinates": [[[8.5531546, 47.3728594], [8.5530083, 47.3730194], [8.5528632, 47.3729586], [8.5530095, 47.3727985], [8.5531546, 47.3728594]]]}}, {"id": "12", "type": "Feature", "properties": {"building_id": "104474358", "area_m2": 221.22763281835012}, "geometry": {"type": "Polygon", "coordinates": [[[8.5540108, 47.3741768], [8.5541015, 47.3742179], [8.5540057, 47.3743147], [8.5538177, 47.3742294], [8.5539134, 47.3741326], [8.5540108, 47.3741768]]]}}, {"id": "13", "type": "Feature", "properties": {"building_id": "104474360", "area_m2": 130.76182338347147}, "geometry": {"type": "Polygon", "coordinates": [[[8.5525449, 47.3730055], [8.552647, 47.3728927], [8.5525763, 47.3728628], [8.5524155, 47.3729521], [8.5525449, 47.3730055]]]}}, {"id": "14", "type": "Feature", "properties": {"building_id": "104474365", "area_m2": 859.0908748130015}, "geometry": {"type": "Polygon", "coordinates": [[[8.5523594, 47.3743082], [8.5525368, 47.3743988], [8.5525613, 47.3743769], [8.5526106, 47.374353], [8.5526399, 47.374334], [8.5526577, 47.374315], [8.5526794, 47.3742709], [8.5526626, 47.3742623], [8.5527019, 47.374227], [8.552726, 47.374205400000015], [8.5527493, 47.3742173], [8.5527811, 47.3741887], [8.5528168, 47.3741762], [8.5528589, 47.3741478], [8.5528805, 47.3741202], [8.5528934, 47.3740879], [8.5529281, 47.3740622], [8.5527467, 47.3739646], [8.5527138, 47.3739894], [8.5526755, 47.3740081], [8.5526424, 47.3740271], [8.5526144, 47.3740581], [8.5525985, 47.3740929], [8.5525688, 47.3741196], [8.5525879, 47.3741293], [8.5525627, 47.3741519], [8.5525203, 47.37419], [8.5525017, 47.3741804], [8.5524451, 47.3742012], [8.5524184, 47.3742219], [8.5523967, 47.3742495], [8.5523855, 47.3742848], [8.5523594, 47.3743082]]]}}, {"id": "15", "type": "Feature", "properties": {"building_id": "104474371", "area_m2": 219.28228803485}, "geometry": {"type": "Polygon", "coordinates": [[[8.5522316, 47.3739259], [8.5523901, 47.3738036], [8.5522694, 47.3737319], [8.5521108, 47.3738542], [8.5522316, 47.3739259]]]}}, {"id": "16", "type": "Feature", "properties": {"building_id": "104474381", "area_m2": 210.19577781936246}, "geometry": {"type": "Polygon", "coordinates": [[[8.5519767, 47.3730915], [8.5520422, 47.3730458], [8.5520303, 47.3730377], [8.5520839, 47.3730038], [8.5520946, 47.373011], [8.5521401, 47.3729793], [8.5522577, 47.3730728], [8.5521178, 47.3731533], [8.5519767, 47.3730915]]]}}, {"id": "17", "type": "Feature", "properties": {"building_id": "104474389", "area_m2": 166.1445387165946}, "geometry": {"type": "Polygon", "coordinates": [[[8.5525121, 47.373718], [8.5526643, 47.3737928], [8.5527543, 47.37370889999998], [8.5527043, 47.3736843], [8.5527089, 47.3736801], [8.5526521, 47.3736521], [8.5526464, 47.3736575], [8.552601, 47.3736351], [8.5525121, 47.373718]]]}}, {"id": "18", "type": "Feature", "properties": {"building_id": "104474391", "area_m2": 218.90318019445033}, "geometry": {"type": "Polygon", "coordinates": [[[8.5541998, 47.37412410000001], [8.5541061, 47.3740817], [8.5539817, 47.3740254], [8.5540443, 47.3739574], [8.5542819, 47.3740225], [8.5542867, 47.3740371], [8.5541998, 47.37412410000001]]]}}, {"id": "19", "type": "Feature", "properties": {"building_id": "104474404", "area_m2": 143.6175843468888}, "geometry": {"type": "Polygon", "coordinates": [[[8.5523867, 47.3740204], [8.5524153, 47.3740193], [8.5525128, 47.373925], [8.5524009, 47.3738702], [8.552298, 47.3739685], [8.5523867, 47.3740204]]]}}, {"id": "20", "type": "Feature", "properties": {"building_id": "104474408", "area_m2": 414.60888060775534}, "geometry": {"type": "Polygon", "coordinates": [[[8.5536909, 47.3743274], [8.5537017, 47.3743181], [8.5537777, 47.3743537], [8.5537965, 47.3743501], [8.5538092, 47.3743577], [8.5538085, 47.37436970000001], [8.5538623, 47.37439629999999], [8.5538669, 47.3744091], [8.553616, 47.3746308], [8.5535818, 47.3746139], [8.5535371, 47.3745922], [8.5534875, 47.3745679], [8.55363, 47.3744461], [8.553641, 47.3744514], [8.5536821, 47.37441479999998], [8.5536273, 47.3743846], [8.5536909, 47.3743274]]]}}, {"id": "21", "type": "Feature", "properties": {"building_id": "104474413", "area_m2": 240.9879354177341}, "geometry": {"type": "Polygon", "coordinates": [[[8.5524275, 47.3730199], [8.5525039, 47.3730507], [8.5523716, 47.373202], [8.5523379, 47.37320860000002], [8.5521971, 47.373171], [8.5521907, 47.3731487], [8.5524275, 47.3730199]]]}}, {"id": "22", "type": "Feature", "properties": {"building_id": "104474424", "area_m2": 87.25372589198304}, "geometry": {"type": "Polygon", "coordinates": [[[8.5525018, 47.3737732], [8.552438, 47.3738348], [8.5525513, 47.3738885], [8.552615, 47.3738269], [8.5525018, 47.3737732]]]}}, {"id": "23", "type": "Feature", "properties": {"building_id": "104474428", "area_m2": 211.93749268216905}, "geometry": {"type": "Polygon", "coordinates": [[[8.5520533, 47.3736098], [8.5519786, 47.3737169], [8.5519279, 47.373721799999984], [8.5517858, 47.3736345], [8.5518804, 47.3735579], [8.5519216, 47.3735793], [8.5519311, 47.3735663], [8.5520533, 47.3736098]]]}}, {"id": "24", "type": "Feature", "properties": {"building_id": "123543852", "area_m2": 383.0414702925175}, "geometry": {"type": "Polygon", "coordinates": [[[8.5531246, 47.3726964], [8.5532685, 47.37275549999998], [8.5532934, 47.3727278], [8.5532745, 47.37272], [8.553406, 47.3725734], [8.5534591, 47.3725953], [8.5534482, 47.3726184], [8.5535076, 47.3726428], [8.5535852, 47.3725869], [8.5534893, 47.3725475], [8.5534806, 47.3725571], [8.5534419, 47.3725412], [8.5534514, 47.3725305], [8.5533242, 47.37247819999999], [8.5532998, 47.3725054], [8.5533082, 47.3725089], [8.5532827, 47.3725374], [8.5532729, 47.3725334], [8.5532496, 47.3725593], [8.5532596, 47.3725635], [8.5532072, 47.3726218], [8.5531969, 47.3726176], [8.5531728, 47.3726444], [8.5531807, 47.3726477], [8.5531557, 47.3726756], [8.5531466, 47.3726719], [8.5531246, 47.3726964]]]}}, {"id": "25", "type": "Feature", "properties": {"building_id": "123543853", "area_m2": 272.7028134060414}, "geometry": {"type": "Polygon", "coordinates": [[[8.5530485, 47.3730847], [8.5531538, 47.37298459999999], [8.5533781, 47.3730928], [8.553286, 47.37318039999999], [8.5532146, 47.3731459], [8.5532014, 47.37315850000002], [8.5530485, 47.3730847]]]}}, {"id": "26", "type": "Feature", "properties": {"building_id": "123543858", "area_m2": 342.2804890978477}, "geometry": {"type": "Polygon", "coordinates": [[[8.553595, 47.3733879], [8.553741, 47.3732334], [8.5535609, 47.3731553], [8.5535157, 47.373203], [8.553493, 47.3731932], [8.5534518, 47.3732367], [8.5534727, 47.3732458], [8.553413, 47.3733089], [8.553595, 47.3733879]]]}}, {"id": "27", "type": "Feature", "properties": {"building_id": "123543861", "area_m2": 162.44268299761563}, "geometry": {"type": "Polygon", "coordinates": [[[8.5537182, 47.37265], [8.5537955, 47.37256379999999], [8.5538549, 47.3725882], [8.553951, 47.37262769999999], [8.5538736, 47.372714], [8.553824, 47.3726936], [8.5538137, 47.372705], [8.5537495, 47.3726786], [8.5537599, 47.3726671], [8.5537182, 47.37265]]]}}, {"id": "28", "type": "Feature", "properties": {"building_id": "123543864", "area_m2": 486.1844226793795}, "geometry": {"type": "Polygon", "coordinates": [[[8.5528335, 47.3730114], [8.5529806, 47.3730719], [8.5529609, 47.3730942], [8.5528973, 47.3731681], [8.55287, 47.373201], [8.5528682, 47.373203], [8.5529292, 47.3732258], [8.552865, 47.3733415], [8.5526797, 47.3732729], [8.5526268, 47.3732523], [8.5528335, 47.3730114]]]}}, {"id": "29", "type": "Feature", "properties": {"building_id": "123543869", "area_m2": 175.83483861745694}, "geometry": {"type": "Polygon", "coordinates": [[[8.5535177, 47.3727644], [8.5536214, 47.372658], [8.5536707, 47.3726801], [8.5536535, 47.3726978], [8.5537297, 47.3727319], [8.553702, 47.3727603], [8.5537617, 47.372787], [8.5537195, 47.3728303], [8.5536599, 47.3728036], [8.5536433, 47.3728206], [8.5535177, 47.3727644]]]}}, {"id": "30", "type": "Feature", "properties": {"building_id": "123543871", "area_m2": 223.94181317790841}, "geometry": {"type": "Polygon", "coordinates": [[[8.5536204, 47.3721455], [8.55365, 47.3721121], [8.5536414, 47.3721086], [8.5537254, 47.3720137], [8.5537344, 47.3720173], [8.5537615, 47.3719867], [8.553877, 47.3720335], [8.5538273, 47.3720896], [8.5538372, 47.3720936], [8.5537946, 47.3721418], [8.5537836, 47.3721373], [8.5537351, 47.3721921], [8.5536204, 47.3721455]]]}}, {"id": "31", "type": "Feature", "properties": {"building_id": "123543872", "area_m2": 198.5821681960456}, "geometry": {"type": "Polygon", "coordinates": [[[8.5537665, 47.3731976], [8.5538548, 47.3731062], [8.5536654, 47.3730308], [8.553627, 47.3730711], [8.5535929, 47.3731095], [8.5535816, 47.3731223], [8.5537665, 47.3731976]]]}}, {"id": "32", "type": "Feature", "properties": {"building_id": "123543874", "area_m2": 343.41916504330226}, "geometry": {"type": "Polygon", "coordinates": [[[8.5535025, 47.3735342], [8.5535644, 47.3734163], [8.5533371, 47.3733616], [8.5532451, 47.3733394], [8.5531869, 47.3734357], [8.5532811, 47.3734596], [8.5532697, 47.3734813], [8.5532958, 47.3734876], [8.5532973, 47.3734848], [8.5534292, 47.3735165], [8.5535025, 47.3735342]]]}}, {"id": "33", "type": "Feature", "properties": {"building_id": "123543875", "area_m2": 47.768278008881566}, "geometry": {"type": "Polygon", "coordinates": [[[8.5532884, 47.3732835], [8.553373, 47.3733107], [8.5533371, 47.3733616], [8.5532451, 47.3733394], [8.5532884, 47.3732835]]]}}, {"id": "34", "type": "Feature", "properties": {"building_id": "123543876", "area_m2": 203.47362526842204}, "geometry": {"type": "Polygon", "coordinates": [[[8.5538995, 47.3722037], [8.5539292, 47.3721785], [8.553923, 47.3721752], [8.5540205, 47.3720925], [8.554027, 47.372096099999986], [8.5540615, 47.3720669], [8.5541655, 47.3721232], [8.5540038, 47.3722602], [8.5538995, 47.3722037]]]}}, {"id": "35", "type": "Feature", "properties": {"building_id": "123543877", "area_m2": 411.40049578075383}, "geometry": {"type": "Polygon", "coordinates": [[[8.552865, 47.3733415], [8.5531315, 47.3734148], [8.5532123, 47.3732718], [8.5532058, 47.3732703], [8.5532228, 47.3732394], [8.5531194, 47.373203299999986], [8.5531094, 47.3732223], [8.5530689, 47.3732117], [8.5530542, 47.3732298], [8.552945, 47.3731994], [8.5529292, 47.3732258], [8.552865, 47.3733415]]]}}, {"id": "36", "type": "Feature", "properties": {"building_id": "123543878", "area_m2": 249.02635224266936}, "geometry": {"type": "Polygon", "coordinates": [[[8.5533419, 47.37302659999999], [8.5535391, 47.3728355], [8.5534382, 47.3727877], [8.5533623, 47.3728612], [8.5533481, 47.3728545], [8.5533149, 47.3728867], [8.5533269, 47.3728923], [8.5532387, 47.3729777], [8.5533419, 47.37302659999999]]]}}, {"id": "37", "type": "Feature", "properties": {"building_id": "123543881", "area_m2": 202.36347423741577}, "geometry": {"type": "Polygon", "coordinates": [[[8.5541217, 47.3728185], [8.5540185, 47.3729326], [8.5538648, 47.3728687], [8.553968, 47.3727547], [8.5541217, 47.3728185]]]}}, {"id": "38", "type": "Feature", "properties": {"building_id": "123543884", "area_m2": 437.83923040321395}, "geometry": {"type": "Polygon", "coordinates": [[[8.5533833, 47.37241149999998], [8.5534667, 47.3723188], [8.5535915, 47.3723702], [8.5537136, 47.37227509999999], [8.5537757, 47.3723125], [8.5537882, 47.3723026], [8.55387, 47.3723528], [8.5538203, 47.372393], [8.553807, 47.3723847], [8.5537912, 47.3723963], [8.5537724, 47.3723853], [8.5536157, 47.3725073], [8.5533833, 47.37241149999998]]]}}, {"id": "39", "type": "Feature", "properties": {"building_id": "123543885", "area_m2": 51.85967183820564}, "geometry": {"type": "Polygon", "coordinates": [[[8.5535012, 47.373024], [8.553627, 47.3730711], [8.5535929, 47.3731095], [8.5534733, 47.3730626], [8.5535012, 47.373024]]]}}, {"id": "40", "type": "Feature", "properties": {"building_id": "125384092", "area_m2": 168.73621113331882}, "geometry": {"type": "Polygon", "coordinates": [[[8.5532772, 47.3739706], [8.5534306, 47.3740407], [8.5535226, 47.3739514], [8.553373, 47.3738813], [8.5532772, 47.3739706]]]}}, {"id": "41", "type": "Feature", "properties": {"building_id": "125384113", "area_m2": 302.42369074258687}, "geometry": {"type": "Polygon", "coordinates": [[[8.5538507, 47.3738206], [8.5538919, 47.3737355], [8.5541922, 47.3738053], [8.5541458, 47.3739004], [8.5540617, 47.3738782], [8.5540467, 47.3739057], [8.5538776, 47.3738665], [8.5538939, 47.3738333], [8.5538507, 47.3738206]]]}}, {"id": "42", "type": "Feature", "properties": {"building_id": "125384121", "area_m2": 166.79744287572026}, "geometry": {"type": "Polygon", "coordinates": [[[8.5534306, 47.3740407], [8.5535697, 47.3741056], [8.5536318, 47.3740445], [8.5536675, 47.3740068], [8.5535966, 47.3739744], [8.5535305, 47.3739443], [8.5535226, 47.3739514], [8.5534306, 47.3740407]]]}}, {"id": "43", "type": "Feature", "properties": {"building_id": "125384129", "area_m2": 75.46013021435463}, "geometry": {"type": "Polygon", "coordinates": [[[8.5539126, 47.3740364], [8.5539736, 47.3739698], [8.553876, 47.3739288], [8.5538151, 47.3739953], [8.5539126, 47.3740364]]]}}, {"id": "44", "type": "Feature", "properties": {"building_id": "125384134", "area_m2": 250.29379161366862}, "geometry": {"type": "Polygon", "coordinates": [[[8.552711, 47.3735758], [8.5526834, 47.3735674], [8.5526773, 47.3735624], [8.5526876, 47.3735413], [8.5526653, 47.3735341], [8.5527149, 47.3734494], [8.5529422, 47.3735108], [8.5528748, 47.37362730000001], [8.5528682, 47.373633], [8.5528576, 47.3736335], [8.5527993, 47.3736189], [8.552794, 47.3736151], [8.5527905, 47.3736106], [8.5527946, 47.373601], [8.5527622, 47.3735924], [8.5527632, 47.3735895], [8.552711, 47.3735758]]]}}, {"id": "45", "type": "Feature", "properties": {"building_id": "125384138", "area_m2": 86.99368463290304}, "geometry": {"type": "Polygon", "coordinates": [[[8.5536707, 47.3741491], [8.5537671, 47.3741909], [8.5538266, 47.3741279], [8.5537878, 47.3741111], [8.5538089, 47.3740888], [8.5537512, 47.3740638], [8.5537295, 47.3740869], [8.5536707, 47.3741491]]]}}, {"id": "46", "type": "Feature", "properties": {"building_id": "171440410", "area_m2": 53.08929835052274}, "geometry": {"type": "Polygon", "coordinates": [[[8.5536675, 47.3740068], [8.5536753, 47.3739985], [8.5537728, 47.3740409], [8.5537512, 47.3740638], [8.5537295, 47.3740869], [8.5536318, 47.3740445], [8.5536675, 47.3740068]]]}}, {"id": "47", "type": "Feature", "properties": {"building_id": "276945514", "area_m2": 33.67712934966676}, "geometry": {"type": "Polygon", "coordinates": [[[8.5532884, 47.3732835], [8.5533156, 47.3732448], [8.5534002, 47.373272], [8.553373, 47.3733107], [8.5532884, 47.3732835]]]}}, {"id": "48", "type": "Feature", "properties": {"building_id": "276945527", "area_m2": 108.94338006028964}, "geometry": {"type": "Polygon", "coordinates": [[[8.5537182, 47.37265], [8.553677, 47.3726307], [8.5537596, 47.3725453], [8.5538296, 47.3724908], [8.5539207, 47.372528799999984], [8.5538549, 47.3725882], [8.5537955, 47.37256379999999], [8.5537182, 47.37265]]]}}, {"id": "49", "type": "Feature", "properties": {"building_id": "276945529", "area_m2": 77.61435381842601}, "geometry": {"type": "Polygon", "coordinates": [[[8.5538615, 47.37248850000002], [8.553929, 47.3725203], [8.5540085, 47.3724428], [8.5540212, 47.3724488], [8.5540341, 47.3724362], [8.5540238, 47.3724314], [8.5539538, 47.3723985], [8.5538615, 47.37248850000002]]]}}, {"id": "50", "type": "Feature", "properties": {"building_id": "276945531", "area_m2": 61.623266293402686}, "geometry": {"type": "Polygon", "coordinates": [[[8.5539538, 47.3723985], [8.5540264, 47.3723277], [8.5540964, 47.3723606], [8.5540238, 47.3724314], [8.5539538, 47.3723985]]]}}, {"id": "51", "type": "Feature", "properties": {"building_id": "277071798", "area_m2": 332.59501767873564}, "geometry": {"type": "Polygon", "coordinates": [[[8.5520202, 47.3734477], [8.5520414, 47.3734174], [8.5519282, 47.37339009999999], [8.5520022, 47.3732584], [8.5521437, 47.3732963], [8.5521763, 47.3733123], [8.5522051, 47.3733382], [8.5522166, 47.3733745], [8.5522087, 47.373412], [8.5521521, 47.3734833], [8.5520849, 47.3734581], [8.5520784, 47.373468], [8.5520202, 47.3734477]]]}}, {"id": "52", "type": "Feature", "properties": {"building_id": "277071799", "area_m2": 201.71119939011277}, "geometry": {"type": "Polygon", "coordinates": [[[8.552933, 47.37369790000001], [8.55304, 47.3737456], [8.5530705, 47.3736919], [8.5530893, 47.3736949], [8.5531135, 47.3736521], [8.5530967, 47.3736463], [8.5531459, 47.37356530000001], [8.5530301, 47.3735329], [8.552933, 47.37369790000001]]]}}, {"id": "53", "type": "Feature", "properties": {"building_id": "277071800", "area_m2": 39.61885599704791}, "geometry": {"type": "Polygon", "coordinates": [[[8.5535966, 47.3739744], [8.553644, 47.3739266], [8.5537092, 47.3739582], [8.5536753, 47.3739985], [8.5536675, 47.3740068], [8.5535966, 47.3739744]]]}}, {"id": "54", "type": "Feature", "properties": {"building_id": "277071801", "area_m2": 177.64534678441385}, "geometry": {"type": "Polygon", "coordinates": [[[8.5531459, 47.37356530000001], [8.5531912, 47.3735768], [8.5532401, 47.3735902], [8.5533056, 47.3736094], [8.5533145, 47.3736154], [8.5533237, 47.37362430000001], [8.5533279, 47.3736351], [8.5533262, 47.373655], [8.553318, 47.3736746], [8.553301, 47.3736979], [8.5532745, 47.373724], [8.5531756, 47.3736823], [8.5531856, 47.373672], [8.5531135, 47.3736521], [8.5530967, 47.3736463], [8.5531459, 47.37356530000001]]]}}, {"id": "55", "type": "Feature", "properties": {"building_id": "277071803", "area_m2": 142.33482442942625}, "geometry": {"type": "Polygon", "coordinates": [[[8.55304, 47.3737456], [8.5531895, 47.3738161], [8.5532745, 47.373724], [8.5531756, 47.3736823], [8.5531438, 47.3737171], [8.5530893, 47.3736949], [8.5530705, 47.3736919], [8.55304, 47.3737456]]]}}, {"id": "56", "type": "Feature", "properties": {"building_id": "277071805", "area_m2": 365.5171455969007}, "geometry": {"type": "Polygon", "coordinates": [[[8.5538213, 47.374744], [8.5540728, 47.3748706], [8.5541983, 47.3747609], [8.5539483, 47.3746339], [8.5538213, 47.374744]]]}}, {"id": "57", "type": "Feature", "properties": {"building_id": "277071807", "area_m2": 304.5998726113676}, "geometry": {"type": "Polygon", "coordinates": [[[8.5539248, 47.37500089999999], [8.5541702, 47.37512839999999], [8.5540668, 47.3752212], [8.5538192, 47.3750952], [8.5539248, 47.37500089999999]]]}}, {"id": "58", "type": "Feature", "properties": {"building_id": "277071808", "area_m2": 305.6230065033288}, "geometry": {"type": "Polygon", "coordinates": [[[8.5536794, 47.3748734], [8.5539248, 47.37500089999999], [8.5538192, 47.3750952], [8.5535749, 47.3749669], [8.5536794, 47.3748734]]]}}, {"id": "59", "type": "Feature", "properties": {"building_id": "277071809", "area_m2": 1119.442877574424}, "geometry": {"type": "Polygon", "coordinates": [[[8.5529731, 47.3747211], [8.5530004, 47.3746973], [8.5529715, 47.3746821], [8.5530294, 47.3746316], [8.553056, 47.3746456], [8.5530914, 47.3746148], [8.5530388, 47.3745871], [8.5531158, 47.3745199], [8.5532258, 47.3745777], [8.553298, 47.3745147], [8.5531863, 47.374456], [8.5532225, 47.3744244], [8.5530949, 47.3743573], [8.5530572, 47.3743904], [8.5530471, 47.3743852], [8.5530254, 47.374374], [8.5530207, 47.3743716], [8.5530291, 47.3743638], [8.5529339, 47.3743137], [8.5529211, 47.3743249], [8.5529027, 47.3743152], [8.5528153, 47.3743915], [8.5528385, 47.3744037], [8.5528246, 47.3744158], [8.552918, 47.3744648], [8.552866, 47.3745102], [8.5528944, 47.3745251], [8.5526006, 47.3747816], [8.5527347, 47.374852], [8.5529179, 47.3746921], [8.5529731, 47.3747211]]]}}, {"id": "60", "type": "Feature", "properties": {"building_id": "277957955", "area_m2": 1346.8907572873504}, "geometry": {"type": "Polygon", "coordinates": [[[8.5543754, 47.37610379999999], [8.554538, 47.3760312], [8.5543201, 47.3758074], [8.5539979, 47.3759513], [8.5540512, 47.3760061], [8.5538118, 47.376113], [8.5539777, 47.3762834], [8.5542208, 47.3761749], [8.554213, 47.3761669], [8.554369, 47.3760972], [8.5543754, 47.37610379999999]]]}}, {"id": "61", "type": "Feature", "properties": {"building_id": "488774298", "area_m2": 60.77100626378303}, "geometry": {"type": "Polygon", "coordinates": [[[8.5539251, 47.3745843], [8.5539878, 47.374616], [8.5540697, 47.374542], [8.554007, 47.3745102], [8.5539251, 47.3745843]]]}}, {"id": "62", "type": "Feature", "properties": {"building_id": "497711642", "area_m2": 452.4765242064889}, "geometry": {"type": "Polygon", "coordinates": [[[8.5529281, 47.3740622], [8.5530574, 47.3739459], [8.5531331, 47.3738708], [8.5530035, 47.373810100000014], [8.552882, 47.3738025], [8.5528339, 47.3738905], [8.5527467, 47.3739646], [8.5529281, 47.3740622]]]}}, {"id": "63", "type": "Feature", "properties": {"building_id": "999963897", "area_m2": 3908.7456494537496}, "geometry": {"type": "Polygon", "coordinates": [[[8.5525627, 47.3758322], [8.552681, 47.37591050000001], [8.5526967, 47.3758996], [8.5530906, 47.3761604], [8.553086, 47.3761636], [8.5531172, 47.3761842], [8.5524859, 47.3766215], [8.5524815, 47.3766186], [8.5524762, 47.3766223], [8.5522814, 47.3764933], [8.552286, 47.3764901], [8.5520934, 47.3763626], [8.5520993, 47.3763586], [8.5519477, 47.3762582], [8.5521596, 47.3761114], [8.5525627, 47.3758322]]]}}, {"id": "64", "type": "Feature", "properties": {"building_id": "999963898", "area_m2": 4218.799230303883}, "geometry": {"type": "Polygon", "coordinates": [[[8.5521596, 47.3761114], [8.551927, 47.3759529], [8.5518571, 47.376], [8.5518057, 47.3760346], [8.5517787, 47.3760162], [8.5518301, 47.3759816], [8.5518954, 47.3759376], [8.5516255, 47.3757538], [8.5522187, 47.3753544], [8.5523264, 47.3752818], [8.552856, 47.3756425], [8.5525627, 47.3758322], [8.5521596, 47.3761114]]]}}, {"id": "65", "type": "Feature", "properties": {"building_id": "1138259480", "area_m2": 274.4737142054483}, "geometry": {"type": "Polygon", "coordinates": [[[8.5528335, 47.3748754], [8.5529452, 47.374774399999986], [8.5531528, 47.3748797], [8.5530792, 47.37494619999999], [8.5530411, 47.3749806], [8.5528335, 47.3748754]]]}}, {"id": "66", "type": "Feature", "properties": {"building_id": "1138533787", "area_m2": 300.84810451621684}, "geometry": {"type": "Polygon", "coordinates": [[[8.5538708, 47.3754418], [8.5539509, 47.3753698], [8.5540464, 47.3752839], [8.5541913, 47.3753578], [8.5540158, 47.3755157], [8.5538708, 47.3754418]]]}}, {"id": "67", "type": "Feature", "properties": {"building_id": "1138711743", "area_m2": 22.86622477614928}, "geometry": {"type": "Polygon", "coordinates": [[[8.5531176, 47.3742942], [8.5530254, 47.374374], [8.5530471, 47.3743852], [8.5531386, 47.3743052], [8.5531176, 47.3742942]]]}}, {"id": "68", "type": "Feature", "properties": {"building_id": "276ba714-744c-4877-b741-02ee77a45ac0", "area_m2": 84.6817665696274}, "geometry": {"type": "Polygon", "coordinates": [[[8.5530469, 47.3759674], [8.5531971, 47.3759674], [8.5531971, 47.3760346], [8.5530469, 47.3760346], [8.5530469, 47.3759674]]]}}]}