{"type": "FeatureCollection", "features": [{"id": "0", "type": "Feature", "properties": {"building_id": "5605", "area_m2": 1375.8668071999487}, "geometry": {"type": "Polygon", "coordinates": [[[24.9375782, 60.16661949999999], [24.9378834, 60.16672389999999], [24.9380204, 60.1667708], [24.9383738, 60.166515099999984], [24.938475, 60.1664419], [24.9384826, 60.1664364], [24.9384644, 60.166430199999986], [24.9381689, 60.166329], [24.937947, 60.16625309999998], [24.9379354, 60.1662615], [24.9376981, 60.166433099999985], [24.9374847, 60.1665875], [24.9375782, 60.16661949999999]], [[24.9380198, 60.1664339], [24.9380093, 60.16644149999998], [24.9380613, 60.1664593], [24.938074, 60.1664501], [24.9381297, 60.1664692], [24.9380864, 60.1665005], [24.9380542, 60.1664895], [24.9380219, 60.1665128], [24.9380543, 60.1665239], [24.9379768, 60.16658], [24.9379475, 60.1665699], [24.9378994, 60.16660479999999], [24.9379289, 60.1666149], [24.9378765, 60.1666528], [24.9377978, 60.1666259], [24.9378163, 60.166612499999985], [24.9377221, 60.1665803], [24.9379551, 60.1664118], [24.9380198, 60.1664339]]]}}, {"id": "1", "type": "Feature", "properties": {"building_id": "5606", "area_m2": 1410.3235502757143}, "geometry": {"type": "Polygon", "coordinates": [[[24.9396034, 60.167312399999986], [24.9396395, 60.16728629999999], [24.9400609, 60.166981499999984], [24.9400223, 60.1669683], [24.9397546, 60.16687670000001], [24.9395356, 60.1668018], [24.9395285, 60.1668069], [24.9390781, 60.1671327], [24.9392495, 60.1671913], [24.9394682, 60.1672662], [24.9396034, 60.167312399999986]], [[24.9393813, 60.1671636], [24.9395676, 60.1670314], [24.9397093, 60.1670808], [24.9395231, 60.167213], [24.9393813, 60.1671636]]]}}, {"id": "2", "type": "Feature", "properties": {"building_id": "5608", "area_m2": 1831.783815334292}, "geometry": {"type": "Polygon", "coordinates": [[[24.9412065, 60.1677205], [24.9412695, 60.16767869999999], [24.9414306, 60.1675719], [24.9415453, 60.16749590000001], [24.9409135, 60.1672769], [24.9408767, 60.1672643], [24.9405565, 60.1674809], [24.9404079, 60.1675807], [24.9406037, 60.16764810000002], [24.9405996, 60.1676516], [24.9406485, 60.1676689], [24.9410613, 60.16781469999999], [24.9412065, 60.1677205]], [[24.9408641, 60.1674268], [24.9409437, 60.1673725], [24.9412453, 60.1674819], [24.9411656, 60.16753619999999], [24.9408641, 60.1674268]]]}}, {"id": "3", "type": "Feature", "properties": {"building_id": "9630", "area_m2": 7598.2551177694595}, "geometry": {"type": "Polygon", "coordinates": [[[24.9409866, 60.1697208], [24.940972, 60.1698744], [24.9409535, 60.170070299999985], [24.9409414, 60.1701987], [24.9410736, 60.17020320000001], [24.9412291, 60.1702066], [24.9415496, 60.1702137], [24.9419947, 60.1702234], [24.9424783, 60.170234], [24.9425401, 60.1702353], [24.9425486, 60.170139], [24.9425566, 60.1700492], [24.9425963, 60.1700501], [24.9426243, 60.16973189999998], [24.94265, 60.169433], [24.9426578, 60.169354100000014], [24.9423642, 60.16934770000001], [24.9421615, 60.16934329999997], [24.9421267, 60.1693425], [24.9419061, 60.16933769999998], [24.9412235, 60.169323], [24.9412222, 60.1693382], [24.9412106, 60.1694719], [24.9412085, 60.169496], [24.9412017, 60.1695728], [24.9411919, 60.1696839], [24.9411875, 60.1697249], [24.9409866, 60.1697208]], [[24.9417524, 60.1694351], [24.9417547, 60.1694087], [24.9419026, 60.1694119], [24.9420155, 60.1694143], [24.9420132, 60.16944070000002], [24.9420109, 60.1694671], [24.9417501, 60.1694615], [24.9417524, 60.1694351]], [[24.941646, 60.1694328], [24.941631, 60.1696053], [24.9421042, 60.1696155], [24.9421088, 60.16956319999997], [24.9421247, 60.1695605], [24.9421372, 60.169555], [24.9421443, 60.1695475], [24.942145, 60.16953919999999], [24.9421392, 60.1695314], [24.9421277, 60.1695254], [24.9421124, 60.169522100000016], [24.9421194, 60.169443], [24.942123, 60.169401700000016], [24.9422502, 60.1694043], [24.942248, 60.1694306], [24.942229, 60.169661300000016], [24.9421641, 60.1696598], [24.9421105, 60.169658799999986], [24.9419736, 60.16965610000001], [24.9417132, 60.1696509], [24.9416092, 60.1696489], [24.9416056, 60.169693], [24.9415441, 60.169691499999985], [24.9415394, 60.1696914], [24.9414871, 60.169690299999985], [24.9414475, 60.1696895], [24.9414273, 60.1696891], [24.9414065, 60.16968879999998], [24.9414239, 60.1694998], [24.9414316, 60.1693995], [24.9415209, 60.16940140000001], [24.9416485, 60.16940419999999], [24.941646, 60.1694328]]]}}, {"id": "4", "type": "Feature", "properties": {"building_id": "1689683", "area_m2": 1632.6186152585803}, "geometry": {"type": "Polygon", "coordinates": [[[24.9420376, 60.16662479999999], [24.9421351, 60.1665598], [24.9419173, 60.1664839], [24.9419725, 60.166447], [24.9419817, 60.1664485], [24.9419921, 60.16644929999998], [24.9420024, 60.1664484], [24.9420108, 60.166446], [24.942019, 60.16644269999998], [24.94208, 60.1663994], [24.9421044, 60.166395899999976], [24.9421281, 60.1663963], [24.9421309, 60.166401], [24.9421363, 60.16640550000001], [24.9421427, 60.1664102], [24.9421527, 60.1664139], [24.9421627, 60.166416599999984], [24.9421759, 60.1664183], [24.9421869, 60.1664187], [24.9422079, 60.1664184], [24.9422209, 60.1664259], [24.9422243, 60.1664377], [24.9421715, 60.1664778], [24.9421687, 60.16648189999998], [24.9421683, 60.166486], [24.9421699, 60.16648879999999], [24.9421739, 60.1664936], [24.9422145, 60.1665071], [24.9424563, 60.1663464], [24.9423114, 60.1662945], [24.9421716, 60.16624729999999], [24.9418732, 60.1661423], [24.9417577, 60.1661027], [24.9416673, 60.16607149999999], [24.9416624, 60.16607490000001], [24.9415636, 60.16614579999999], [24.9415416, 60.1661612], [24.9415334, 60.166167], [24.9414091, 60.1662597], [24.941268, 60.1663579], [24.9420376, 60.16662479999999]], [[24.9416617, 60.1662777], [24.9416749, 60.1662743], [24.9416875, 60.16626930000001], [24.9416949, 60.1662641], [24.9416985, 60.1662574], [24.9417089, 60.1662496], [24.9417302, 60.1662572], [24.941771, 60.16627230000001], [24.9417584, 60.1662819], [24.9417566, 60.1662864], [24.9417584, 60.16629189999998], [24.9417626, 60.16629619999998], [24.9417698, 60.1662993], [24.9417776, 60.166301199999985], [24.9417884, 60.1663005], [24.9417978, 60.1662969], [24.9418805, 60.166324899999985], [24.9418913, 60.1663169], [24.9419498, 60.1663375], [24.9419463, 60.16633980000001], [24.9419506, 60.1663415], [24.9419233, 60.166361100000024], [24.9419156, 60.1663607], [24.9419066, 60.16636059999998], [24.9418977, 60.16636139999998], [24.9418909, 60.1663632], [24.9418813, 60.1663675], [24.9418499, 60.1663912], [24.9418484, 60.1663949], [24.941849, 60.1663985], [24.9418507, 60.16640179999999], [24.9418543, 60.1664044], [24.941865, 60.1664081], [24.9417965, 60.1664535], [24.9417708, 60.16645479999998], [24.9416691, 60.1664195], [24.9416468, 60.1664343], [24.9415495, 60.1664007], [24.9415523, 60.16638609999998], [24.9415682, 60.166375500000015], [24.9415749, 60.16637630000001], [24.9415822, 60.1663767], [24.9415897, 60.1663764], [24.9415959, 60.1663754], [24.9416035, 60.1663734], [24.9416103, 60.166371], [24.9416711, 60.1663261], [24.9416763, 60.1663212], [24.9416793, 60.1663152], [24.9416773, 60.1663094], [24.9416681, 60.1663024], [24.9416599, 60.16629729999999], [24.9416459, 60.166292], [24.9416469, 60.166278099999985], [24.9416617, 60.1662777]]]}}, {"id": "5", "type": "Feature", "properties": {"building_id": "1689684", "area_m2": 1771.0693509438865}, "geometry": {"type": "Polygon", "coordinates": [[[24.9414083, 60.16704029999999], [24.941529, 60.1669616], [24.941607, 60.1669111], [24.9408572, 60.1666509], [24.9404372, 60.1669526], [24.941155, 60.1672031], [24.941164, 60.1672064], [24.9414083, 60.16704029999999]], [[24.941116, 60.16679759999999], [24.941099, 60.1668099], [24.9412327, 60.166858], [24.9410091, 60.1670164], [24.9408094, 60.1669474], [24.940886, 60.16689260000001], [24.9409387, 60.16691009999999], [24.9409645, 60.166909], [24.9409875, 60.1668917], [24.9409819, 60.1668827], [24.9409683, 60.1668786], [24.9409927, 60.1668593], [24.9409883, 60.1668437], [24.9410013, 60.1668344], [24.9409893, 60.1668304], [24.9410169, 60.1668113], [24.9409991, 60.1668044], [24.9410468, 60.1667725], [24.941116, 60.16679759999999]]]}}, {"id": "6", "type": "Feature", "properties": {"building_id": "1689685", "area_m2": 1437.499966611592}, "geometry": {"type": "Polygon", "coordinates": [[[24.941607, 60.1669111], [24.9417047, 60.1668468], [24.9419039, 60.1667131], [24.9419421, 60.16668869999999], [24.9420376, 60.16662479999999], [24.941268, 60.1663579], [24.9408572, 60.1666509], [24.941607, 60.1669111]], [[24.9414935, 60.166506], [24.9414957, 60.1665144], [24.941763, 60.166607], [24.9417818, 60.1666051], [24.9418154, 60.1666174], [24.9418268, 60.16664270000001], [24.941793, 60.1666658], [24.9417666, 60.16665710000002], [24.9416256, 60.16675739999999], [24.941625, 60.166761600000015], [24.9416256, 60.1667656], [24.9416298, 60.166769], [24.9416459, 60.1667752], [24.9416226, 60.16679059999996], [24.9416234, 60.1668013], [24.9415886, 60.1668044], [24.9413888, 60.166734], [24.9413734, 60.1667349], [24.94136, 60.16674459999999], [24.9412083, 60.16669120000002], [24.9412009, 60.1666629], [24.9412339, 60.16664], [24.9412523, 60.166646], [24.9412619, 60.166639199999985], [24.9412711, 60.1666392], [24.9413192, 60.1666059], [24.9413184, 60.1666021], [24.9414621, 60.1664955], [24.9414935, 60.166506]]]}}, {"id": "7", "type": "Feature", "properties": {"building_id": "1691478", "area_m2": 1743.673775632242}, "geometry": {"type": "Polygon", "coordinates": [[[24.9399414, 60.1679171], [24.9399865, 60.1679326], [24.9400598, 60.16795779999998], [24.9400952, 60.1679699], [24.9401473, 60.1679878], [24.9405329, 60.16812], [24.9405399, 60.16811580000001], [24.9405649, 60.1681127], [24.940594, 60.168109], [24.9406077, 60.168113], [24.9407221, 60.1680384], [24.9407863, 60.1679965], [24.9409024, 60.1679197], [24.9409976, 60.16785679999999], [24.9410613, 60.16781469999999], [24.9406485, 60.1676689], [24.9405982, 60.1677041], [24.9405493, 60.1676868], [24.9405996, 60.1676516], [24.9406037, 60.16764810000002], [24.9404079, 60.1675807], [24.9403426, 60.16762319999999], [24.9404058, 60.167644299999985], [24.9403815, 60.1676617], [24.9403431, 60.1676478], [24.9403041, 60.16764829999999], [24.9401002, 60.167779399999986], [24.9399185, 60.16790929999998], [24.9399414, 60.1679171]], [[24.9404109, 60.1677324], [24.9406244, 60.1678114], [24.9406244, 60.167819], [24.9406259, 60.167826], [24.9406289, 60.1678308], [24.9404994, 60.16792020000001], [24.940461, 60.1679222], [24.9404994, 60.167895499999986], [24.9404473, 60.167876899999975], [24.9404048, 60.1679056], [24.9403182, 60.1678723], [24.9402408, 60.1678426], [24.9404109, 60.1677324]]]}}, {"id": "8", "type": "Feature", "properties": {"building_id": "3839333", "area_m2": 2340.47914933557}, "geometry": {"type": "Polygon", "coordinates": [[[24.9430633, 60.1693614], [24.9431748, 60.1693642], [24.9432065, 60.169365], [24.9435375, 60.16937320000001], [24.9440789, 60.1693866], [24.9440859, 60.1693203], [24.9441, 60.1693207], [24.9441321, 60.1689413], [24.9440805, 60.1689402], [24.9432099, 60.168922], [24.9430934, 60.1689187], [24.9430452, 60.169361], [24.9430633, 60.1693614]], [[24.9434142, 60.1690892], [24.9437928, 60.1690973], [24.9437737, 60.16932029999999], [24.943395, 60.169312199999986], [24.9434142, 60.1690892]]]}}, {"id": "9", "type": "Feature", "properties": {"building_id": "8033120", "area_m2": 3859.7771988038944}, "geometry": {"type": "Polygon", "coordinates": [[[24.9447717, 60.1698154], [24.9444956, 60.1698084], [24.9444744, 60.1698084], [24.9444736, 60.169802], [24.9444699, 60.1697974], [24.944464, 60.1697933], [24.9444515, 60.1697904], [24.9444407, 60.1697895], [24.9444291, 60.1697902], [24.9444176, 60.169794], [24.9444099, 60.1697989], [24.9444077, 60.1698096], [24.9443866, 60.16980909999998], [24.9442857, 60.16980679999999], [24.9442881, 60.1698043], [24.9439043, 60.1697951], [24.9438172, 60.1697937], [24.9437851, 60.16979359999998], [24.9437838, 60.169786299999984], [24.9437774, 60.169781599999986], [24.943767, 60.1697764], [24.9437553, 60.16977439999999], [24.9437415, 60.16977609999997], [24.9437291, 60.1697792], [24.9437204, 60.169784599999986], [24.943718, 60.1697918], [24.9436953, 60.16979229999998], [24.9436953, 60.169785400000016], [24.943418, 60.1697794], [24.9434198, 60.16978270000001], [24.9434107, 60.1697825], [24.9434073, 60.1698027], [24.9434038, 60.1698228], [24.9433519, 60.1702316], [24.9433862, 60.1702322], [24.9434032, 60.1702326], [24.9434032, 60.1702243], [24.9434407, 60.1702246], [24.9434414, 60.170233299999985], [24.9434997, 60.1702353], [24.9435004, 60.17022860000002], [24.9438646, 60.1702385], [24.9438639, 60.1702556], [24.9439289, 60.170255699999984], [24.9439293, 60.1702649], [24.9439752, 60.1702654], [24.9439762, 60.170256], [24.9439831, 60.1702563], [24.9440485, 60.1702588], [24.9441111, 60.170260299999974], [24.9441197, 60.1702607], [24.94412, 60.1702694], [24.944163, 60.1702705], [24.9441635, 60.1702623], [24.944182, 60.1702625], [24.9442303, 60.17026329999999], [24.9442314, 60.170248899999976], [24.9445891, 60.1702567], [24.9445884, 60.170264399999986], [24.9446412, 60.1702642], [24.9446421, 60.1702583], [24.9446796, 60.1702595], [24.944679, 60.170264799999984], [24.9447086, 60.1702648], [24.9447401, 60.1702653], [24.9447441, 60.1702197], [24.9447539, 60.1702199], [24.9447589, 60.1701626], [24.9447625, 60.1701626], [24.9447637, 60.1701487], [24.9447508, 60.1701484], [24.9447538, 60.1701141], [24.9447574, 60.1701142], [24.9447585, 60.1701021], [24.9447491, 60.1701019], [24.9447638, 60.16993269999998], [24.9447764, 60.169933], [24.9447782, 60.1699128], [24.9447742, 60.1699128], [24.9447772, 60.1698775], [24.9447819, 60.1698776], [24.9447837, 60.169857100000016], [24.9447794, 60.169857], [24.9447813, 60.1698368], [24.9447829, 60.1698156], [24.9447717, 60.1698154]]]}}, {"id": "10", "type": "Feature", "properties": {"building_id": "22337982", "area_m2": 585.0985428228203}, "geometry": {"type": "Polygon", "coordinates": [[[24.9399438, 60.1675941], [24.9399557, 60.16759780000001], [24.9400865, 60.1675036], [24.9401418, 60.1675226], [24.9401868, 60.16749019999999], [24.9401316, 60.1674712], [24.9402459, 60.167389], [24.9402603, 60.1673786], [24.9399754, 60.1672806], [24.9399596, 60.167292], [24.93981, 60.1674008], [24.9396731, 60.167500300000015], [24.9399438, 60.1675941]]]}}, {"id": "11", "type": "Feature", "properties": {"building_id": "22338006", "area_m2": 790.5172265461279}, "geometry": {"type": "Polygon", "coordinates": [[[24.941529, 60.1669616], [24.9415391, 60.16696589999999], [24.9415398, 60.1669699], [24.9415833, 60.1669859], [24.9415927, 60.1669853], [24.9416155, 60.1669686], [24.9417899, 60.1670326], [24.9416983, 60.1670962], [24.9416665, 60.1670857], [24.9416377, 60.1671052], [24.941643, 60.167107], [24.941628, 60.1671177], [24.9419485, 60.1672283], [24.9419825, 60.1672064], [24.9420992, 60.16712919999998], [24.9422378, 60.1670333], [24.9417047, 60.1668468], [24.941607, 60.1669111], [24.941529, 60.1669616]]]}}, {"id": "12", "type": "Feature", "properties": {"building_id": "22338012", "area_m2": 615.5022940871269}, "geometry": {"type": "Polygon", "coordinates": [[[24.9419039, 60.1667131], [24.9417047, 60.1668468], [24.9422378, 60.1670333], [24.9422835, 60.167003199999975], [24.942327, 60.1669746], [24.9424765, 60.16687619999998], [24.9422378, 60.1667935], [24.9421399, 60.1668642], [24.9418777, 60.1667728], [24.9419454, 60.1667291], [24.9419039, 60.1667131]]]}}, {"id": "13", "type": "Feature", "properties": {"building_id": "22338018", "area_m2": 662.8001833131773}, "geometry": {"type": "Polygon", "coordinates": [[[24.9427692, 60.16667980000002], [24.9428035, 60.1666555], [24.9429576, 60.1665525], [24.9429674, 60.166546], [24.942966, 60.1665266], [24.9428817, 60.1664967], [24.9428227, 60.1664757], [24.9427254, 60.1664411], [24.9425967, 60.166395299999984], [24.9425176, 60.1663679], [24.9424563, 60.1663464], [24.9422145, 60.1665071], [24.9422035, 60.1665144], [24.942276, 60.1665419], [24.9423617, 60.1664823], [24.942526, 60.1665403], [24.9425104, 60.1665518], [24.9425716, 60.1665739], [24.9425917, 60.1665622], [24.9426293, 60.16657509999999], [24.9426329, 60.1665917], [24.9425927, 60.1666181], [24.9425904, 60.1666255], [24.9426439, 60.166645199999984], [24.9426527, 60.16663890000002], [24.9427692, 60.16667980000002]]]}}, {"id": "14", "type": "Feature", "properties": {"building_id": "23648033", "area_m2": 2394.269587340645}, "geometry": {"type": "Polygon", "coordinates": [[[24.9409866, 60.1697208], [24.9409127, 60.1697189], [24.9408001, 60.16971619999999], [24.9407113, 60.1697143], [24.9406702, 60.1697132], [24.9404776, 60.1697088], [24.9404012, 60.1697068], [24.940323, 60.1697049], [24.9402669, 60.1697039], [24.940178, 60.169701799999984], [24.9401655, 60.169824], [24.9401567, 60.1699432], [24.9401328, 60.1701798], [24.9401637, 60.17018059999998], [24.9403004, 60.170183799999975], [24.9404362, 60.17018690000001], [24.9405557, 60.1701897], [24.9408948, 60.170197699999974], [24.9409414, 60.1701987], [24.9409535, 60.170070299999985], [24.940972, 60.1698744], [24.9409866, 60.1697208]]]}}, {"id": "15", "type": "Feature", "properties": {"building_id": "28775218", "area_m2": 29.29359844278061}, "geometry": {"type": "Polygon", "coordinates": [[[24.9401043, 60.16673750000001], [24.9401963, 60.1667683], [24.9402441, 60.16673280000001], [24.9401522, 60.166702], [24.9401043, 60.16673750000001]]]}}, {"id": "16", "type": "Feature", "properties": {"building_id": "34079465", "area_m2": 1379.0663301898378}, "geometry": {"type": "Polygon", "coordinates": [[[24.9431599, 60.168264], [24.943146, 60.16840229999998], [24.9431355, 60.1685174], [24.9431287, 60.1685738], [24.9432605, 60.16857730000002], [24.9434026, 60.16858059999998], [24.9434172, 60.168581300000014], [24.9434229, 60.1685071], [24.9439957, 60.1685207], [24.9440113, 60.16835909999998], [24.9439829, 60.1683579], [24.9439872, 60.1683262], [24.944016, 60.1683279], [24.9440217, 60.1682863], [24.9438753, 60.1682823], [24.9434588, 60.168272], [24.9431599, 60.168264]]]}}, {"id": "17", "type": "Feature", "properties": {"building_id": "34079466", "area_m2": 556.0395528029766}, "geometry": {"type": "Polygon", "coordinates": [[[24.9431934, 60.1679328], [24.9431901, 60.167957], [24.9431778, 60.168065], [24.9431621, 60.1682401], [24.9431599, 60.168264], [24.9434588, 60.168272], [24.9434616, 60.1682405], [24.9434286, 60.1682405], [24.9434616, 60.1679412], [24.9434314, 60.16793980000001], [24.9431934, 60.1679328]]]}}, {"id": "18", "type": "Feature", "properties": {"building_id": "34079467", "area_m2": 1647.7636591266198}, "geometry": {"type": "Polygon", "coordinates": [[[24.943931, 60.1677885], [24.9436888, 60.16778220000001], [24.9432081, 60.1677699], [24.9432015, 60.1678461], [24.9431934, 60.1679328], [24.9434314, 60.16793980000001], [24.9434616, 60.1679412], [24.9434286, 60.1682405], [24.9434616, 60.1682405], [24.9434588, 60.168272], [24.9438753, 60.1682823], [24.9439166, 60.167918], [24.943931, 60.1677885]]]}}, {"id": "19", "type": "Feature", "properties": {"building_id": "37264739", "area_m2": 1866.4869129245387}, "geometry": {"type": "Polygon", "coordinates": [[[24.9380053, 60.1669995], [24.9380026, 60.16701410000001], [24.9380101, 60.1670296], [24.9380321, 60.1670413], [24.9380641, 60.1670467], [24.9380979, 60.1670467], [24.9381267, 60.167039899999985], [24.9385142, 60.1671743], [24.9385342, 60.167159699999985], [24.9385636, 60.1671387], [24.9385796, 60.167127], [24.9387089, 60.1671713], [24.9386435, 60.1672186], [24.9386815, 60.167231600000015], [24.9388321, 60.1672831], [24.9390523, 60.1671238], [24.9385552, 60.1669538], [24.9380581, 60.1667837], [24.9379638, 60.16685189999997], [24.9379261, 60.166839], [24.9377498, 60.16696649999999], [24.9375628, 60.1671018], [24.9376218, 60.167122], [24.9378884, 60.1672111], [24.9379503, 60.1671744], [24.9380508, 60.167108], [24.9379019, 60.16705659999999], [24.9379684, 60.16700849999999], [24.937988, 60.1669943], [24.9380053, 60.1669995]]]}}, {"id": "20", "type": "Feature", "properties": {"building_id": "89532281", "area_m2": 237.16088695112927}, "geometry": {"type": "Polygon", "coordinates": [[[24.9409498, 60.1688839], [24.9410251, 60.16895049999998], [24.9411352, 60.1690479], [24.9409805, 60.169091299999984], [24.9410577, 60.1691594], [24.9410701, 60.1691499], [24.9411145, 60.1691376], [24.9411645, 60.169138199999985], [24.9411743, 60.169026], [24.9411875, 60.1688751], [24.9411557, 60.1688726], [24.941001, 60.168868], [24.9409498, 60.1688839]]]}}, {"id": "21", "type": "Feature", "properties": {"building_id": "89532596", "area_m2": 2094.95974107347}, "geometry": {"type": "Polygon", "coordinates": [[[24.9411875, 60.1688751], [24.9411743, 60.169026], [24.9411645, 60.169138199999985], [24.9411557, 60.1692393], [24.9411485, 60.169321400000015], [24.9412235, 60.169323], [24.9419061, 60.16933769999998], [24.9419133, 60.16925569999999], [24.9419221, 60.1691569], [24.9419294, 60.169074], [24.9419321, 60.16904289999998], [24.941933, 60.169033], [24.9419456, 60.1688913], [24.9415689, 60.16888330000001], [24.9411875, 60.1688751]]]}}, {"id": "22", "type": "Feature", "properties": {"building_id": "122595241", "area_m2": 7018.629125586768}, "geometry": {"type": "Polygon", "coordinates": [[[24.9427226, 60.168747899999985], [24.9427374, 60.168612099999976], [24.9427588, 60.1683966], [24.9427805, 60.1681662], [24.9427824, 60.16814609999998], [24.9428193, 60.16775890000001], [24.9426772, 60.1677568], [24.9422251, 60.16774549999999], [24.9419796, 60.1679142], [24.9418492, 60.1680008], [24.9418402, 60.1680068], [24.9415427, 60.1682044], [24.9411165, 60.1684895], [24.9415041, 60.1686317], [24.9416486, 60.1686859], [24.9417054, 60.1686948], [24.9417429, 60.1686848], [24.9417986, 60.1686928], [24.9418529, 60.1687012], [24.9418791, 60.1687222], [24.9419314, 60.16872949999998], [24.9427226, 60.168747899999985]]]}}, {"id": "23", "type": "Feature", "properties": {"building_id": "122595243", "area_m2": 1364.4278513285788}, "geometry": {"type": "Polygon", "coordinates": [[[24.9405225, 60.1689309], [24.9404605, 60.16894819999997], [24.9404672, 60.1689539], [24.9403844, 60.1689757], [24.940428, 60.1690151], [24.9403334, 60.1690424], [24.9403864, 60.1690901], [24.940377, 60.1690945], [24.9404615, 60.1691712], [24.9404755, 60.16916770000001], [24.9405316, 60.1692172], [24.9407034, 60.169169], [24.9407806, 60.1692371], [24.9407338, 60.16924989999998], [24.9407634, 60.1692747], [24.9407932, 60.16929949999999], [24.9408128, 60.169295], [24.940833, 60.169290299999986], [24.9408538, 60.1693093], [24.9408632, 60.1693083], [24.9408692, 60.1693133], [24.9408793, 60.1693163], [24.9408957, 60.1693171], [24.9410946, 60.169259899999986], [24.941102, 60.1691783], [24.9410701, 60.1691499], [24.9410577, 60.1691594], [24.9409805, 60.169091299999984], [24.9411352, 60.1690479], [24.9410251, 60.16895049999998], [24.9409498, 60.1688839], [24.9409398, 60.1688751], [24.9408404, 60.168902899999985], [24.9407951, 60.168862799999985], [24.9407172, 60.16888460000001], [24.9407103, 60.1688785], [24.9406508, 60.1688952], [24.9405854, 60.1689133], [24.9405225, 60.1689309]]]}}, {"id": "24", "type": "Feature", "properties": {"building_id": "123524668", "area_m2": 684.5389292283403}, "geometry": {"type": "Polygon", "coordinates": [[[24.9378493, 60.1676845], [24.9380488, 60.167749600000015], [24.9380974, 60.1677143], [24.9380139, 60.16768579999999], [24.9380251, 60.1676775], [24.9380306, 60.16766620000001], [24.9380326, 60.167651599999985], [24.9380721, 60.16762590000001], [24.938065, 60.1676098], [24.9380797, 60.167599], [24.9382092, 60.16764409999997], [24.9382037, 60.1676506], [24.9382037, 60.16765740000001], [24.9382092, 60.1676627], [24.9382173, 60.167668], [24.938229, 60.1676712], [24.9382437, 60.167671699999985], [24.9382588, 60.16767], [24.9382715, 60.167664399999985], [24.938354, 60.167694099999984], [24.9383585, 60.1676982], [24.9383499, 60.1677045], [24.9383378, 60.167702200000015], [24.9383261, 60.1677042], [24.9383175, 60.1677072], [24.9382497, 60.1677558], [24.9382416, 60.1677558], [24.9382457, 60.16774470000002], [24.9382416, 60.1677354], [24.93823, 60.1677299], [24.9382138, 60.1677264], [24.9381966, 60.1677264], [24.9381824, 60.16772789999999], [24.9381662, 60.1677347], [24.9381546, 60.1677422], [24.9381485, 60.16775], [24.938149, 60.1677576], [24.9381556, 60.1677646], [24.9381647, 60.167768899999984], [24.9381447, 60.1677826], [24.9382784, 60.16782820000002], [24.9382953, 60.1678161], [24.9383316, 60.16778989999999], [24.9383868, 60.1677502], [24.9385649, 60.1676219], [24.9385872, 60.167605899999984], [24.9385742, 60.1676022], [24.9381538, 60.1674635], [24.9379696, 60.1675971], [24.9379138, 60.1676376], [24.9378493, 60.1676845]]]}}, {"id": "25", "type": "Feature", "properties": {"building_id": "123524671", "area_m2": 473.1474956048502}, "geometry": {"type": "Polygon", "coordinates": [[[24.9381538, 60.1674635], [24.9379964, 60.167409899999974], [24.9379661, 60.16739939999997], [24.9378859, 60.1673723], [24.9378728, 60.1673678], [24.9377666, 60.1673317], [24.9377264, 60.167318], [24.9375312, 60.16745969999999], [24.9376769, 60.1675094], [24.9377328, 60.1674688], [24.9378389, 60.167505], [24.9378775, 60.16751809999999], [24.9378928, 60.1675233], [24.9379244, 60.1675341], [24.9378881, 60.1675604], [24.9378793, 60.1675668], [24.9379696, 60.1675971], [24.9381538, 60.1674635]]]}}, {"id": "26", "type": "Feature", "properties": {"building_id": "123525090", "area_m2": 994.9354481804933}, "geometry": {"type": "Polygon", "coordinates": [[[24.9392495, 60.1671913], [24.9389579, 60.1674023], [24.9387865, 60.1673436], [24.9386507, 60.167440699999986], [24.9386205, 60.1674637], [24.9386309, 60.1674672], [24.9391458, 60.1676434], [24.9392039, 60.1676014], [24.9393118, 60.1675234], [24.9391766, 60.1674771], [24.9394194, 60.167301400000014], [24.9394682, 60.1672662], [24.9392495, 60.1671913]]]}}, {"id": "27", "type": "Feature", "properties": {"building_id": "123525345", "area_m2": 894.5815570371451}, "geometry": {"type": "Polygon", "coordinates": [[[24.9394269, 60.166312300000016], [24.9393059, 60.1662703], [24.9392676, 60.1662975], [24.9391231, 60.1662473], [24.9390845, 60.1662748], [24.9390037, 60.16624669999999], [24.9389428, 60.16629009999998], [24.9388819, 60.1663334], [24.9389627, 60.1663615], [24.9389191, 60.1663925], [24.9390652, 60.16644329999997], [24.9393048, 60.1665266], [24.9394474, 60.1665762], [24.939491, 60.1665452], [24.9395369, 60.16656119999997], [24.9395704, 60.1665728], [24.9396922, 60.1664861], [24.9396128, 60.16645850000001], [24.9396515, 60.166431], [24.9395095, 60.1663816], [24.9395478, 60.16635429999999], [24.9394269, 60.166312300000016]]]}}, {"id": "28", "type": "Feature", "properties": {"building_id": "123525580", "area_m2": 902.5799352798836}, "geometry": {"type": "Polygon", "coordinates": [[[24.9382784, 60.16782820000002], [24.9384886, 60.1679002], [24.9387224, 60.1679808], [24.9390245, 60.1677633], [24.9390321, 60.167757799999976], [24.9385872, 60.167605899999984], [24.9385649, 60.1676219], [24.9383868, 60.1677502], [24.9383316, 60.16778989999999], [24.9382953, 60.1678161], [24.9382784, 60.16782820000002]]]}}, {"id": "29", "type": "Feature", "properties": {"building_id": "123534569", "area_m2": 2477.304288239053}, "geometry": {"type": "Polygon", "coordinates": [[[24.9423462, 60.1660541], [24.9423965, 60.16607169999998], [24.9425139, 60.16611229999999], [24.9427312, 60.1661877], [24.9428081, 60.1662144], [24.9429091, 60.1662497], [24.9429433, 60.166261400000025], [24.9429886, 60.166277], [24.9430468, 60.1662975], [24.943152, 60.166334], [24.9432405, 60.1663639], [24.9433183, 60.1663068], [24.9434037, 60.1662454], [24.9434071, 60.1662065], [24.9434165, 60.1660938], [24.9434291, 60.1659304], [24.9429417, 60.16576459999999], [24.9428078, 60.1657188], [24.942712, 60.1657888], [24.9425874, 60.16587850000001], [24.9424808, 60.1659552], [24.9423462, 60.1660541]]]}}, {"id": "30", "type": "Feature", "properties": {"building_id": "123534687", "area_m2": 902.1468949290114}, "geometry": {"type": "Polygon", "coordinates": [[[24.9427692, 60.16667980000002], [24.9426527, 60.16663890000002], [24.9426439, 60.166645199999984], [24.9425904, 60.1666255], [24.9425578, 60.1666471], [24.942276, 60.1665419], [24.9422035, 60.1665144], [24.9421351, 60.1665598], [24.9420376, 60.16662479999999], [24.9419421, 60.16668869999999], [24.9422378, 60.1667935], [24.9424765, 60.16687619999998], [24.9424899, 60.166867199999984], [24.9427692, 60.16667980000002]]]}}, {"id": "31", "type": "Feature", "properties": {"building_id": "123534689", "area_m2": 769.7069871549717}, "geometry": {"type": "Polygon", "coordinates": [[[24.941628, 60.1671177], [24.9415679, 60.1671607], [24.941436, 60.1671146], [24.9414077, 60.167105], [24.941466, 60.1670623], [24.9414083, 60.16704029999999], [24.941164, 60.1672064], [24.9412231, 60.16722669999998], [24.9414635, 60.16731119999997], [24.9416462, 60.1673734], [24.9417014, 60.16739219999999], [24.9418201, 60.167313499999985], [24.9419485, 60.1672283], [24.941628, 60.1671177]]]}}, {"id": "32", "type": "Feature", "properties": {"building_id": "123549920", "area_m2": 791.3931842925482}, "geometry": {"type": "Polygon", "coordinates": [[[24.943971, 60.168779399999984], [24.9439819, 60.1686713], [24.9439528, 60.1686713], [24.9439206, 60.1686703], [24.9439215, 60.1686511], [24.9438885, 60.1686504], [24.943889, 60.1686452], [24.9438776, 60.1686452], [24.9438781, 60.1686346], [24.9438139, 60.1686332], [24.9438134, 60.1686429], [24.9434069, 60.168634199999985], [24.9434111, 60.1685884], [24.9434017, 60.1685879], [24.9434026, 60.16858059999998], [24.9432605, 60.16857730000002], [24.9431287, 60.1685738], [24.9431238, 60.16862259999997], [24.943114, 60.16872149999998], [24.9431103, 60.16875839999999], [24.943243, 60.1687626], [24.943942, 60.1687788], [24.943971, 60.168779399999984]]]}}, {"id": "33", "type": "Feature", "properties": {"building_id": "123760887", "area_m2": 993.2782691415939}, "geometry": {"type": "Polygon", "coordinates": [[[24.9405565, 60.1674809], [24.9408767, 60.1672643], [24.9408733, 60.167263099999985], [24.9407568, 60.16722269999999], [24.9405546, 60.1671526], [24.9403178, 60.1670706], [24.9402651, 60.1670734], [24.940258, 60.1670789], [24.9401472, 60.1671567], [24.94013, 60.1671688], [24.9399754, 60.1672806], [24.9402603, 60.1673786], [24.9402747, 60.167382], [24.940337, 60.1673392], [24.940335, 60.1673337], [24.9402935, 60.16731979999999], [24.9403269, 60.1672972], [24.9403076, 60.1672876], [24.9403337, 60.1672723], [24.9403339, 60.167268], [24.9403818, 60.1672667], [24.9404129, 60.167276399999984], [24.9404076, 60.1672801], [24.9404068, 60.1672872], [24.940467, 60.1673086], [24.9404835, 60.1673084], [24.9404916, 60.167304], [24.9406092, 60.167344], [24.9405854, 60.16736249999999], [24.9405756, 60.1673594], [24.9405672, 60.1673596], [24.9404524, 60.1674438], [24.9405565, 60.1674809]]]}}, {"id": "34", "type": "Feature", "properties": {"building_id": "123760888", "area_m2": 881.3173295234595}, "geometry": {"type": "Polygon", "coordinates": [[[24.9399185, 60.16790929999998], [24.9401002, 60.167779399999986], [24.9398572, 60.16769530000001], [24.9398779, 60.1676805], [24.9398408, 60.1676677], [24.9399438, 60.1675941], [24.9396731, 60.167500300000015], [24.939648, 60.1675182], [24.9394291, 60.1676746], [24.9393676, 60.1677186], [24.9393775, 60.167722], [24.9394627, 60.1677515], [24.9395896, 60.16779539999999], [24.9396436, 60.1678141], [24.9398277, 60.1678779], [24.9399185, 60.16790929999998]]]}}, {"id": "35", "type": "Feature", "properties": {"building_id": "147242597", "area_m2": 24.88422920119787}, "geometry": {"type": "Polygon", "coordinates": [[[24.9434843, 60.1664484], [24.9435044, 60.1664555], [24.943601, 60.1663876], [24.9435809, 60.1663805], [24.9435615, 60.1663737], [24.9434649, 60.166441599999985], [24.9434843, 60.1664484]]]}}, {"id": "36", "type": "Feature", "properties": {"building_id": "224711434", "area_m2": 2071.1423525045566}, "geometry": {"type": "Polygon", "coordinates": [[[24.9404012, 60.1697068], [24.9404038, 60.16968520000001], [24.9404233, 60.1696855], [24.9404414, 60.1694907], [24.9404078, 60.1694664], [24.9404065, 60.1694428], [24.9404494, 60.16943070000002], [24.9404622, 60.1694305], [24.9404779, 60.16942549999999], [24.940488, 60.1694197], [24.9404964, 60.169412], [24.9404997, 60.1694033], [24.9404991, 60.1693928], [24.9404954, 60.1693872], [24.9404893, 60.1693828], [24.9404833, 60.16937930000002], [24.9404676, 60.1693735], [24.9404525, 60.169370599999986], [24.9404555, 60.1693044], [24.9403445, 60.1693019], [24.9403184, 60.1693013], [24.9402858, 60.1693006], [24.9402299, 60.16929929999998], [24.9401719, 60.1692976], [24.9401202, 60.1692959], [24.9400674, 60.1692948], [24.940059, 60.1692852], [24.9400353, 60.1692852], [24.9400133, 60.1692852], [24.9400036, 60.169293199999984], [24.9399757, 60.169293], [24.939961, 60.1692941], [24.9399461, 60.1692962], [24.9399317, 60.1692993], [24.9399169, 60.1693036], [24.9398999, 60.1693105], [24.9398847, 60.1693195], [24.9398742, 60.1693156], [24.9397928, 60.16936840000001], [24.9397711, 60.169384], [24.9395849, 60.169503200000015], [24.9394566, 60.1695825], [24.9393126, 60.1696801], [24.9399046, 60.16969549999999], [24.9401391, 60.16970089999999], [24.940178, 60.169701799999984], [24.9402669, 60.1697039], [24.940323, 60.1697049], [24.9404012, 60.1697068]]]}}, {"id": "37", "type": "Feature", "properties": {"building_id": "226074289", "area_m2": 49.591897643724785}, "geometry": {"type": "Polygon", "coordinates": [[[24.943418, 60.1697794], [24.9436953, 60.169785400000016], [24.9436963, 60.1697586], [24.943613, 60.1697564], [24.9435133, 60.1697538], [24.943414, 60.1697512], [24.9434059, 60.1697526], [24.9434014, 60.1697546], [24.9433982, 60.1697581], [24.9433965, 60.1697615], [24.9433974, 60.169765], [24.9433999, 60.1697681], [24.9434036, 60.1697714], [24.9434106, 60.1697734], [24.9434166, 60.1697747], [24.943418, 60.1697794]]]}}, {"id": "38", "type": "Feature", "properties": {"building_id": "289193766", "area_m2": 1968.7390710471998}, "geometry": {"type": "Polygon", "coordinates": [[[24.9430452, 60.169361], [24.9430326, 60.1694774], [24.9430231, 60.1695685], [24.9430215, 60.1695838], [24.9430156, 60.16964049999998], [24.943186, 60.1696444], [24.9433618, 60.16964850000002], [24.9433903, 60.1696494], [24.9433894, 60.1696569], [24.9433851, 60.16969189999999], [24.9434655, 60.1696942], [24.9434894, 60.1696949], [24.9440452, 60.169711], [24.9440496, 60.1696685], [24.9440517, 60.1696488], [24.944062, 60.1695492], [24.9440623, 60.1695461], [24.9440637, 60.1695321], [24.9440789, 60.1693866], [24.9435375, 60.16937320000001], [24.9432065, 60.169365], [24.9431748, 60.1693642], [24.9430633, 60.1693614], [24.9430452, 60.169361]]]}}, {"id": "39", "type": "Feature", "properties": {"building_id": "289767497", "area_m2": 5174.360145271347}, "geometry": {"type": "Polygon", "coordinates": [[[24.9378081, 60.1689956], [24.9377995, 60.1690025], [24.9377445, 60.16903910000001], [24.9374439, 60.16923950000002], [24.9373357, 60.1693116], [24.9373201, 60.1693219], [24.9373138, 60.169326200000015], [24.9373557, 60.16934169999998], [24.9373674, 60.169346], [24.9373539, 60.1693545], [24.937492, 60.1693993], [24.9374906, 60.169408699999984], [24.9375131, 60.169408699999984], [24.9375369, 60.1694218], [24.9375404, 60.1694237], [24.9375798, 60.16942730000002], [24.9375919, 60.169447900000016], [24.9376211, 60.1694564], [24.9376288, 60.1694587], [24.9376583, 60.1694564], [24.9376767, 60.169462], [24.9376807, 60.1694784], [24.9377168, 60.16948820000002], [24.9377307, 60.1695002], [24.9377381, 60.1694942], [24.9378758, 60.169546], [24.9380729, 60.1696202], [24.9380775, 60.16962190000001], [24.9381916, 60.169665], [24.9382465, 60.16968569999998], [24.9382925, 60.1696539], [24.9384039, 60.169576699999986], [24.9384117, 60.1695784], [24.9384094, 60.1695614], [24.9384267, 60.1695563], [24.9384437, 60.1695366], [24.9384723, 60.1695336], [24.9384817, 60.1695231], [24.9385045, 60.169518], [24.938498, 60.16951409999998], [24.9387526, 60.1693446], [24.9387659, 60.1693487], [24.9387732, 60.1693225], [24.9388081, 60.1693139], [24.9388159, 60.169312], [24.9388219, 60.1692995], [24.9388447, 60.16929539999999], [24.9388667, 60.1692774], [24.9388663, 60.1692631], [24.9388777, 60.1692542], [24.9389025, 60.1692501], [24.9388988, 60.169235], [24.9389254, 60.169220299999985], [24.9389562, 60.169218], [24.9389638, 60.169205], [24.9389822, 60.1691987], [24.939003, 60.16919149999998], [24.9389917, 60.16918709999999], [24.939031, 60.1691621], [24.9390223, 60.1691586], [24.9390344, 60.1691499], [24.93899, 60.1691331], [24.938806, 60.169063499999986], [24.9388364, 60.1690387], [24.938697, 60.1689929], [24.9384326, 60.1688977], [24.9384068, 60.1688993], [24.9383942, 60.1689063], [24.9382338, 60.16884669999999], [24.9381758, 60.16882539999999], [24.9381567, 60.1688184], [24.9381475, 60.168815], [24.9381005, 60.1687973], [24.9380833, 60.1688081], [24.937984, 60.1687716], [24.9378906, 60.16883019999999], [24.9378042, 60.168797599999984], [24.9376909, 60.1688717], [24.9377466, 60.168893099999984], [24.9377051, 60.1689211], [24.9376657, 60.168946], [24.9378081, 60.1689956]]]}}, {"id": "40", "type": "Feature", "properties": {"building_id": "289767498", "area_m2": 1042.1921034305415}, "geometry": {"type": "Polygon", "coordinates": [[[24.9387689, 60.168152], [24.9385393, 60.16831689999997], [24.9391353, 60.16852509999999], [24.9392537, 60.1684429], [24.9394161, 60.168326], [24.9394237, 60.1683197], [24.9393639, 60.1683], [24.9393199, 60.168283899999984], [24.9392759, 60.1683156], [24.9389824, 60.1682132], [24.9390067, 60.1681946], [24.9390234, 60.16818270000001], [24.9388236, 60.1681119], [24.9388044, 60.1681259], [24.9387689, 60.168152]]]}}, {"id": "41", "type": "Feature", "properties": {"building_id": "289767499", "area_m2": 1273.1473766140446}, "geometry": {"type": "Polygon", "coordinates": [[[24.9374211, 60.16821919999999], [24.9375968, 60.1682836], [24.937639, 60.1682975], [24.9376729, 60.1682736], [24.9376855, 60.1682738], [24.9377007, 60.1682728], [24.9377144, 60.16826859999998], [24.9377215, 60.168262300000016], [24.9377245, 60.1682565], [24.937724, 60.168249399999986], [24.9377169, 60.1682424], [24.9377498, 60.1682172], [24.9377802, 60.1682104], [24.9378206, 60.168222], [24.9377953, 60.1682434], [24.9377963, 60.168248700000014], [24.9380048, 60.1683257], [24.9381561, 60.1682175], [24.9379597, 60.1681454], [24.9379492, 60.1681447], [24.9379406, 60.168148], [24.9379314, 60.1681558], [24.9379077, 60.1681472], [24.9378981, 60.1681241], [24.9379102, 60.168119799999985], [24.9379183, 60.16811350000002], [24.9379218, 60.1681042], [24.9379188, 60.1680951], [24.9379729, 60.1680559], [24.9380175, 60.1680581], [24.938103, 60.16808859999998], [24.938103, 60.1680946], [24.938106, 60.16810139999998], [24.9381136, 60.168107], [24.9381242, 60.1681107], [24.9381384, 60.168112], [24.9381516, 60.1681112], [24.9381581, 60.1681092], [24.9382588, 60.1681445], [24.9384196, 60.16803379999999], [24.9379147, 60.167863], [24.9374421, 60.168204], [24.9374211, 60.16821919999999]]]}}, {"id": "42", "type": "Feature", "properties": {"building_id": "289767502", "area_m2": 1575.5007048537389}, "geometry": {"type": "Polygon", "coordinates": [[[24.93701, 60.1687332], [24.9370697, 60.16869470000001], [24.937094, 60.1686778], [24.9371775, 60.1687083], [24.9375778, 60.1688548], [24.937705, 60.1687716], [24.9377998, 60.1686884], [24.937817, 60.1686786], [24.9378718, 60.168647600000014], [24.9379457, 60.1686142], [24.9380443, 60.1685497], [24.937993, 60.1685307], [24.9379249, 60.1685054], [24.9379329, 60.1684996], [24.9379562, 60.1684828], [24.9377594, 60.1684075], [24.9377447, 60.1684151], [24.9376967, 60.1683967], [24.9375646, 60.1684918], [24.9376779, 60.1685336], [24.9375011, 60.168655], [24.9373956, 60.1686166], [24.9374534, 60.1685773], [24.9373612, 60.168544199999985], [24.9373754, 60.16853509999998], [24.9371163, 60.1684415], [24.9369532, 60.1685612], [24.9368697, 60.1686224], [24.9368457, 60.1686388], [24.9368137, 60.1686587], [24.93701, 60.1687332]]]}}, {"id": "43", "type": "Feature", "properties": {"building_id": "289767503", "area_m2": 3213.7237246818513}, "geometry": {"type": "Polygon", "coordinates": [[[24.9387689, 60.168152], [24.9387355, 60.1681399], [24.9385163, 60.16806709999999], [24.9384196, 60.16803379999999], [24.9382588, 60.1681445], [24.9385083, 60.16822650000001], [24.9384238, 60.1682827], [24.9383018, 60.1682401], [24.9382669, 60.1682587], [24.9381561, 60.1682175], [24.9380048, 60.1683257], [24.9379977, 60.168332200000016], [24.9380655, 60.1683942], [24.9380109, 60.16843290000001], [24.9380774, 60.1684566], [24.938126, 60.1684739], [24.9381763, 60.1684919], [24.938212, 60.1685046], [24.9382625, 60.1685229], [24.9384698, 60.1685982], [24.9387547, 60.1687088], [24.9387631, 60.1687031], [24.9389047, 60.1687545], [24.9388964, 60.1687602], [24.9391251, 60.1688472], [24.9391503, 60.1688565], [24.9393799, 60.168939], [24.939467, 60.1688725], [24.9395183, 60.16883919999998], [24.939566, 60.1688082], [24.9396928, 60.1687259], [24.9394591, 60.1686424], [24.9391353, 60.16852509999999], [24.9385393, 60.16831689999997], [24.9387689, 60.168152]]]}}, {"id": "44", "type": "Feature", "properties": {"building_id": "289767504", "area_m2": 1481.4483285062872}, "geometry": {"type": "Polygon", "coordinates": [[[24.9392207, 60.1678269], [24.9392053, 60.1678375], [24.9388236, 60.1681119], [24.9390234, 60.16818270000001], [24.9390371, 60.1681865], [24.9390801, 60.1681563], [24.9393943, 60.168264], [24.9393963, 60.1682754], [24.9393639, 60.1683], [24.9394237, 60.1683197], [24.9395906, 60.16820340000001], [24.9397973, 60.1680549], [24.9398214, 60.1680372], [24.9392207, 60.1678269]]]}}, {"id": "45", "type": "Feature", "properties": {"building_id": "289767507", "area_m2": 1572.048865590864}, "geometry": {"type": "Polygon", "coordinates": [[[24.9390501, 60.169155], [24.9391435, 60.1690945], [24.9392751, 60.169005], [24.939344, 60.1689622], [24.9393799, 60.168939], [24.9391503, 60.1688565], [24.9391251, 60.1688472], [24.9391023, 60.1688624], [24.9390138, 60.1689212], [24.9389733, 60.16892279999997], [24.9386464, 60.16880039999999], [24.9386495, 60.1687793], [24.9387061, 60.16874129999997], [24.9387377, 60.168720200000024], [24.9387547, 60.1687088], [24.9384698, 60.1685982], [24.9384474, 60.168613], [24.9384228, 60.1686293], [24.938445, 60.1686368], [24.9384145, 60.1686551], [24.9383955, 60.1686665], [24.9383317, 60.16864489999998], [24.9383145, 60.168656], [24.9382943, 60.168669], [24.9381005, 60.1687973], [24.9381475, 60.168815], [24.9381567, 60.1688184], [24.9381758, 60.16882539999999], [24.9382338, 60.16884669999999], [24.9383942, 60.1689063], [24.9384068, 60.1688993], [24.9384326, 60.1688977], [24.938697, 60.1689929], [24.9388364, 60.1690387], [24.938806, 60.169063499999986], [24.93899, 60.1691331], [24.9390344, 60.1691499], [24.9390501, 60.169155]]]}}, {"id": "46", "type": "Feature", "properties": {"building_id": "580268893", "area_m2": 1966.2237106101493}, "geometry": {"type": "Polygon", "coordinates": [[[24.9439957, 60.1685207], [24.9439875, 60.1686174], [24.9439819, 60.1686713], [24.943971, 60.168779399999984], [24.9446959, 60.1687976], [24.9447151, 60.1686362], [24.9447175, 60.1686128], [24.9447375, 60.168411], [24.9446435, 60.1684098], [24.9446511, 60.1683387], [24.9442502, 60.168329], [24.9442459, 60.168365], [24.9440113, 60.16835909999998], [24.9439957, 60.1685207]]]}}, {"id": "47", "type": "Feature", "properties": {"building_id": "675858720", "area_m2": 1326.3093772507125}, "geometry": {"type": "Polygon", "coordinates": [[[24.9412235, 60.169323], [24.9411485, 60.169321400000015], [24.9411557, 60.1692393], [24.9411645, 60.169138199999985], [24.9411145, 60.1691376], [24.9410701, 60.1691499], [24.941102, 60.1691783], [24.9410946, 60.169259899999986], [24.9408957, 60.1693171], [24.9408793, 60.1693163], [24.9408692, 60.1693133], [24.9408632, 60.1693083], [24.9408625, 60.1693286], [24.9408097, 60.1693279], [24.9407972, 60.1693278], [24.9407276, 60.169327], [24.9407248, 60.1693588], [24.9407204, 60.16940959999999], [24.9407143, 60.1694677], [24.940713, 60.1694871], [24.9406925, 60.169692699999985], [24.9407113, 60.1696932], [24.9407116, 60.1697042], [24.9407113, 60.1697143], [24.9408001, 60.16971619999999], [24.9409127, 60.1697189], [24.9409866, 60.1697208], [24.9411875, 60.1697249], [24.9411919, 60.1696839], [24.9412017, 60.1695728], [24.9412085, 60.169496], [24.9412106, 60.1694719], [24.9412222, 60.1693382], [24.9412235, 60.169323]]]}}, {"id": "48", "type": "Feature", "properties": {"building_id": "675858725", "area_m2": 2090.1520383229636}, "geometry": {"type": "Polygon", "coordinates": [[[24.9423642, 60.16934770000001], [24.9426578, 60.169354100000014], [24.9426649, 60.16930270000001], [24.9426711, 60.1692343], [24.9426809, 60.16915519999997], [24.9427039, 60.168908299999984], [24.9425974, 60.168906], [24.9419456, 60.1688913], [24.941933, 60.169033], [24.9419321, 60.16904289999998], [24.9419294, 60.169074], [24.9419221, 60.1691569], [24.9419133, 60.16925569999999], [24.9419061, 60.16933769999998], [24.9421267, 60.1693425], [24.9421615, 60.16934329999997], [24.9423642, 60.16934770000001]]]}}, {"id": "49", "type": "Feature", "properties": {"building_id": "756316407", "area_m2": 309.3860456723502}, "geometry": {"type": "Polygon", "coordinates": [[[24.9387631, 60.1687031], [24.9387547, 60.1687088], [24.9387377, 60.168720200000024], [24.9387061, 60.16874129999997], [24.9386495, 60.1687793], [24.9386464, 60.16880039999999], [24.9389733, 60.16892279999997], [24.9390138, 60.1689212], [24.9391023, 60.1688624], [24.9391251, 60.1688472], [24.9388964, 60.1687602], [24.9389047, 60.1687545], [24.9387631, 60.1687031]]]}}, {"id": "50", "type": "Feature", "properties": {"building_id": "912809887", "area_m2": 158.03052121490492}, "geometry": {"type": "Polygon", "coordinates": [[[24.9385219, 60.1673646], [24.9386488, 60.167279], [24.9388038, 60.1673311], [24.9387865, 60.1673436], [24.9386507, 60.167440699999986], [24.9384898, 60.167388], [24.9385219, 60.1673646]]]}}, {"id": "51", "type": "Feature", "properties": {"building_id": "1032045753", "area_m2": 86.76013151885971}, "geometry": {"type": "Polygon", "coordinates": [[[24.9439043, 60.1697951], [24.9439066, 60.169766299999985], [24.9443909, 60.1697786], [24.9443866, 60.16980909999998], [24.9442857, 60.16980679999999], [24.9442881, 60.1698043], [24.9439043, 60.1697951]]]}}, {"id": "52", "type": "Feature", "properties": {"building_id": "1062155966", "area_m2": 343.8296525912273}, "geometry": {"type": "Polygon", "coordinates": [[[24.9416926, 60.1690372], [24.941674, 60.16925049999998], [24.9414137, 60.16924490000002], [24.9414324, 60.1690316], [24.9416926, 60.1690372]]]}}, {"id": "53", "type": "Feature", "properties": {"building_id": "1235179609", "area_m2": 3406.9137340674247}, "geometry": {"type": "Polygon", "coordinates": [[[24.9442123, 60.16760829999998], [24.94414, 60.16760629999999], [24.9438811, 60.167599], [24.9438441, 60.1675989], [24.9438429, 60.16760890000001], [24.9436454, 60.1676044], [24.9434904, 60.16760080000001], [24.9432422, 60.1675951], [24.9431364, 60.1675926], [24.9431409, 60.1675383], [24.9430367, 60.167520199999984], [24.9429497, 60.1674892], [24.9428841, 60.167446799999986], [24.9428539, 60.1674015], [24.9428504, 60.1673489], [24.9428987, 60.1672904], [24.9429831, 60.1672473], [24.9430631, 60.1672282], [24.9431705, 60.16722269999999], [24.9431778, 60.167145199999986], [24.9432524, 60.1671466], [24.9438941, 60.1671587], [24.9438929, 60.167169499999986], [24.9442547, 60.167178], [24.9442477, 60.1672489], [24.9442465, 60.1672606], [24.9442331, 60.1673965], [24.9442217, 60.16751269999999], [24.9442192, 60.1675378], [24.9442123, 60.16760829999998]]]}}, {"id": "54", "type": "Feature", "properties": {"building_id": "1360651371", "area_m2": 2488.9658686635216}, "geometry": {"type": "Polygon", "coordinates": [[[24.9399046, 60.16969549999999], [24.9399009, 60.1697584], [24.9399264, 60.1697546], [24.9401058, 60.1698209], [24.9401295, 60.1698216], [24.9401655, 60.169824], [24.9401567, 60.1699432], [24.9401328, 60.1701798], [24.9401016, 60.1701794], [24.9399192, 60.1701756], [24.9397174, 60.17017149999999], [24.9390641, 60.169926], [24.9390738, 60.1699185], [24.9390527, 60.1698765], [24.9390383, 60.169870299999985], [24.9392308, 60.16973559999998], [24.9393126, 60.1696801], [24.9399046, 60.16969549999999]]]}}, {"id": "55", "type": "Feature", "properties": {"building_id": "1363282714", "area_m2": 2608.9847509447795}, "geometry": {"type": "Polygon", "coordinates": [[[24.9396928, 60.1687259], [24.9403901, 60.1682643], [24.9404132, 60.1682482], [24.9400753, 60.1681277], [24.9398214, 60.1680372], [24.9395906, 60.16820340000001], [24.9394237, 60.1683197], [24.9394161, 60.168326], [24.9392537, 60.1684429], [24.9391353, 60.16852509999999], [24.9394591, 60.1686424], [24.9396928, 60.1687259]]]}}, {"id": "56", "type": "Feature", "properties": {"building_id": "ba822d1a-9869-4bcc-8b55-8459bd883854", "area_m2": 3799.473274478143}, "geometry": {"type": "Polygon", "coordinates": [[[24.9380809, 60.16594], [24.9380225, 60.1659819], [24.9379642, 60.1660237], [24.9379058, 60.1660655], [24.9369613, 60.1657392], [24.9368354, 60.165695699999986], [24.9370145, 60.1655673], [24.9373166, 60.1656715], [24.9378377, 60.16529709999999], [24.9375365, 60.1651933], [24.9377066, 60.16507139999999], [24.9382457, 60.1652571], [24.938016, 60.1654217], [24.9379254, 60.1654869], [24.9382039, 60.1655828], [24.9382943, 60.1655179], [24.9383393, 60.1655334], [24.9385479, 60.1656055], [24.9384895, 60.1656473], [24.9384312, 60.1656891], [24.9383728, 60.165731], [24.9383144, 60.1657728], [24.938256, 60.16581459999998], [24.9381977, 60.1658564], [24.9381393, 60.1658982], [24.9380809, 60.16594]], [[24.9380371, 60.16571839999999], [24.9377511, 60.1656191], [24.9375772, 60.1657431], [24.9378632, 60.1658424], [24.9380371, 60.16571839999999]]]}}, {"id": "57", "type": "Feature", "properties": {"building_id": "df30b14e-dfcf-4b6b-ab90-5536753bebba", "area_m2": 1111.8858599253026}, "geometry": {"type": "Polygon", "coordinates": [[[24.9423651, 60.1655668], [24.9422236, 60.1656651], [24.9421487, 60.1657237], [24.9421325, 60.1657352], [24.941928, 60.1658828], [24.9419248, 60.16588509999998], [24.9419328, 60.16588789999999], [24.9419355, 60.1658975], [24.9419387, 60.16590809999999], [24.9419341, 60.1659109], [24.9421158, 60.1659742], [24.9422668, 60.1660267], [24.9423462, 60.1660541], [24.9424808, 60.1659552], [24.9425874, 60.16587850000001], [24.942712, 60.1657888], [24.9428078, 60.1657188], [24.9423651, 60.1655668]], [[24.9424589, 60.1656861], [24.9425129, 60.1657051], [24.942509, 60.1657084], [24.9425087, 60.16571050000001], [24.9425481, 60.1657247], [24.9425596, 60.1657232], [24.9425668, 60.1657182], [24.9425833, 60.1657236], [24.9426537, 60.1657487], [24.9426097, 60.165779], [24.9425514, 60.1657586], [24.942541, 60.16575970000001], [24.9424117, 60.1658531], [24.9424111, 60.1658585], [24.9424293, 60.1658645], [24.9424167, 60.165872499999985], [24.9424051, 60.1658811], [24.9424051, 60.16589290000001], [24.9424387, 60.165903], [24.9424045, 60.1659266], [24.9423611, 60.1659101], [24.9423671, 60.1659062], [24.9423669, 60.1659003], [24.9422738, 60.1658688], [24.9422448, 60.1658588], [24.9422354, 60.1658638], [24.9422053, 60.1658538], [24.9422624, 60.1658127], [24.9423014, 60.165784], [24.9423147, 60.16577449999998], [24.9423307, 60.16577430000001], [24.9423461, 60.1657723], [24.9423601, 60.1657686], [24.9423721, 60.1657633], [24.9423813, 60.1657568], [24.9423872, 60.1657495], [24.9423895, 60.1657416], [24.942388, 60.1657337], [24.942383, 60.165726200000016], [24.9423964, 60.16571680000001], [24.942439, 60.1656861], [24.9424589, 60.1656861]]]}}, {"id": "58", "type": "Feature", "properties": {"building_id": "4955ae07-3d0e-432c-944e-a76d529e343b", "area_m2": 2325.088070375057}, "geometry": {"type": "Polygon", "coordinates": [[[24.9441699, 60.1682377], [24.9443494, 60.1682426], [24.9444886, 60.1682464], [24.9444872, 60.1682623], [24.9444986, 60.16826910000001], [24.9445566, 60.16827030000001], [24.9445699, 60.1682644], [24.9445699, 60.1682595], [24.9446874, 60.1682626], [24.9447252, 60.1679039], [24.9447384, 60.16780780000001], [24.9441196, 60.167793], [24.9440132, 60.1677905], [24.943931, 60.1677885], [24.9439166, 60.167918], [24.9438753, 60.1682823], [24.9440217, 60.1682863], [24.9441638, 60.1682903], [24.9441699, 60.1682377]]]}}]}