{"type": "FeatureCollection", "features": [{"id": "0", "type": "Feature", "properties": {"building_id": "1547962", "area_m2": 2380.2555713509205}, "geometry": {"type": "Polygon", "coordinates": [[[-122.40500530000001, 37.7867226], [-122.40497419999998, 37.7867265], [-122.40496129999998, 37.7867283], [-122.40495490000002, 37.7867283], [-122.4049502, 37.786725699999984], [-122.40494710000002, 37.7867227], [-122.404945, 37.786718], [-122.40494470000002, 37.7867125], [-122.4049473, 37.7867066], [-122.40495, 37.786702], [-122.4049539, 37.7866975], [-122.4049595, 37.78669259999999], [-122.40576989999998, 37.7860599], [-122.4058403, 37.7864125], [-122.40586109999998, 37.7864101], [-122.4058664, 37.7864482], [-122.4059521, 37.7864371], [-122.4059881, 37.7866041], [-122.40500530000001, 37.7867226]], [[-122.40578210000001, 37.7865154], [-122.4057465, 37.7863321], [-122.40570130000002, 37.7862961], [-122.40538249999999, 37.7865514], [-122.40540520000002, 37.7865698], [-122.40578210000001, 37.7865154]]]}}, {"id": "1", "type": "Feature", "properties": {"building_id": "1547963", "area_m2": 2587.7983721341147}, "geometry": {"type": "Polygon", "coordinates": [[[-122.4072569, 37.785481], [-122.4072198, 37.7852958], [-122.40719640000002, 37.7851649], [-122.40703809999998, 37.7850468], [-122.40741309999999, 37.7847524], [-122.4074304, 37.7847638], [-122.4074318, 37.78474940000001], [-122.407438, 37.7847319], [-122.4074453, 37.784723], [-122.40745920000002, 37.7847144], [-122.4074753, 37.7847061], [-122.4074963, 37.784703], [-122.40753039999998, 37.7847037], [-122.407552, 37.78471050000001], [-122.4075674, 37.78472], [-122.40757680000002, 37.7847315], [-122.40758580000002, 37.7847437], [-122.40758970000002, 37.7847575], [-122.40759060000002, 37.7847724], [-122.4075863, 37.78479], [-122.40758250000002, 37.7847991], [-122.407599, 37.7847986], [-122.40772929999999, 37.7854185], [-122.4072569, 37.785481]], [[-122.4074445, 37.7849072], [-122.4072986, 37.7850157], [-122.40735870000002, 37.7853142], [-122.40753039999998, 37.7852938], [-122.4074445, 37.7849072]]]}}, {"id": "2", "type": "Feature", "properties": {"building_id": "4669301", "area_m2": 615.4842458682624}, "geometry": {"type": "Polygon", "coordinates": [[[-122.406454, 37.7855883], [-122.406449, 37.785595], [-122.406443, 37.7855985], [-122.4064368, 37.78560130000001], [-122.4064289, 37.785603], [-122.40641960000002, 37.7856033], [-122.40641009999999, 37.7856021], [-122.40640110000001, 37.7855985], [-122.4063931, 37.7855934], [-122.4063871, 37.7855867], [-122.40638330000002, 37.7855789], [-122.4063816, 37.7855705], [-122.4063829, 37.7855616], [-122.40638759999999, 37.7855551], [-122.40639410000001, 37.7855496], [-122.4064021, 37.7855453], [-122.40641159999998, 37.7855429], [-122.4064201, 37.7855413], [-122.406427, 37.7855409], [-122.4067401, 37.7852816], [-122.40679739999999, 37.7855453], [-122.4067605, 37.7855504], [-122.4067565, 37.7855587], [-122.4064775, 37.7855938], [-122.40647, 37.7855871], [-122.406454, 37.7855883]]]}}, {"id": "3", "type": "Feature", "properties": {"building_id": "32863429", "area_m2": 1477.6674311118386}, "geometry": {"type": "Polygon", "coordinates": [[[-122.40850369999998, 37.7891436], [-122.408428, 37.7887676], [-122.408235, 37.7887919], [-122.40802780000001, 37.788818], [-122.4080331, 37.7888441], [-122.4080426, 37.78889150000001], [-122.40805990000001, 37.7889772], [-122.40808690000001, 37.7889738], [-122.4081011, 37.7890446], [-122.4080813, 37.7890471], [-122.40808840000001, 37.7890826], [-122.40811069999998, 37.7891931], [-122.40850369999998, 37.7891436]]]}}, {"id": "4", "type": "Feature", "properties": {"building_id": "32863494", "area_m2": 1160.259196552521}, "geometry": {"type": "Polygon", "coordinates": [[[-122.4074362, 37.7892863], [-122.40711849999998, 37.7893265], [-122.4071063, 37.7892663], [-122.4070446, 37.7889617], [-122.40736230000002, 37.788922], [-122.40736620000001, 37.7889414], [-122.4074362, 37.7892863]]]}}, {"id": "5", "type": "Feature", "properties": {"building_id": "32863589", "area_m2": 2110.592513706065}, "geometry": {"type": "Polygon", "coordinates": [[[-122.408428, 37.7887676], [-122.4083781, 37.7884916], [-122.4083597, 37.7884404], [-122.40834610000002, 37.7884256], [-122.4083234, 37.7884138], [-122.408288, 37.7884048], [-122.4082293, 37.78841209999999], [-122.4078127, 37.7884649], [-122.4077864, 37.78847889999999], [-122.4078588, 37.788839], [-122.40802780000001, 37.788818], [-122.408235, 37.7887919], [-122.408428, 37.7887676]]]}}, {"id": "6", "type": "Feature", "properties": {"building_id": "32863633", "area_m2": 8416.820044896136}, "geometry": {"type": "Polygon", "coordinates": [[[-122.4065412, 37.78672679999998], [-122.4070054, 37.7866661], [-122.4076637, 37.7865799], [-122.40770559999999, 37.7867798], [-122.40771969999999, 37.786847], [-122.4077409, 37.7869484], [-122.4077622, 37.7869456], [-122.4077904, 37.787079], [-122.4078379, 37.7873181], [-122.4066962, 37.7874665], [-122.4065412, 37.78672679999998]]]}}, {"id": "7", "type": "Feature", "properties": {"building_id": "32863657", "area_m2": 2837.8867974767572}, "geometry": {"type": "Polygon", "coordinates": [[[-122.4064026, 37.7871154], [-122.4063226, 37.7867568], [-122.4055657, 37.7868498], [-122.4056056, 37.787052899999985], [-122.4056838, 37.7870433], [-122.40569530000002, 37.7871016], [-122.4055075, 37.7871247], [-122.40552820000002, 37.7872327], [-122.40604070000002, 37.7871621], [-122.4064026, 37.7871154]]]}}, {"id": "8", "type": "Feature", "properties": {"building_id": "32946683", "area_m2": 648.4820755353842}, "geometry": {"type": "Polygon", "coordinates": [[[-122.4053644, 37.7870894], [-122.4050652, 37.7871254], [-122.4050235, 37.7869086], [-122.4053228, 37.7868726], [-122.4053644, 37.7870894]]]}}, {"id": "9", "type": "Feature", "properties": {"building_id": "32946698", "area_m2": 908.1183057864347}, "geometry": {"type": "Polygon", "coordinates": [[[-122.4062853, 37.7865648], [-122.40621959999999, 37.786254], [-122.4059447, 37.7862904], [-122.4059631, 37.7863776], [-122.40594080000001, 37.7863805], [-122.4059881, 37.7866041], [-122.4062853, 37.7865648]]]}}, {"id": "10", "type": "Feature", "properties": {"building_id": "32946758", "area_m2": 347.6434921784286}, "geometry": {"type": "Polygon", "coordinates": [[[-122.40822430000001, 37.7853738], [-122.4079583, 37.7854064], [-122.4079323, 37.7852762], [-122.4081986, 37.785243], [-122.40822430000001, 37.7853738]]]}}, {"id": "11", "type": "Feature", "properties": {"building_id": "32946761", "area_m2": 314.0530488722612}, "geometry": {"type": "Polygon", "coordinates": [[[-122.4081986, 37.785243], [-122.4081759, 37.7851275], [-122.408174, 37.7851173], [-122.40810589999998, 37.7851253], [-122.4081112, 37.7851494], [-122.40802570000001, 37.7851601], [-122.40802080000002, 37.7851354], [-122.4079111, 37.7851483], [-122.4079323, 37.7852762], [-122.4081986, 37.785243]]]}}, {"id": "12", "type": "Feature", "properties": {"building_id": "32946763", "area_m2": 982.7106295510507}, "geometry": {"type": "Polygon", "coordinates": [[[-122.40855970000001, 37.7853326], [-122.4084987, 37.7850225], [-122.4083738, 37.7850379], [-122.40837850000001, 37.7850617], [-122.4082839, 37.7850733], [-122.40827989999998, 37.7850529], [-122.408216, 37.7850608], [-122.40822790000001, 37.7851211], [-122.4081759, 37.7851275], [-122.4081986, 37.785243], [-122.40822430000001, 37.7853738], [-122.40838, 37.7853547], [-122.4084049, 37.7853517], [-122.4084334, 37.78534819999999], [-122.40855970000001, 37.7853326]]]}}, {"id": "13", "type": "Feature", "properties": {"building_id": "32946764", "area_m2": 392.38481893668336}, "geometry": {"type": "Polygon", "coordinates": [[[-122.4083312, 37.7856591], [-122.4083067, 37.7855375], [-122.4079848, 37.7855782], [-122.4080096, 37.7857], [-122.4083312, 37.7856591]]]}}, {"id": "14", "type": "Feature", "properties": {"building_id": "33571523", "area_m2": 3476.01874893889}, "geometry": {"type": "Polygon", "coordinates": [[[-122.410848, 37.7865641], [-122.41077339999998, 37.7861943], [-122.41001940000001, 37.7862831], [-122.4099349, 37.7862958], [-122.40989129999998, 37.78631819999998], [-122.409863, 37.7863584], [-122.4098578, 37.7864094], [-122.4098766, 37.7864953], [-122.4099046, 37.7866321], [-122.40991859999998, 37.7866814], [-122.4103907, 37.7866233], [-122.41074660000001, 37.7865795], [-122.410848, 37.7865641]]]}}, {"id": "15", "type": "Feature", "properties": {"building_id": "33617520", "area_m2": 3173.8705714865428}, "geometry": {"type": "Polygon", "coordinates": [[[-122.4073153, 37.7864176], [-122.40724530000001, 37.7860651], [-122.4073529, 37.7860517], [-122.4073855, 37.786048], [-122.4073727, 37.785982], [-122.40734130000001, 37.7858327], [-122.4073093, 37.78566820000001], [-122.4072267, 37.7856797], [-122.4068086, 37.7857316], [-122.40687320000002, 37.78605670000001], [-122.4068827, 37.7861046], [-122.40689589999998, 37.7861711], [-122.40695390000002, 37.7864625], [-122.40721350000001, 37.7864302], [-122.4073153, 37.7864176]]]}}, {"id": "16", "type": "Feature", "properties": {"building_id": "35024363", "area_m2": 751.744794497184}, "geometry": {"type": "Polygon", "coordinates": [[[-122.41105029999999, 37.7875137], [-122.4107903, 37.7875457], [-122.4108116, 37.7876536], [-122.41083969999998, 37.7876501], [-122.410861, 37.787758], [-122.4108308, 37.7877617], [-122.410855, 37.7878846], [-122.41111680000002, 37.7878525], [-122.41109550000002, 37.7877403], [-122.41101120000002, 37.7877507], [-122.4109872, 37.787629], [-122.41107159999999, 37.7876186], [-122.41105029999999, 37.7875137]]]}}, {"id": "17", "type": "Feature", "properties": {"building_id": "35024369", "area_m2": 678.5423692875585}, "geometry": {"type": "Polygon", "coordinates": [[[-122.4105659, 37.7875643], [-122.4107896, 37.7875377], [-122.4107903, 37.7875457], [-122.4108116, 37.7876536], [-122.4107742, 37.787658], [-122.4107948, 37.78776579999999], [-122.4108308, 37.7877617], [-122.410855, 37.7878846], [-122.4106334, 37.7879118], [-122.4106093, 37.78778539999998], [-122.41065390000001, 37.7877801], [-122.41063140000001, 37.787662], [-122.41058489999999, 37.7876675], [-122.4105659, 37.7875643]]]}}, {"id": "18", "type": "Feature", "properties": {"building_id": "35024370", "area_m2": 975.4005569502582}, "geometry": {"type": "Polygon", "coordinates": [[[-122.4105905, 37.7876979], [-122.4106093, 37.78778539999998], [-122.4106334, 37.7879118], [-122.4101807, 37.7879671], [-122.4101394, 37.7877497], [-122.4105905, 37.7876979]]]}}, {"id": "19", "type": "Feature", "properties": {"building_id": "35024371", "area_m2": 429.25808650649253}, "geometry": {"type": "Polygon", "coordinates": [[[-122.41011389999998, 37.7876119], [-122.41008290000002, 37.7874431], [-122.41033790000002, 37.78741389999998], [-122.4103689, 37.7875826], [-122.41011389999998, 37.7876119]]]}}, {"id": "20", "type": "Feature", "properties": {"building_id": "35024376", "area_m2": 821.5878721466944}, "geometry": {"type": "Polygon", "coordinates": [[[-122.41056150000001, 37.7875408], [-122.41053410000002, 37.7873916], [-122.4105242, 37.7873455], [-122.4104918, 37.7871793], [-122.4107385, 37.7871477], [-122.4107618, 37.7872614], [-122.4106603, 37.7872739], [-122.4106688, 37.7873174], [-122.4107708, 37.787305], [-122.4107833, 37.7873661], [-122.41078779999998, 37.7873881], [-122.41068579999998, 37.7874005], [-122.4106924, 37.7874348], [-122.4107948, 37.7874223], [-122.4108062, 37.7874777], [-122.4108134, 37.7875101], [-122.41056150000001, 37.7875408]]]}}, {"id": "21", "type": "Feature", "properties": {"building_id": "35024377", "area_m2": 373.1345667884549}, "geometry": {"type": "Polygon", "coordinates": [[[-122.41026780000001, 37.7872073], [-122.4104918, 37.7871793], [-122.4105242, 37.7873455], [-122.4103003, 37.787374], [-122.41026780000001, 37.7872073]]]}}, {"id": "22", "type": "Feature", "properties": {"building_id": "35024380", "area_m2": 404.54040827857636}, "geometry": {"type": "Polygon", "coordinates": [[[-122.4100577, 37.7874036], [-122.4100252, 37.7872368], [-122.41026780000001, 37.7872073], [-122.4103003, 37.787374], [-122.4100745, 37.78740149999999], [-122.4100577, 37.7874036]]]}}, {"id": "23", "type": "Feature", "properties": {"building_id": "35024381", "area_m2": 1829.6312655441304}, "geometry": {"type": "Polygon", "coordinates": [[[-122.4081732, 37.7865233], [-122.40824790000002, 37.7869005], [-122.4085806, 37.7868577], [-122.40873079999999, 37.7868382], [-122.40872530000001, 37.7867997], [-122.408656, 37.7864608], [-122.4081732, 37.7865233]]]}}, {"id": "24", "type": "Feature", "properties": {"building_id": "35024383", "area_m2": 577.3252751756278}, "geometry": {"type": "Polygon", "coordinates": [[[-122.4088949, 37.786778], [-122.40872530000001, 37.7867997], [-122.408656, 37.7864608], [-122.40882559999999, 37.78643910000001], [-122.4088274, 37.7864475], [-122.4088643, 37.7866245], [-122.40888250000002, 37.78671749999999], [-122.4088949, 37.786778]]]}}, {"id": "25", "type": "Feature", "properties": {"building_id": "35024385", "area_m2": 787.2209951573564}, "geometry": {"type": "Polygon", "coordinates": [[[-122.40827290000001, 37.7870238], [-122.40832129999998, 37.7872594], [-122.4086546, 37.7872166], [-122.4086062, 37.7869811], [-122.40827290000001, 37.7870238]]]}}, {"id": "26", "type": "Feature", "properties": {"building_id": "35024386", "area_m2": 1836.8739337994216}, "geometry": {"type": "Polygon", "coordinates": [[[-122.40881839999999, 37.7871957], [-122.40874510000002, 37.7868395], [-122.408902, 37.7868196], [-122.40903619999999, 37.7868025], [-122.40920450000002, 37.7867811], [-122.409217, 37.7868427], [-122.409225, 37.7868821], [-122.4093142, 37.7868707], [-122.40932410000002, 37.786919], [-122.40929930000001, 37.7869222], [-122.4093256, 37.787051], [-122.4093507, 37.7870478], [-122.40936689999998, 37.7871264], [-122.40881839999999, 37.7871957]]]}}, {"id": "27", "type": "Feature", "properties": {"building_id": "35024388", "area_m2": 697.827412726894}, "geometry": {"type": "Polygon", "coordinates": [[[-122.4096717, 37.7866646], [-122.4096069, 37.78633880000001], [-122.409393, 37.7863654], [-122.4094577, 37.7866912], [-122.4096717, 37.7866646]]]}}, {"id": "28", "type": "Feature", "properties": {"building_id": "35024390", "area_m2": 474.925016445567}, "geometry": {"type": "Polygon", "coordinates": [[[-122.40812020000001, 37.7862554], [-122.4080999, 37.7861352], [-122.408203, 37.7861229], [-122.40820549999998, 37.7861364], [-122.4084513, 37.7861058], [-122.4084651, 37.7860899], [-122.40853, 37.7860811], [-122.40854740000002, 37.7860775], [-122.4085721, 37.7862015], [-122.408474, 37.7862132], [-122.40847180000002, 37.7861993], [-122.4082285, 37.7862281], [-122.40823140000002, 37.7862421], [-122.40812020000001, 37.7862554]]]}}, {"id": "29", "type": "Feature", "properties": {"building_id": "35024391", "area_m2": 590.2482963264443}, "geometry": {"type": "Polygon", "coordinates": [[[-122.4086118, 37.7862544], [-122.4086002, 37.7861981], [-122.4085914, 37.7861554], [-122.4086106, 37.7861529], [-122.4085801, 37.786004], [-122.4085596, 37.7859988], [-122.4085455, 37.7859359], [-122.4085979, 37.785929], [-122.40861949999999, 37.7859451], [-122.408655, 37.78594180000001], [-122.4086627, 37.7859208], [-122.4087522, 37.7859093], [-122.4087723, 37.786007300000016], [-122.4086903, 37.7860178], [-122.4086934, 37.7860329], [-122.4087786, 37.786022], [-122.40879860000001, 37.7861196], [-122.4087115, 37.7861307], [-122.4087159, 37.786152], [-122.4087978, 37.7861415], [-122.4088157, 37.7862283], [-122.4086118, 37.7862544]]]}}, {"id": "30", "type": "Feature", "properties": {"building_id": "35024394", "area_m2": 791.448499900392}, "geometry": {"type": "Polygon", "coordinates": [[[-122.4080625, 37.7859526], [-122.4080999, 37.7861352], [-122.408203, 37.7861229], [-122.4084651, 37.7860899], [-122.40853, 37.7860811], [-122.40849280000002, 37.7858977], [-122.4083822, 37.7859117], [-122.4080625, 37.7859526]]]}}, {"id": "31", "type": "Feature", "properties": {"building_id": "35024395", "area_m2": 812.0798537592573}, "geometry": {"type": "Polygon", "coordinates": [[[-122.4083312, 37.7856591], [-122.4080096, 37.7857], [-122.4080625, 37.7859526], [-122.4083822, 37.7859117], [-122.4083312, 37.7856591]]]}}, {"id": "32", "type": "Feature", "properties": {"building_id": "35024397", "area_m2": 549.0336547299629}, "geometry": {"type": "Polygon", "coordinates": [[[-122.409031, 37.7858253], [-122.4091729, 37.7858075], [-122.4091199, 37.7855433], [-122.4091458, 37.7855401], [-122.409125, 37.7854369], [-122.40895720000002, 37.7854579], [-122.409031, 37.7858253]]]}}, {"id": "33", "type": "Feature", "properties": {"building_id": "35174693", "area_m2": 597.4893888414906}, "geometry": {"type": "Polygon", "coordinates": [[[-122.4080875, 37.7872872], [-122.4078379, 37.7873181], [-122.4077904, 37.787079], [-122.4080401, 37.7870481], [-122.4080875, 37.7872872]]]}}, {"id": "34", "type": "Feature", "properties": {"building_id": "35174694", "area_m2": 338.2089350725609}, "geometry": {"type": "Polygon", "coordinates": [[[-122.4080401, 37.7870481], [-122.4077904, 37.787079], [-122.4077622, 37.7869456], [-122.408015, 37.78691269999999], [-122.4080401, 37.7870481]]]}}, {"id": "35", "type": "Feature", "properties": {"building_id": "35174695", "area_m2": 279.13711712812074}, "geometry": {"type": "Polygon", "coordinates": [[[-122.408015, 37.78691269999999], [-122.4077622, 37.7869456], [-122.4077409, 37.7869484], [-122.40771969999999, 37.786847], [-122.4079941, 37.78681120000001], [-122.408015, 37.78691269999999]]]}}, {"id": "36", "type": "Feature", "properties": {"building_id": "35174696", "area_m2": 185.31732936267366}, "geometry": {"type": "Polygon", "coordinates": [[[-122.4079941, 37.78681120000001], [-122.40771969999999, 37.786847], [-122.40770559999999, 37.7867798], [-122.4078888, 37.7867558], [-122.40798, 37.78674380000001], [-122.4079941, 37.78681120000001]]]}}, {"id": "37", "type": "Feature", "properties": {"building_id": "35174697", "area_m2": 183.2484504104122}, "geometry": {"type": "Polygon", "coordinates": [[[-122.40798, 37.78674380000001], [-122.4078888, 37.7867558], [-122.40784650000002, 37.7865557], [-122.40793770000002, 37.7865437], [-122.40798, 37.78674380000001]]]}}, {"id": "38", "type": "Feature", "properties": {"building_id": "35174698", "area_m2": 367.48522915964315}, "geometry": {"type": "Polygon", "coordinates": [[[-122.4078888, 37.7867558], [-122.40784650000002, 37.7865557], [-122.4076637, 37.7865799], [-122.40770559999999, 37.7867798], [-122.4078888, 37.7867558]]]}}, {"id": "39", "type": "Feature", "properties": {"building_id": "35174699", "area_m2": 662.8290598415977}, "geometry": {"type": "Polygon", "coordinates": [[[-122.405135, 37.7850403], [-122.4049298, 37.7848802], [-122.405139, 37.7847128], [-122.4053442, 37.7848729], [-122.405135, 37.7850403]]]}}, {"id": "40", "type": "Feature", "properties": {"building_id": "35174751", "area_m2": 1029.7748660832433}, "geometry": {"type": "Polygon", "coordinates": [[[-122.4071899, 37.78548940000001], [-122.40679739999999, 37.7855453], [-122.4067401, 37.7852816], [-122.4068821, 37.785169], [-122.4071702, 37.7853911], [-122.4071899, 37.78548940000001]]]}}, {"id": "41", "type": "Feature", "properties": {"building_id": "35176927", "area_m2": 1604.5064834750146}, "geometry": {"type": "Polygon", "coordinates": [[[-122.40621959999999, 37.786254], [-122.4061465, 37.7858412], [-122.40612509999998, 37.7858441], [-122.4061111, 37.7858276], [-122.40609059999998, 37.7858358], [-122.40607169999998, 37.7858243], [-122.40576989999998, 37.7860599], [-122.4058403, 37.7864125], [-122.40586109999998, 37.7864101], [-122.4058664, 37.7864482], [-122.4059521, 37.7864371], [-122.40594080000001, 37.7863805], [-122.4059631, 37.7863776], [-122.4059447, 37.7862904], [-122.40621959999999, 37.786254]]]}}, {"id": "42", "type": "Feature", "properties": {"building_id": "35536720", "area_m2": 1347.5803108718078}, "geometry": {"type": "Polygon", "coordinates": [[[-122.40695390000002, 37.7864625], [-122.406623, 37.7865049], [-122.40659150000002, 37.7865099], [-122.4065637, 37.7865125], [-122.40653819999999, 37.7865073], [-122.40651240000001, 37.7864953], [-122.4064981, 37.7864836], [-122.40648410000001, 37.7864677], [-122.4064747, 37.7864497], [-122.40643259999999, 37.78622639999998], [-122.40689589999998, 37.7861711], [-122.40695390000002, 37.7864625]]]}}, {"id": "43", "type": "Feature", "properties": {"building_id": "35536771", "area_m2": 577.9123014942561}, "geometry": {"type": "Polygon", "coordinates": [[[-122.4067003, 37.7861264], [-122.40641990000002, 37.7861599], [-122.4063813, 37.7859644], [-122.4066633, 37.7859294], [-122.40667070000002, 37.78596649999999], [-122.40669960000001, 37.7859629], [-122.4067174, 37.7860505], [-122.406686, 37.7860544], [-122.4067003, 37.7861264]]]}}, {"id": "44", "type": "Feature", "properties": {"building_id": "35536841", "area_m2": 484.35777650346927}, "geometry": {"type": "Polygon", "coordinates": [[[-122.4065304, 37.7878389], [-122.40627920000001, 37.78787089999999], [-122.40623960000002, 37.7878759], [-122.40620549999998, 37.7877094], [-122.4064974, 37.7876735], [-122.4065304, 37.7878389]]]}}, {"id": "45", "type": "Feature", "properties": {"building_id": "35536844", "area_m2": 303.5569385382009}, "geometry": {"type": "Polygon", "coordinates": [[[-122.40656430000001, 37.7880051], [-122.40653960000002, 37.7878841], [-122.40628850000002, 37.7879161], [-122.4063127, 37.7880362], [-122.40656430000001, 37.7880051]]]}}, {"id": "46", "type": "Feature", "properties": {"building_id": "35536855", "area_m2": 319.9889067980405}, "geometry": {"type": "Polygon", "coordinates": [[[-122.4062434, 37.7878942], [-122.4060708, 37.7879166], [-122.406032, 37.787733], [-122.40620549999998, 37.7877094], [-122.40623960000002, 37.7878759], [-122.4062434, 37.7878942]]]}}, {"id": "47", "type": "Feature", "properties": {"building_id": "35536963", "area_m2": 765.2076323056723}, "geometry": {"type": "Polygon", "coordinates": [[[-122.4078588, 37.788839], [-122.4076793, 37.7888611], [-122.4076409, 37.7886667], [-122.4075701, 37.7886754], [-122.40753489999999, 37.7885091], [-122.4077864, 37.78847889999999], [-122.4078588, 37.788839]]]}}, {"id": "48", "type": "Feature", "properties": {"building_id": "35536969", "area_m2": 651.5529336577977}, "geometry": {"type": "Polygon", "coordinates": [[[-122.4090516, 37.7890787], [-122.40872839999999, 37.7891191], [-122.40868480000002, 37.7889198], [-122.4090099, 37.7888774], [-122.4090516, 37.7890787]]]}}, {"id": "49", "type": "Feature", "properties": {"building_id": "35537015", "area_m2": 1121.1092459685105}, "geometry": {"type": "Polygon", "coordinates": [[[-122.4100579, 37.7885742], [-122.4098741, 37.788597], [-122.4098335, 37.7883934], [-122.4097596, 37.7884026], [-122.4097522, 37.7883658], [-122.40953249999998, 37.7883932], [-122.4095062, 37.7882582], [-122.409809, 37.7882192], [-122.4099831, 37.7881967], [-122.4100268, 37.7884144], [-122.410039, 37.7884753], [-122.4100579, 37.7885742]]]}}, {"id": "50", "type": "Feature", "properties": {"building_id": "35537021", "area_m2": 1745.5346213847959}, "geometry": {"type": "Polygon", "coordinates": [[[-122.4107611, 37.7884671], [-122.4102828, 37.7885289], [-122.410234, 37.7882933], [-122.41021679999999, 37.7882103], [-122.41020740000002, 37.7881651], [-122.410612, 37.7881128], [-122.41068570000002, 37.7881032], [-122.4107611, 37.7884671]]]}}, {"id": "51", "type": "Feature", "properties": {"building_id": "48995277", "area_m2": 512.8347250868463}, "geometry": {"type": "Polygon", "coordinates": [[[-122.410992, 37.78883350000001], [-122.4109691, 37.7887236], [-122.41094250000002, 37.7887271], [-122.41089189999998, 37.7884837], [-122.4107638, 37.7885004], [-122.4108128, 37.788736], [-122.41078770000001, 37.7887392], [-122.4108121, 37.7888567], [-122.410992, 37.78883350000001]]]}}, {"id": "52", "type": "Feature", "properties": {"building_id": "48995278", "area_m2": 980.3444788727065}, "geometry": {"type": "Polygon", "coordinates": [[[-122.410583, 37.7888857], [-122.4105362, 37.788653], [-122.410532, 37.7886322], [-122.4106991, 37.7886112], [-122.41067769999998, 37.7885048], [-122.41028810000002, 37.7885537], [-122.41036050000001, 37.7889137], [-122.410583, 37.7888857]]]}}, {"id": "53", "type": "Feature", "properties": {"building_id": "48995279", "area_m2": 533.1095856143004}, "geometry": {"type": "Polygon", "coordinates": [[[-122.4108121, 37.7888567], [-122.410583, 37.7888857], [-122.4105362, 37.788653], [-122.4107636, 37.7886235], [-122.41078770000001, 37.7887392], [-122.4108121, 37.7888567]]]}}, {"id": "54", "type": "Feature", "properties": {"building_id": "48995282", "area_m2": 2056.3498349308966}, "geometry": {"type": "Polygon", "coordinates": [[[-122.410819, 37.78808509999999], [-122.41068570000002, 37.7881032], [-122.4107611, 37.7884671], [-122.4107659, 37.7884768], [-122.4108986, 37.7884591], [-122.4111198, 37.7884308], [-122.41131120000001, 37.788406], [-122.41123029999999, 37.7880301], [-122.410819, 37.78808509999999]]]}}, {"id": "55", "type": "Feature", "properties": {"building_id": "48995283", "area_m2": 590.880307212112}, "geometry": {"type": "Polygon", "coordinates": [[[-122.411197, 37.78880679999999], [-122.410992, 37.78883350000001], [-122.4109691, 37.7887236], [-122.410966, 37.7887086], [-122.410992, 37.7887052], [-122.4109471, 37.7884899], [-122.4111011, 37.78846979999999], [-122.411145, 37.7886804], [-122.41117, 37.7886772], [-122.411197, 37.78880679999999]]]}}, {"id": "56", "type": "Feature", "properties": {"building_id": "50832129", "area_m2": 2724.539595856665}, "geometry": {"type": "Polygon", "coordinates": [[[-122.409544, 37.7861341], [-122.4090419, 37.7862003], [-122.4089885, 37.7859469], [-122.40902590000002, 37.785942], [-122.4090078, 37.7858564], [-122.4090369, 37.7858526], [-122.409209, 37.7858307], [-122.4091458, 37.7855401], [-122.409125, 37.7854369], [-122.4093902, 37.78540120000001], [-122.4094728, 37.7857952], [-122.409544, 37.7861341]]]}}, {"id": "57", "type": "Feature", "properties": {"building_id": "71504436", "area_m2": 351.58503716747225}, "geometry": {"type": "Polygon", "coordinates": [[[-122.4099378, 37.7867787], [-122.4100671, 37.7867628], [-122.4101202, 37.7870328], [-122.40998850000001, 37.7870479], [-122.4099378, 37.7867787]]]}}, {"id": "58", "type": "Feature", "properties": {"building_id": "71504438", "area_m2": 1385.9519615909255}, "geometry": {"type": "Polygon", "coordinates": [[[-122.4101202, 37.7870328], [-122.4100671, 37.7867628], [-122.4099378, 37.7867787], [-122.40991859999998, 37.7866814], [-122.4103907, 37.7866233], [-122.4104083, 37.7867126], [-122.41046310000002, 37.7869906], [-122.4101202, 37.7870328]]]}}, {"id": "59", "type": "Feature", "properties": {"building_id": "71504442", "area_m2": 1702.3602540696188}, "geometry": {"type": "Polygon", "coordinates": [[[-122.4114036, 37.7868694], [-122.4109397, 37.7869285], [-122.4108863, 37.7866665], [-122.410865, 37.7865619], [-122.41132860000002, 37.7865035], [-122.4114036, 37.7868694]]]}}, {"id": "60", "type": "Feature", "properties": {"building_id": "71504443", "area_m2": 1780.2571051442392}, "geometry": {"type": "Polygon", "coordinates": [[[-122.410848, 37.7865641], [-122.41077339999998, 37.7861943], [-122.4112541, 37.7861338], [-122.41132860000002, 37.7865035], [-122.410865, 37.7865619], [-122.410848, 37.7865641]]]}}, {"id": "61", "type": "Feature", "properties": {"building_id": "71504445", "area_m2": 344.8897442406093}, "geometry": {"type": "Polygon", "coordinates": [[[-122.41080210000001, 37.786946], [-122.4107813, 37.7868441], [-122.41080810000001, 37.7868407], [-122.4107986, 37.7867945], [-122.4107755, 37.7867974], [-122.41075230000001, 37.7866835], [-122.4108863, 37.7866665], [-122.4109397, 37.7869285], [-122.41080210000001, 37.786946]]]}}, {"id": "62", "type": "Feature", "properties": {"building_id": "71504452", "area_m2": 1180.4010861332276}, "geometry": {"type": "Polygon", "coordinates": [[[-122.4103907, 37.7866233], [-122.41074660000001, 37.7865795], [-122.4107646, 37.786671], [-122.4107326, 37.7866749], [-122.41078680000001, 37.7869493], [-122.4104755, 37.7869877], [-122.4104209, 37.7867111], [-122.4104083, 37.7867126], [-122.4103907, 37.7866233]]]}}, {"id": "63", "type": "Feature", "properties": {"building_id": "79375208", "area_m2": 248.9742910012751}, "geometry": {"type": "Polygon", "coordinates": [[[-122.4098613, 37.7887149], [-122.4098387, 37.7886014], [-122.4098741, 37.788597], [-122.4100579, 37.7885742], [-122.41008050000002, 37.7886876], [-122.4098613, 37.7887149]]]}}, {"id": "64", "type": "Feature", "properties": {"building_id": "79375211", "area_m2": 1070.7713870620921}, "geometry": {"type": "Polygon", "coordinates": [[[-122.4095761, 37.788611199999984], [-122.40953249999998, 37.7883932], [-122.4095062, 37.7882582], [-122.40920720000001, 37.7882968], [-122.4092718, 37.7886148], [-122.4092838, 37.788674], [-122.40932749999999, 37.7886665], [-122.40935860000002, 37.7886625], [-122.4093543, 37.7886395], [-122.4095652, 37.7886126], [-122.4095761, 37.788611199999984]]]}}, {"id": "65", "type": "Feature", "properties": {"building_id": "79375215", "area_m2": 421.0810184532709}, "geometry": {"type": "Polygon", "coordinates": [[[-122.40893350000002, 37.7887161], [-122.4089255, 37.7886782], [-122.4089021, 37.7885678], [-122.408619, 37.788605199999985], [-122.40865060000002, 37.7887532], [-122.40893350000002, 37.7887161]]]}}, {"id": "66", "type": "Feature", "properties": {"building_id": "79375219", "area_m2": 1332.3693032176275}, "geometry": {"type": "Polygon", "coordinates": [[[-122.4090981, 37.7885997], [-122.4091149, 37.78867910000001], [-122.4091175, 37.7886918], [-122.40897490000002, 37.7887106], [-122.40893350000002, 37.7887161], [-122.4089255, 37.7886782], [-122.4089021, 37.7885678], [-122.408619, 37.788605199999985], [-122.4086075, 37.7885508], [-122.40857119999998, 37.7883789], [-122.40903859999999, 37.7883186], [-122.40905780000001, 37.7884096], [-122.4090981, 37.7885997]]]}}, {"id": "67", "type": "Feature", "properties": {"building_id": "79375227", "area_m2": 531.5440053868119}, "geometry": {"type": "Polygon", "coordinates": [[[-122.40950330000001, 37.7890194], [-122.409434, 37.7886792], [-122.4095891, 37.7886595], [-122.4096599, 37.7889999], [-122.40950330000001, 37.7890194]]]}}, {"id": "68", "type": "Feature", "properties": {"building_id": "79375230", "area_m2": 497.8529667152119}, "geometry": {"type": "Polygon", "coordinates": [[[-122.4091186, 37.7887084], [-122.4091332, 37.7887723], [-122.4091923, 37.7890602], [-122.4090516, 37.7890787], [-122.4090099, 37.7888774], [-122.40899839999999, 37.7888221], [-122.40898660000002, 37.7887659], [-122.40897829999999, 37.7887267], [-122.4091186, 37.7887084]]]}}, {"id": "69", "type": "Feature", "properties": {"building_id": "79375233", "area_m2": 1820.3100620467612}, "geometry": {"type": "Polygon", "coordinates": [[[-122.41056390000001, 37.7850679], [-122.4100714, 37.785126199999986], [-122.41005980000001, 37.7850712], [-122.41005140000001, 37.7850311], [-122.4100303, 37.784931], [-122.41001240000001, 37.7848391], [-122.4099949, 37.7847539], [-122.410482, 37.7846986], [-122.4104958, 37.7847594], [-122.41056390000001, 37.7850679]]]}}, {"id": "70", "type": "Feature", "properties": {"building_id": "79375236", "area_m2": 215.40766023420323}, "geometry": {"type": "Polygon", "coordinates": [[[-122.4098818, 37.7888133], [-122.4098613, 37.7887149], [-122.41008050000002, 37.7886876], [-122.4100972, 37.7887876], [-122.4098818, 37.7888133]]]}}, {"id": "71", "type": "Feature", "properties": {"building_id": "79375238", "area_m2": 732.526690817337}, "geometry": {"type": "Polygon", "coordinates": [[[-122.4095891, 37.7886595], [-122.40980369999998, 37.7886317], [-122.4098743, 37.7889721], [-122.4096599, 37.7889999], [-122.4095891, 37.7886595]]]}}, {"id": "72", "type": "Feature", "properties": {"building_id": "79375240", "area_m2": 539.0332459147095}, "geometry": {"type": "Polygon", "coordinates": [[[-122.4093489, 37.7890401], [-122.4092898, 37.7887522], [-122.4093141, 37.7887499], [-122.4093014, 37.7886878], [-122.40933109999999, 37.788684], [-122.40932749999999, 37.7886665], [-122.40935860000002, 37.7886625], [-122.4094084, 37.7886562], [-122.4094136, 37.7886818], [-122.409434, 37.7886792], [-122.40950330000001, 37.7890194], [-122.4093489, 37.7890401]]]}}, {"id": "73", "type": "Feature", "properties": {"building_id": "79375245", "area_m2": 346.2261221180797}, "geometry": {"type": "Polygon", "coordinates": [[[-122.40990170000002, 37.7889685], [-122.4098722, 37.7888145], [-122.4098818, 37.7888133], [-122.4100972, 37.7887876], [-122.41012670000002, 37.7889415], [-122.40990170000002, 37.7889685]]]}}, {"id": "74", "type": "Feature", "properties": {"building_id": "79375256", "area_m2": 452.06238381539276}, "geometry": {"type": "Polygon", "coordinates": [[[-122.4091923, 37.7890602], [-122.4091332, 37.7887723], [-122.4092898, 37.7887522], [-122.4093489, 37.7890401], [-122.4091923, 37.7890602]]]}}, {"id": "75", "type": "Feature", "properties": {"building_id": "112928951", "area_m2": 1554.964959134796}, "geometry": {"type": "Polygon", "coordinates": [[[-122.4053661, 37.7859198], [-122.4049544, 37.7855819], [-122.40519769999999, 37.7853968], [-122.4055842, 37.7857139], [-122.4056037, 37.7857113], [-122.4056181, 37.7857187], [-122.4056221, 37.7857322], [-122.4056134, 37.7857439], [-122.4055929, 37.7857479], [-122.4053661, 37.7859198]]]}}, {"id": "76", "type": "Feature", "properties": {"building_id": "115921776", "area_m2": 39.145849474606244}, "geometry": {"type": "Polygon", "coordinates": [[[-122.406966, 37.7879344], [-122.4069094, 37.7879522], [-122.4068855, 37.7879598], [-122.4068775, 37.7879132], [-122.4069003, 37.7879024], [-122.40689709999998, 37.7878846], [-122.4069151, 37.787875], [-122.406966, 37.7879344]]]}}, {"id": "77", "type": "Feature", "properties": {"building_id": "115921779", "area_m2": 101.29039149975594}, "geometry": {"type": "Polygon", "coordinates": [[[-122.4069228, 37.7881117], [-122.4069121, 37.7880936], [-122.4069094, 37.7880618], [-122.4069322, 37.7880661], [-122.4069295, 37.7880438], [-122.40703080000002, 37.7880428], [-122.4070301, 37.7880738], [-122.4070246, 37.7881035], [-122.4070116, 37.7881331], [-122.40699890000002, 37.7881627], [-122.4069473, 37.7881466], [-122.40694560000001, 37.788117], [-122.4069228, 37.7881117]]]}}, {"id": "78", "type": "Feature", "properties": {"building_id": "135174112", "area_m2": 807.7756491533636}, "geometry": {"type": "Polygon", "coordinates": [[[-122.40604919999998, 37.7886942], [-122.4058049, 37.7887247], [-122.40587210000001, 37.7890575], [-122.40611340000001, 37.7890256], [-122.40604919999998, 37.7886942]]]}}, {"id": "79", "type": "Feature", "properties": {"building_id": "135174113", "area_m2": 1006.8183815437907}, "geometry": {"type": "Polygon", "coordinates": [[[-122.40604919999998, 37.7886942], [-122.406362, 37.7886552], [-122.4063991, 37.7888465], [-122.4063769, 37.7888493], [-122.4064052, 37.7889891], [-122.40611340000001, 37.7890256], [-122.40604919999998, 37.7886942]]]}}, {"id": "80", "type": "Feature", "properties": {"building_id": "135174114", "area_m2": 986.5517556468335}, "geometry": {"type": "Polygon", "coordinates": [[[-122.40669210000001, 37.7886141], [-122.406759, 37.7889443], [-122.4064052, 37.7889891], [-122.4063769, 37.7888493], [-122.4063991, 37.7888465], [-122.4064737, 37.7888371], [-122.4064349, 37.78864620000002], [-122.40669210000001, 37.7886141]]]}}, {"id": "81", "type": "Feature", "properties": {"building_id": "135174115", "area_m2": 647.736914630944}, "geometry": {"type": "Polygon", "coordinates": [[[-122.4056107, 37.7887489], [-122.4058049, 37.7887247], [-122.40587210000001, 37.7890575], [-122.4056779, 37.789082], [-122.4056556, 37.78897160000001], [-122.40564080000001, 37.7888983], [-122.4056107, 37.7887489]]]}}, {"id": "82", "type": "Feature", "properties": {"building_id": "135174117", "area_m2": 706.7231857549741}, "geometry": {"type": "Polygon", "coordinates": [[[-122.4055538, 37.7889845], [-122.4056556, 37.78897160000001], [-122.4056779, 37.789082], [-122.4054438, 37.7891115], [-122.40537649999999, 37.7887781], [-122.4056107, 37.7887489], [-122.40564080000001, 37.7888983], [-122.405539, 37.7889111], [-122.4055538, 37.7889845]]]}}, {"id": "83", "type": "Feature", "properties": {"building_id": "141026524", "area_m2": 332.26621527238194}, "geometry": {"type": "Polygon", "coordinates": [[[-122.4055657, 37.7868498], [-122.4054561, 37.7868633], [-122.4055075, 37.7871247], [-122.40569530000002, 37.7871016], [-122.4056838, 37.7870433], [-122.4056056, 37.787052899999985], [-122.4055657, 37.7868498]]]}}, {"id": "84", "type": "Feature", "properties": {"building_id": "147689070", "area_m2": 1110.1164977979254}, "geometry": {"type": "Polygon", "coordinates": [[[-122.4087522, 37.7859093], [-122.4086627, 37.7859208], [-122.4085979, 37.785929], [-122.4085455, 37.7859359], [-122.40853669999998, 37.7858922], [-122.40849280000002, 37.7858977], [-122.4083822, 37.7859117], [-122.4083312, 37.7856591], [-122.4083067, 37.7855375], [-122.4085779, 37.7855034], [-122.4086524, 37.7858733], [-122.4087433, 37.7858618], [-122.4087522, 37.7859093]]]}}, {"id": "85", "type": "Feature", "properties": {"building_id": "147689071", "area_m2": 326.00278444840166}, "geometry": {"type": "Polygon", "coordinates": [[[-122.4053854, 37.7871984], [-122.4050862, 37.7872344], [-122.4050652, 37.7871254], [-122.4053644, 37.7870894], [-122.4053854, 37.7871984]]]}}, {"id": "86", "type": "Feature", "properties": {"building_id": "147689072", "area_m2": 379.98017113115156}, "geometry": {"type": "Polygon", "coordinates": [[[-122.4073153, 37.7864176], [-122.40724530000001, 37.7860651], [-122.4073529, 37.7860517], [-122.4073613, 37.786093], [-122.40740460000002, 37.7863137], [-122.40742260000002, 37.7864057], [-122.4073153, 37.7864176]]]}}, {"id": "87", "type": "Feature", "properties": {"building_id": "147689074", "area_m2": 307.8258912595925}, "geometry": {"type": "Polygon", "coordinates": [[[-122.40689589999998, 37.7861711], [-122.40643259999999, 37.78622639999998], [-122.40641990000002, 37.7861599], [-122.4067003, 37.7861264], [-122.4068827, 37.7861046], [-122.40689589999998, 37.7861711]]]}}, {"id": "88", "type": "Feature", "properties": {"building_id": "147689076", "area_m2": 1366.9873237894992}, "geometry": {"type": "Polygon", "coordinates": [[[-122.4050241, 37.7882139], [-122.4046149, 37.78826620000001], [-122.40458020000001, 37.7880963], [-122.40454680000002, 37.7879332], [-122.4049559, 37.7878804], [-122.4050241, 37.7882139]]]}}, {"id": "89", "type": "Feature", "properties": {"building_id": "147689077", "area_m2": 539.7614371824832}, "geometry": {"type": "Polygon", "coordinates": [[[-122.406692, 37.7859258], [-122.4066633, 37.7859294], [-122.4063813, 37.7859644], [-122.4063471, 37.7857912], [-122.40665660000002, 37.7857515], [-122.406692, 37.7859258]]]}}, {"id": "90", "type": "Feature", "properties": {"building_id": "147689078", "area_m2": 1532.0247053278335}, "geometry": {"type": "Polygon", "coordinates": [[[-122.4079091, 37.7863584], [-122.40768580000001, 37.7863857], [-122.4076835, 37.7863738], [-122.4075949, 37.7863846], [-122.40758740000001, 37.7863467], [-122.40751149999998, 37.7863559], [-122.407519, 37.786393899999986], [-122.40742260000002, 37.7864057], [-122.40740460000002, 37.7863137], [-122.407487, 37.7863037], [-122.4074438, 37.7860829], [-122.4073613, 37.786093], [-122.4073529, 37.7860517], [-122.4073855, 37.786048], [-122.40783939999999, 37.7859928], [-122.4079091, 37.7863584]]]}}, {"id": "91", "type": "Feature", "properties": {"building_id": "147689079", "area_m2": 945.0682865739697}, "geometry": {"type": "Polygon", "coordinates": [[[-122.40783939999999, 37.7859928], [-122.4073855, 37.786048], [-122.4073727, 37.785982], [-122.4074128, 37.7859771], [-122.4074104, 37.785966299999984], [-122.4074813, 37.7859577], [-122.4074836, 37.7859694], [-122.4076269, 37.7859519], [-122.4076222, 37.7859279], [-122.4075925, 37.785931499999975], [-122.4075868, 37.785902], [-122.4076154, 37.7858985], [-122.4075869, 37.7857521], [-122.40756459999999, 37.78563719999999], [-122.4077654, 37.7856128], [-122.40783939999999, 37.7859928]]]}}, {"id": "92", "type": "Feature", "properties": {"building_id": "147689080", "area_m2": 211.19817922931816}, "geometry": {"type": "Polygon", "coordinates": [[[-122.4086524, 37.7858733], [-122.4087433, 37.7858618], [-122.40873790000002, 37.7858375], [-122.4087102, 37.7857483], [-122.408584, 37.7855022], [-122.4085779, 37.7855034], [-122.4086524, 37.7858733]]]}}, {"id": "93", "type": "Feature", "properties": {"building_id": "147689081", "area_m2": 492.6012207761488}, "geometry": {"type": "Polygon", "coordinates": [[[-122.4067225, 37.786075899999986], [-122.4067174, 37.7860505], [-122.40669960000001, 37.7859629], [-122.406692, 37.7859258], [-122.40665660000002, 37.7857515], [-122.4068086, 37.7857316], [-122.40687320000002, 37.78605670000001], [-122.4067225, 37.786075899999986]]]}}, {"id": "94", "type": "Feature", "properties": {"building_id": "148758716", "area_m2": 525.3552024060422}, "geometry": {"type": "Polygon", "coordinates": [[[-122.40795430000001, 37.7892125], [-122.4077657, 37.7892363], [-122.40774360000002, 37.7891268], [-122.4077784, 37.78912239999999], [-122.4077402, 37.7889338], [-122.40770550000002, 37.7889382], [-122.40769510000001, 37.7888868], [-122.40787990000001, 37.7888635], [-122.4078898, 37.7889125], [-122.4078581, 37.788916499999985], [-122.4078965, 37.7891063], [-122.407932, 37.7891018], [-122.40795430000001, 37.7892125]]]}}, {"id": "95", "type": "Feature", "properties": {"building_id": "148758717", "area_m2": 467.9198867341554}, "geometry": {"type": "Polygon", "coordinates": [[[-122.40811069999998, 37.7891931], [-122.40795430000001, 37.7892125], [-122.407932, 37.7891018], [-122.4079468, 37.7891], [-122.40790840000001, 37.7889101], [-122.4078898, 37.7889125], [-122.40787990000001, 37.7888635], [-122.4080331, 37.7888441], [-122.4080426, 37.78889150000001], [-122.4080236, 37.788894], [-122.40806230000001, 37.7890859], [-122.40808840000001, 37.7890826], [-122.40811069999998, 37.7891931]]]}}, {"id": "96", "type": "Feature", "properties": {"building_id": "148758718", "area_m2": 389.5355231915894}, "geometry": {"type": "Polygon", "coordinates": [[[-122.4076543, 37.7892499], [-122.40758370000002, 37.7889017], [-122.40769510000001, 37.7888868], [-122.40770550000002, 37.7889382], [-122.40774360000002, 37.7891268], [-122.4077657, 37.7892363], [-122.4076543, 37.7892499]]]}}, {"id": "97", "type": "Feature", "properties": {"building_id": "148758719", "area_m2": 516.6135590822184}, "geometry": {"type": "Polygon", "coordinates": [[[-122.4074895, 37.7892707], [-122.407437, 37.7890118], [-122.4075025, 37.7890032], [-122.4074839, 37.78891440000001], [-122.40758370000002, 37.7889017], [-122.4076543, 37.7892499], [-122.4074895, 37.7892707]]]}}, {"id": "98", "type": "Feature", "properties": {"building_id": "148758720", "area_m2": 479.8104173465652}, "geometry": {"type": "Polygon", "coordinates": [[[-122.40761190000002, 37.7888823], [-122.4075197, 37.7888939], [-122.4075137, 37.7888644], [-122.40747459999999, 37.7888693], [-122.4074042, 37.788526199999986], [-122.40753489999999, 37.7885091], [-122.4075701, 37.7886754], [-122.40761190000002, 37.7888823]]]}}, {"id": "99", "type": "Feature", "properties": {"building_id": "149335983", "area_m2": 151.19284806134533}, "geometry": {"type": "Polygon", "coordinates": [[[-122.4053854, 37.7871984], [-122.4053951, 37.787249], [-122.4053644, 37.7872527], [-122.40509590000002, 37.7872849], [-122.4050862, 37.7872344], [-122.4053854, 37.7871984]]]}}, {"id": "100", "type": "Feature", "properties": {"building_id": "149757915", "area_m2": 210.02416823955545}, "geometry": {"type": "Polygon", "coordinates": [[[-122.40507229999999, 37.788466], [-122.4050505, 37.7883613], [-122.4048505, 37.7883874], [-122.4048723, 37.788492], [-122.40507229999999, 37.788466]]]}}, {"id": "101", "type": "Feature", "properties": {"building_id": "149757919", "area_m2": 329.5176623808668}, "geometry": {"type": "Polygon", "coordinates": [[[-122.4051065, 37.7886302], [-122.4049065, 37.7886562], [-122.4048723, 37.788492], [-122.40507229999999, 37.788466], [-122.4051065, 37.7886302]]]}}, {"id": "102", "type": "Feature", "properties": {"building_id": "149757921", "area_m2": 735.3852507593485}, "geometry": {"type": "Polygon", "coordinates": [[[-122.40554590000002, 37.788332699999984], [-122.405445, 37.78834530000001], [-122.4054625, 37.788433], [-122.4055622, 37.7884205], [-122.405592, 37.7885694], [-122.4055477, 37.7885749], [-122.4053455, 37.7886002], [-122.4052789, 37.7882673], [-122.4055266, 37.78823629999999], [-122.40554590000002, 37.788332699999984]]]}}, {"id": "103", "type": "Feature", "properties": {"building_id": "149758043", "area_m2": 123.52053700916048}, "geometry": {"type": "Polygon", "coordinates": [[[-122.4050505, 37.7883613], [-122.4050377, 37.7882998], [-122.4048377, 37.7883258], [-122.4048505, 37.7883874], [-122.4050505, 37.7883613]]]}}, {"id": "104", "type": "Feature", "properties": {"building_id": "151184973", "area_m2": 491.8612766696562}, "geometry": {"type": "Polygon", "coordinates": [[[-122.4096965, 37.7867963], [-122.40969140000001, 37.7867703], [-122.40968069999998, 37.7867065], [-122.4094063, 37.7867425], [-122.4093936, 37.7866891], [-122.40919280000001, 37.7867156], [-122.40920450000002, 37.7867811], [-122.409217, 37.7868427], [-122.409306, 37.786831], [-122.4093389, 37.7868268], [-122.40934190000002, 37.7868414], [-122.40939779999998, 37.7868342], [-122.40942370000002, 37.78683070000001], [-122.4094209, 37.7868172], [-122.4095852, 37.78679589999999], [-122.4095881, 37.7868103], [-122.4096965, 37.7867963]]]}}, {"id": "105", "type": "Feature", "properties": {"building_id": "151184974", "area_m2": 119.70019658807584}, "geometry": {"type": "Polygon", "coordinates": [[[-122.4093001, 37.7865493], [-122.4092301, 37.7865585], [-122.40919510000002, 37.7863883], [-122.4092653, 37.7863791], [-122.4093001, 37.7865493]]]}}, {"id": "106", "type": "Feature", "properties": {"building_id": "151184975", "area_m2": 106.93522201777253}, "geometry": {"type": "Polygon", "coordinates": [[[-122.4093624, 37.7865411], [-122.4093001, 37.7865493], [-122.4092653, 37.7863791], [-122.4093283, 37.7863709], [-122.4093624, 37.7865411]]]}}, {"id": "107", "type": "Feature", "properties": {"building_id": "151184976", "area_m2": 115.87106994026688}, "geometry": {"type": "Polygon", "coordinates": [[[-122.4092301, 37.7865585], [-122.40919510000002, 37.7863883], [-122.409127, 37.7863973], [-122.4091625, 37.7865674], [-122.4092301, 37.7865585]]]}}, {"id": "108", "type": "Feature", "properties": {"building_id": "151184977", "area_m2": 658.2993951569015}, "geometry": {"type": "Polygon", "coordinates": [[[-122.4093936, 37.7866891], [-122.40919280000001, 37.7867156], [-122.40920450000002, 37.7867811], [-122.40903619999999, 37.7868025], [-122.408902, 37.7868196], [-122.4088949, 37.786778], [-122.40888250000002, 37.78671749999999], [-122.40913219999999, 37.7866846], [-122.4091126, 37.786592], [-122.4091662, 37.7865851], [-122.4091625, 37.7865674], [-122.4092301, 37.7865585], [-122.4093001, 37.7865493], [-122.4093624, 37.7865411], [-122.4093936, 37.7866891]]]}}, {"id": "109", "type": "Feature", "properties": {"building_id": "151184978", "area_m2": 795.5493509680892}, "geometry": {"type": "Polygon", "coordinates": [[[-122.4091662, 37.7865851], [-122.4091126, 37.786592], [-122.40913219999999, 37.7866846], [-122.40888250000002, 37.78671749999999], [-122.4088643, 37.7866245], [-122.4088274, 37.7864475], [-122.40887410000002, 37.78644139999999], [-122.40887179999999, 37.7864306], [-122.409127, 37.7863973], [-122.4091625, 37.7865674], [-122.4091662, 37.7865851]]]}}, {"id": "110", "type": "Feature", "properties": {"building_id": "154965834", "area_m2": 589.7659828899774}, "geometry": {"type": "Polygon", "coordinates": [[[-122.4084844, 37.7849523], [-122.40819349999998, 37.7849865], [-122.4078874, 37.7850225], [-122.4078991, 37.7850845], [-122.4079111, 37.7851483], [-122.40802080000002, 37.7851354], [-122.40810589999998, 37.7851253], [-122.408174, 37.7851173], [-122.4082153, 37.7851125], [-122.408205, 37.7850579], [-122.4083738, 37.7850379], [-122.4084987, 37.7850225], [-122.40848860000001, 37.7849731], [-122.4084844, 37.7849523]]]}}, {"id": "111", "type": "Feature", "properties": {"building_id": "160331904", "area_m2": 8116.0505601387595}, "geometry": {"type": "Polygon", "coordinates": [[[-122.4054243, 37.7860036], [-122.40537449999998, 37.7859642], [-122.405529, 37.78584210000001], [-122.4056451, 37.78575029999998], [-122.4056949, 37.7857896], [-122.4061839, 37.7854031], [-122.4062731, 37.785332699999984], [-122.40628980000001, 37.785319500000014], [-122.4062398, 37.78528], [-122.40638460000001, 37.7851656], [-122.4065741, 37.78501579999999], [-122.4066301, 37.784971599999984], [-122.40668, 37.785011], [-122.40685929999998, 37.7848693], [-122.40677520000001, 37.7848028], [-122.406795, 37.7847872], [-122.4068833, 37.7847177], [-122.406967, 37.7847838], [-122.40697620000002, 37.7847765], [-122.4071554, 37.7846349], [-122.40734460000002, 37.7844854], [-122.4074257, 37.7844213], [-122.4073759, 37.784382], [-122.4074907, 37.7842913], [-122.4075453, 37.7842482], [-122.40764289999998, 37.784171], [-122.4076104, 37.7841454], [-122.4076973, 37.7840767], [-122.4077652, 37.784023], [-122.40779769999999, 37.7840487], [-122.4078754, 37.7839873], [-122.408072, 37.7838319], [-122.40825550000001, 37.78368690000001], [-122.4083053, 37.7837262], [-122.4081222, 37.7838713], [-122.4082602, 37.7839805], [-122.4084045, 37.7840948], [-122.40836980000002, 37.7841222], [-122.408333, 37.7841512], [-122.4082559, 37.7842121], [-122.40820789999998, 37.78425], [-122.4081398, 37.7841961], [-122.4080553, 37.7842628], [-122.40801490000001, 37.7842947], [-122.4079678, 37.784332], [-122.40789060000002, 37.784393], [-122.40784789999998, 37.7844267], [-122.4078096, 37.78445689999999], [-122.4077334, 37.7843967], [-122.406818, 37.78512], [-122.40686520000001, 37.785157300000016], [-122.40680949999998, 37.7852013], [-122.4066197, 37.7853513], [-122.4064749, 37.7854657], [-122.4064278, 37.7854285], [-122.40638460000001, 37.7854627], [-122.40639770000001, 37.7854731], [-122.4063828, 37.7854849], [-122.40636779999998, 37.7854967], [-122.40635459999999, 37.7854863], [-122.40628740000001, 37.78553930000001], [-122.40625, 37.7855688], [-122.40617850000001, 37.7855123], [-122.4057613, 37.7858421], [-122.40588020000001, 37.7859361], [-122.40578780000001, 37.786009], [-122.4056334, 37.7861311], [-122.4055863, 37.7860939], [-122.4057408, 37.7859718], [-122.4057656, 37.7859522], [-122.4056936, 37.7858953], [-122.40549050000001, 37.7860559], [-122.405436, 37.7860951], [-122.4053775, 37.7861304], [-122.40531520000002, 37.7861616], [-122.4052497, 37.7861883], [-122.40518150000001, 37.7862103], [-122.4051112, 37.78622749999999], [-122.4050391, 37.78623970000002], [-122.404966, 37.7862468], [-122.405076, 37.7861606], [-122.4051512, 37.7861432], [-122.405212, 37.7861235], [-122.4052704, 37.7860997], [-122.4053259, 37.786072], [-122.40537820000002, 37.78604039999998], [-122.4054243, 37.7860036]]]}}, {"id": "112", "type": "Feature", "properties": {"building_id": "172250599", "area_m2": 779.4141444504418}, "geometry": {"type": "Polygon", "coordinates": [[[-122.4051821, 37.789012], [-122.40479650000002, 37.7890597], [-122.404756, 37.788859], [-122.40514370000001, 37.78880989999998], [-122.4051821, 37.789012]]]}}, {"id": "113", "type": "Feature", "properties": {"building_id": "184956226", "area_m2": 6709.4836954867515}, "geometry": {"type": "Polygon", "coordinates": [[[-122.4065043, 37.7874911], [-122.40635570000002, 37.7867485], [-122.40631670000002, 37.7865533], [-122.4062427, 37.7861833], [-122.4061352, 37.7856571], [-122.40625, 37.7855688], [-122.40628740000001, 37.78553930000001], [-122.40644850000001, 37.785666699999986], [-122.4067873, 37.785620399999985], [-122.4068074, 37.7856999], [-122.4065338, 37.785734199999986], [-122.40656690000002, 37.785760299999986], [-122.406575, 37.7857961], [-122.4065104, 37.7858051], [-122.40638639999999, 37.7858225], [-122.40637820000002, 37.7857862], [-122.4065029, 37.7857688], [-122.40646940000002, 37.7857423], [-122.40632369999999, 37.7857605], [-122.40640350000001, 37.7861638], [-122.4064763, 37.78653160000001], [-122.4065152, 37.7867286], [-122.4066619, 37.787470099999986], [-122.4066843, 37.7876097], [-122.4073072, 37.7875324], [-122.40735210000001, 37.7877639], [-122.4067889, 37.787835], [-122.40689340000002, 37.78838020000001], [-122.4066953, 37.7884104], [-122.4065043, 37.7874911]]]}}, {"id": "114", "type": "Feature", "properties": {"building_id": "225599508", "area_m2": 544.5811044820895}, "geometry": {"type": "Polygon", "coordinates": [[[-122.4093331, 37.7849633], [-122.409037, 37.7850004], [-122.4090001, 37.7848168], [-122.4092963, 37.7847797], [-122.4093331, 37.7849633]]]}}, {"id": "115", "type": "Feature", "properties": {"building_id": "256029751", "area_m2": 1559.5609444097624}, "geometry": {"type": "Polygon", "coordinates": [[[-122.4064915, 37.7850262], [-122.4062984, 37.7851864], [-122.4061543, 37.7850746], [-122.4059409, 37.7849039], [-122.40581510000001, 37.7848055], [-122.40581489999998, 37.7847788], [-122.4058141, 37.7846286], [-122.4058827, 37.7845768], [-122.40632630000002, 37.7849358], [-122.40635, 37.7849167], [-122.4064915, 37.7850262]]]}}, {"id": "116", "type": "Feature", "properties": {"building_id": "256029754", "area_m2": 2615.297342407137}, "geometry": {"type": "Polygon", "coordinates": [[[-122.4054672, 37.78528], [-122.40550709999998, 37.7852503], [-122.4055905, 37.78518369999998], [-122.4058202, 37.7850003], [-122.4059409, 37.7849039], [-122.4061543, 37.7850746], [-122.4062984, 37.7851864], [-122.405831, 37.78556240000001], [-122.4054672, 37.78528]]]}}, {"id": "117", "type": "Feature", "properties": {"building_id": "256029755", "area_m2": 2006.2813244634617}, "geometry": {"type": "Polygon", "coordinates": [[[-122.4058202, 37.7850003], [-122.4055905, 37.78518369999998], [-122.40550709999998, 37.7852503], [-122.4054439, 37.7852009], [-122.40539810000001, 37.7852375], [-122.4053562, 37.7852047], [-122.4051892, 37.78507410000001], [-122.4053967, 37.7849083], [-122.405685, 37.784678], [-122.40581489999998, 37.7847788], [-122.40581510000001, 37.7848055], [-122.4059409, 37.7849039], [-122.4058202, 37.7850003]]]}}, {"id": "118", "type": "Feature", "properties": {"building_id": "256037007", "area_m2": 202.0849347101163}, "geometry": {"type": "Polygon", "coordinates": [[[-122.4051098, 37.7873575], [-122.40537830000001, 37.78732530000002], [-122.4053928, 37.7874006], [-122.4051243, 37.7874328], [-122.4051098, 37.7873575]]]}}, {"id": "119", "type": "Feature", "properties": {"building_id": "256037008", "area_m2": 194.81386201847678}, "geometry": {"type": "Polygon", "coordinates": [[[-122.40509590000002, 37.7872849], [-122.4053644, 37.7872527], [-122.40537830000001, 37.78732530000002], [-122.4051098, 37.7873575], [-122.40509590000002, 37.7872849]]]}}, {"id": "120", "type": "Feature", "properties": {"building_id": "256037010", "area_m2": 193.34582228928622}, "geometry": {"type": "Polygon", "coordinates": [[[-122.4051396, 37.7875124], [-122.4054081, 37.7874801], [-122.40542189999998, 37.7875522], [-122.4051534, 37.7875844], [-122.4051396, 37.7875124]]]}}, {"id": "121", "type": "Feature", "properties": {"building_id": "256037011", "area_m2": 213.49225795576322}, "geometry": {"type": "Polygon", "coordinates": [[[-122.4051243, 37.7874328], [-122.4053928, 37.7874006], [-122.4054081, 37.7874801], [-122.4051396, 37.7875124], [-122.4051243, 37.7874328]]]}}, {"id": "122", "type": "Feature", "properties": {"building_id": "256037015", "area_m2": 1106.1006700738037}, "geometry": {"type": "Polygon", "coordinates": [[[-122.4078874, 37.7850225], [-122.4078474, 37.7848284], [-122.408081, 37.7848012], [-122.4080772, 37.784781], [-122.4081363, 37.7847741], [-122.4081443, 37.7848169], [-122.4083555, 37.7847923], [-122.4084554, 37.7847807], [-122.4084844, 37.7849523], [-122.40819349999998, 37.7849865], [-122.4078874, 37.7850225]]]}}, {"id": "123", "type": "Feature", "properties": {"building_id": "256049899", "area_m2": 340.32125102455774}, "geometry": {"type": "Polygon", "coordinates": [[[-122.4108594, 37.7850272], [-122.4108154, 37.7848282], [-122.4109853, 37.78480480000001], [-122.41102930000001, 37.7850037], [-122.4108594, 37.7850272]]]}}, {"id": "124", "type": "Feature", "properties": {"building_id": "256049908", "area_m2": 500.78391462182867}, "geometry": {"type": "Polygon", "coordinates": [[[-122.41056390000001, 37.7850679], [-122.4104958, 37.7847594], [-122.410657, 37.7847372], [-122.41068120000001, 37.7848467], [-122.4107252, 37.7850457], [-122.41056390000001, 37.7850679]]]}}, {"id": "125", "type": "Feature", "properties": {"building_id": "256917319", "area_m2": 135.52123385436815}, "geometry": {"type": "Polygon", "coordinates": [[[-122.4055266, 37.78823629999999], [-122.405656, 37.7882201], [-122.4056769, 37.7883247], [-122.40554750000001, 37.7883409], [-122.40554590000002, 37.788332699999984], [-122.4055266, 37.78823629999999]]]}}, {"id": "126", "type": "Feature", "properties": {"building_id": "256917321", "area_m2": 345.25415119227563}, "geometry": {"type": "Polygon", "coordinates": [[[-122.4063868, 37.7882984], [-122.4063753, 37.7882409], [-122.406481, 37.7882277], [-122.4064761, 37.7882031], [-122.40637040000001, 37.7882163], [-122.40635370000001, 37.7881329], [-122.4065778, 37.7881049], [-122.4066109, 37.7882703], [-122.4063868, 37.7882984]]]}}, {"id": "127", "type": "Feature", "properties": {"building_id": "256917324", "area_m2": 778.7924446116774}, "geometry": {"type": "Polygon", "coordinates": [[[-122.4061867, 37.788495], [-122.4061564, 37.7883433], [-122.4061486, 37.7883044], [-122.4061201, 37.7881621], [-122.40635370000001, 37.7881329], [-122.40637040000001, 37.7882163], [-122.4063753, 37.7882409], [-122.4063868, 37.7882984], [-122.4064053, 37.78839030000002], [-122.4064204, 37.7884658], [-122.4061867, 37.788495]]]}}, {"id": "128", "type": "Feature", "properties": {"building_id": "256917327", "area_m2": 1291.4390841174259}, "geometry": {"type": "Polygon", "coordinates": [[[-122.40571279999999, 37.7881118], [-122.4052593, 37.7881681], [-122.40522379999999, 37.787987], [-122.4053703, 37.7879688], [-122.40533989999999, 37.7878158], [-122.4056463, 37.7877774], [-122.40571279999999, 37.7881118]]]}}, {"id": "129", "type": "Feature", "properties": {"building_id": "256917329", "area_m2": 270.52015075214706}, "geometry": {"type": "Polygon", "coordinates": [[[-122.40580550000001, 37.7877577], [-122.4058869, 37.7877505], [-122.4059552, 37.7880827], [-122.4058738, 37.788092], [-122.40580550000001, 37.7877577]]]}}, {"id": "130", "type": "Feature", "properties": {"building_id": "256917333", "area_m2": 279.4365176578556}, "geometry": {"type": "Polygon", "coordinates": [[[-122.405592, 37.7885694], [-122.4055622, 37.7884205], [-122.4055493, 37.7883558], [-122.40567989999998, 37.7883395], [-122.40572270000001, 37.788553], [-122.405592, 37.7885694]]]}}, {"id": "131", "type": "Feature", "properties": {"building_id": "256917336", "area_m2": 236.8712158519702}, "geometry": {"type": "Polygon", "coordinates": [[[-122.406032, 37.787733], [-122.4060708, 37.7879166], [-122.4061019, 37.7880637], [-122.4060298, 37.7880731], [-122.4059614, 37.787741], [-122.406032, 37.787733]]]}}, {"id": "132", "type": "Feature", "properties": {"building_id": "256917346", "area_m2": 595.283129497961}, "geometry": {"type": "Polygon", "coordinates": [[[-122.405927, 37.788356], [-122.406004, 37.7883464], [-122.4059709, 37.7881808], [-122.4061201, 37.7881621], [-122.4061486, 37.7883044], [-122.4060685, 37.7883144], [-122.4060763, 37.7883533], [-122.4061564, 37.7883433], [-122.4061867, 37.788495], [-122.4060724, 37.7885093], [-122.40596050000002, 37.7885233], [-122.405927, 37.788356]]]}}, {"id": "133", "type": "Feature", "properties": {"building_id": "260162815", "area_m2": 251.77966027160463}, "geometry": {"type": "Polygon", "coordinates": [[[-122.4095771, 37.7851113], [-122.4096028, 37.785108], [-122.409783, 37.7850843], [-122.4098721, 37.7850726], [-122.40987689999999, 37.78509540000002], [-122.4098884, 37.7851502], [-122.40989, 37.7851576], [-122.40959510000002, 37.7851964], [-122.4095771, 37.7851113]]]}}, {"id": "134", "type": "Feature", "properties": {"building_id": "260162817", "area_m2": 444.07003185833753}, "geometry": {"type": "Polygon", "coordinates": [[[-122.4096028, 37.785108], [-122.40959990000002, 37.7850945], [-122.4095785, 37.78509729999998], [-122.4095377, 37.7849035], [-122.4095592, 37.7849007], [-122.409555, 37.7848812], [-122.40970910000001, 37.7848614], [-122.4097156, 37.7848905], [-122.4097415, 37.784887099999985], [-122.40974459999998, 37.7849016], [-122.409783, 37.7850843], [-122.4096028, 37.785108]]]}}, {"id": "135", "type": "Feature", "properties": {"building_id": "260162821", "area_m2": 347.7281953772322}, "geometry": {"type": "Polygon", "coordinates": [[[-122.40984749999998, 37.784955], [-122.4100303, 37.784931], [-122.41005140000001, 37.7850311], [-122.4100397, 37.7850326], [-122.4100481, 37.7850727], [-122.41005980000001, 37.7850712], [-122.4100714, 37.785126199999986], [-122.4098884, 37.7851502], [-122.40987689999999, 37.78509540000002], [-122.4098895, 37.7850937], [-122.40987950000002, 37.7850463], [-122.409867, 37.7850479], [-122.40984749999998, 37.784955]]]}}, {"id": "136", "type": "Feature", "properties": {"building_id": "260162828", "area_m2": 244.3917866956179}, "geometry": {"type": "Polygon", "coordinates": [[[-122.41068120000001, 37.7848467], [-122.4107672, 37.7848349], [-122.4108032, 37.7848299], [-122.4108472, 37.7850289], [-122.4107252, 37.7850457], [-122.41068120000001, 37.7848467]]]}}, {"id": "137", "type": "Feature", "properties": {"building_id": "260162834", "area_m2": 157.88899201657654}, "geometry": {"type": "Polygon", "coordinates": [[[-122.409783, 37.7850843], [-122.40974459999998, 37.7849016], [-122.409817, 37.7848921], [-122.4098242, 37.784926], [-122.4098409, 37.7849238], [-122.40984749999998, 37.784955], [-122.409867, 37.7850479], [-122.4098721, 37.7850726], [-122.409783, 37.7850843]]]}}, {"id": "138", "type": "Feature", "properties": {"building_id": "274592034", "area_m2": 692.0039257136282}, "geometry": {"type": "Polygon", "coordinates": [[[-122.409538, 37.7871052], [-122.4097545, 37.7870766], [-122.4096965, 37.7867963], [-122.4095881, 37.7868103], [-122.4095852, 37.78679589999999], [-122.4094209, 37.7868172], [-122.40942370000002, 37.78683070000001], [-122.40939779999998, 37.7868342], [-122.4094132, 37.7869089], [-122.409498, 37.7868987], [-122.409538, 37.7871052]]]}}, {"id": "139", "type": "Feature", "properties": {"building_id": "274592035", "area_m2": 254.76311298632527}, "geometry": {"type": "Polygon", "coordinates": [[[-122.40945560000002, 37.787115], [-122.40936689999998, 37.7871264], [-122.4093507, 37.7870478], [-122.40932410000002, 37.786919], [-122.4093142, 37.7868707], [-122.409306, 37.786831], [-122.4093389, 37.7868268], [-122.40934190000002, 37.7868414], [-122.40939779999998, 37.7868342], [-122.4094132, 37.7869089], [-122.40945560000002, 37.787115]]]}}, {"id": "140", "type": "Feature", "properties": {"building_id": "274592036", "area_m2": 172.5199969998327}, "geometry": {"type": "Polygon", "coordinates": [[[-122.409538, 37.7871052], [-122.40945560000002, 37.787115], [-122.4094132, 37.7869089], [-122.409498, 37.7868987], [-122.409538, 37.7871052]]]}}, {"id": "141", "type": "Feature", "properties": {"building_id": "288512967", "area_m2": 3639.106276739518}, "geometry": {"type": "Polygon", "coordinates": [[[-122.4093331, 37.7849633], [-122.4093513, 37.7850562], [-122.409354, 37.785058], [-122.40935390000001, 37.7850569], [-122.4093607, 37.7850612], [-122.4093674, 37.7850837], [-122.4093602, 37.7850908], [-122.4093613, 37.785096], [-122.4093709, 37.7851014], [-122.4093744, 37.7851232], [-122.4093666, 37.7851292], [-122.4093665, 37.7851287], [-122.4093601, 37.7851362], [-122.4093685, 37.7851358], [-122.4093682, 37.7851342], [-122.40937990000002, 37.7851402], [-122.4093842, 37.78516170000001], [-122.409376, 37.7851686], [-122.40937649999998, 37.7851712], [-122.4093864, 37.7851777], [-122.4093924, 37.7852088], [-122.40938480000001, 37.7852168], [-122.40938459999998, 37.7852155], [-122.409383, 37.785218], [-122.40938450000002, 37.785218], [-122.40937730000002, 37.7852258], [-122.409347, 37.7852291], [-122.40933959999998, 37.7852236], [-122.40933839999998, 37.7852238], [-122.4093298, 37.7852311], [-122.4093048, 37.7852341], [-122.4093, 37.785228], [-122.409308, 37.785227], [-122.409305, 37.7852171], [-122.4092985, 37.7852228], [-122.40929830000002, 37.785222], [-122.4092907, 37.7852303], [-122.40928990000002, 37.7852304], [-122.40928520000001, 37.7852364], [-122.40926279999998, 37.785239], [-122.4092549, 37.7852348], [-122.40924850000002, 37.7852356], [-122.4092407, 37.785242], [-122.40922019999998, 37.7852446], [-122.40921040000002, 37.7852403], [-122.4092113, 37.7852401], [-122.40921059999998, 37.785237], [-122.4092076, 37.7852414], [-122.4092042, 37.7852419], [-122.40919760000001, 37.7852502], [-122.4091813, 37.7852524], [-122.40917039999998, 37.7852461], [-122.4091629, 37.785247], [-122.4091556, 37.7852554], [-122.4091383, 37.7852575], [-122.40912770000001, 37.7852508], [-122.40912440000001, 37.7852491], [-122.40912179999998, 37.785252], [-122.40911830000002, 37.7852525], [-122.4091128, 37.7852601], [-122.40909580000002, 37.7852626], [-122.4090853, 37.785257], [-122.4090752, 37.7852584], [-122.4090693, 37.7852668], [-122.4090535, 37.785269], [-122.4090447, 37.78526260000001], [-122.409044, 37.7852627], [-122.4090375, 37.7852595], [-122.40903659999998, 37.7852627], [-122.4090335, 37.78526320000002], [-122.4090267, 37.7852721], [-122.40901039999999, 37.7852741], [-122.4089994, 37.7852675], [-122.4089908, 37.7852686], [-122.4089832, 37.7852774], [-122.4089686, 37.7852785], [-122.4089595, 37.7852725], [-122.4089575, 37.7852728], [-122.4089521, 37.7852698], [-122.4089493, 37.7852735], [-122.408945, 37.7852793], [-122.4089209, 37.7852828], [-122.40891470000001, 37.7852788], [-122.4089067, 37.7852798], [-122.4089007, 37.7852852], [-122.4088797, 37.7852878], [-122.4088683, 37.7852813], [-122.4088689, 37.7852846], [-122.4088626, 37.7852854], [-122.4088559, 37.7852941], [-122.40884320000002, 37.7852957], [-122.4088317, 37.785289], [-122.408823, 37.7852901], [-122.4088168, 37.7852988], [-122.4088025, 37.7853003], [-122.4087931, 37.7852936], [-122.40879040000002, 37.7852939], [-122.40879019999998, 37.7852927], [-122.40877810000002, 37.7852862], [-122.4087771, 37.7852763], [-122.40878560000002, 37.7852678], [-122.40878450000001, 37.7852622], [-122.4087729, 37.7852546], [-122.4087719, 37.7852443], [-122.4087795, 37.7852351], [-122.4087789, 37.785232], [-122.40876880000002, 37.785227], [-122.4087662, 37.7852088], [-122.4087731, 37.7851988], [-122.408773, 37.7851965], [-122.40876289999999, 37.7851918], [-122.4087606, 37.785174], [-122.4087673, 37.7851655], [-122.4087671, 37.7851639], [-122.4087659, 37.7851633], [-122.4087527, 37.7851569], [-122.40875020000001, 37.7851437], [-122.40876, 37.7851342], [-122.4087589, 37.78512869999999], [-122.4087471, 37.78512279999999], [-122.4087447, 37.7851093], [-122.40875360000001, 37.78510210000001], [-122.40875689999999, 37.7850968], [-122.40875260000001, 37.7850942], [-122.4087527, 37.7850953], [-122.40873940000002, 37.785088400000014], [-122.40873670000002, 37.7850759], [-122.40874660000001, 37.7850667], [-122.408745, 37.7850606], [-122.4087327, 37.7850551], [-122.40873, 37.7850428], [-122.40873970000001, 37.7850342], [-122.4087436, 37.7850289], [-122.4087417, 37.7850277], [-122.408742, 37.7850292], [-122.4087255, 37.7850208], [-122.4087234, 37.7850085], [-122.4087328, 37.7849989], [-122.40873190000002, 37.7849944], [-122.4087185, 37.7849869], [-122.4087161, 37.7849744], [-122.4087246, 37.7849672], [-122.4087233, 37.7849674], [-122.40872149999998, 37.7849578], [-122.40871580000001, 37.7849555], [-122.408712, 37.7849375], [-122.40871669999999, 37.7849317], [-122.4087152, 37.7849239], [-122.4087089, 37.78492259999999], [-122.4087055, 37.784903], [-122.40871180000002, 37.7848964], [-122.40871090000002, 37.784892], [-122.4087022, 37.784887], [-122.40869890000002, 37.7848689], [-122.4087046, 37.784863], [-122.4087033, 37.7848573], [-122.4086952, 37.7848541], [-122.4086907, 37.784835], [-122.4086974, 37.78483], [-122.4086984, 37.78482839999999], [-122.4086972, 37.7848243], [-122.4086883, 37.7848196], [-122.40868450000002, 37.7848007], [-122.40869170000002, 37.784796], [-122.40868960000002, 37.7847899], [-122.408681, 37.7847873], [-122.4086784, 37.7847744], [-122.4086773, 37.7847658], [-122.40868390000001, 37.7847611], [-122.408683, 37.7847565], [-122.4086703, 37.7847511], [-122.4086677, 37.7847365], [-122.4086773, 37.784728], [-122.4086761, 37.7847227], [-122.40866329999999, 37.7847172], [-122.4086605, 37.7847022], [-122.40867049999999, 37.7846935], [-122.40866960000001, 37.7846888], [-122.4086561, 37.7846826], [-122.4086536, 37.7846685], [-122.4086637, 37.7846593], [-122.4086628, 37.7846545], [-122.4086493, 37.7846487], [-122.408647, 37.7846341], [-122.408657, 37.7846253], [-122.4086561, 37.784621], [-122.4086426, 37.784615], [-122.40864010000001, 37.784602], [-122.40865030000002, 37.7845917], [-122.40864950000001, 37.7845875], [-122.408649, 37.7845879], [-122.4086358, 37.7845814], [-122.4086313, 37.784558299999986], [-122.408648, 37.784538], [-122.4086877, 37.7845339], [-122.4086984, 37.7845404], [-122.4087033, 37.78453970000002], [-122.4087127, 37.7845298], [-122.40873580000002, 37.7845274], [-122.40874630000002, 37.7845342], [-122.40875380000001, 37.7845333], [-122.4087611, 37.7845239], [-122.40878410000002, 37.7845211], [-122.4087954, 37.7845278], [-122.40880180000002, 37.7845271], [-122.4088101, 37.7845172], [-122.4088372, 37.7845145], [-122.4088497, 37.7845209], [-122.4088466, 37.7845214], [-122.4088475, 37.7845219], [-122.408924, 37.784512], [-122.40923440000002, 37.7844721], [-122.40927320000002, 37.7846617], [-122.4089765, 37.7847016], [-122.4090001, 37.7848168], [-122.409037, 37.7850004], [-122.4093331, 37.7849633]]]}}, {"id": "142", "type": "Feature", "properties": {"building_id": "332223480", "area_m2": 858.2531511877893}, "geometry": {"type": "Polygon", "coordinates": [[[-122.4073766, 37.7887612], [-122.407309, 37.7887697], [-122.40710660000002, 37.7887949], [-122.4069947, 37.7888089], [-122.40695, 37.7885845], [-122.40701760000002, 37.7885761], [-122.4072845, 37.788542], [-122.4073307, 37.7885359], [-122.4073766, 37.7887612]]]}}, {"id": "143", "type": "Feature", "properties": {"building_id": "332374374", "area_m2": 1296.5967893420645}, "geometry": {"type": "Polygon", "coordinates": [[[-122.4099406, 37.7879756], [-122.4098896, 37.787982], [-122.409895, 37.7880042], [-122.4097677, 37.7880212], [-122.4096174, 37.7880413], [-122.409612, 37.7880191], [-122.40957040000002, 37.7880244], [-122.4095034, 37.7876842], [-122.4098239, 37.7876455], [-122.40982859999998, 37.7876661], [-122.4098722, 37.7876608], [-122.4099406, 37.7879756]]]}}, {"id": "144", "type": "Feature", "properties": {"building_id": "332375283", "area_m2": 820.071113226816}, "geometry": {"type": "Polygon", "coordinates": [[[-122.4098916, 37.7876577], [-122.4098722, 37.7876608], [-122.40982859999998, 37.7876661], [-122.4098239, 37.7876455], [-122.4095034, 37.7876842], [-122.4094329, 37.7876921], [-122.40939539999998, 37.7875066], [-122.4095335, 37.7874891], [-122.4095382, 37.7875119], [-122.40970520000002, 37.7874923], [-122.4097012, 37.7874722], [-122.4098323, 37.7874551], [-122.40985010000001, 37.78745270000001], [-122.4098916, 37.7876577]]]}}, {"id": "145", "type": "Feature", "properties": {"building_id": "332375981", "area_m2": 552.9537014837546}, "geometry": {"type": "Polygon", "coordinates": [[[-122.4098323, 37.7874551], [-122.40979319999998, 37.7872609], [-122.4094759, 37.7873035], [-122.4095036, 37.787454299999986], [-122.4096607, 37.7874355], [-122.4096696, 37.7874754], [-122.4098323, 37.7874551]]]}}, {"id": "146", "type": "Feature", "properties": {"building_id": "332376863", "area_m2": 232.9007828257824}, "geometry": {"type": "Polygon", "coordinates": [[[-122.4095036, 37.787454299999986], [-122.40934919999998, 37.7874726], [-122.4093189, 37.7873245], [-122.4094759, 37.7873035], [-122.4095036, 37.787454299999986]]]}}, {"id": "147", "type": "Feature", "properties": {"building_id": "332378158", "area_m2": 7271.332446949749}, "geometry": {"type": "Polygon", "coordinates": [[[-122.4095697, 37.7880582], [-122.4092895, 37.788094], [-122.409008, 37.78813], [-122.4085352, 37.7881904], [-122.40847630000002, 37.78790260000002], [-122.40846109999998, 37.7878285], [-122.4084312, 37.7876826], [-122.4084131, 37.7875942], [-122.40839719999998, 37.7875167], [-122.4083824, 37.7874443], [-122.408951, 37.7873716], [-122.4091215, 37.7873498], [-122.4092235, 37.7873367], [-122.4093189, 37.7873245], [-122.40934919999998, 37.7874726], [-122.409396, 37.78770140000001], [-122.4094945, 37.7876888], [-122.4095167, 37.7877977], [-122.4094539, 37.7878057], [-122.40948560000001, 37.7879608], [-122.40954809999998, 37.7879528], [-122.4095697, 37.7880582]]]}}, {"id": "148", "type": "Feature", "properties": {"building_id": "332384276", "area_m2": 668.7006374100338}, "geometry": {"type": "Polygon", "coordinates": [[[-122.4053661, 37.7859198], [-122.4052412, 37.7860119], [-122.4051902, 37.7859709], [-122.40512560000002, 37.785918899999984], [-122.4051692, 37.785885], [-122.404976, 37.785729799999984], [-122.40493, 37.7857656], [-122.4048246, 37.7856809], [-122.4049544, 37.7855819], [-122.4053661, 37.7859198]]]}}, {"id": "149", "type": "Feature", "properties": {"building_id": "332499923", "area_m2": 26.987633539221374}, "geometry": {"type": "Polygon", "coordinates": [[[-122.40813910000001, 37.7879768], [-122.40812940000002, 37.7879115], [-122.4080963, 37.7879236], [-122.4080759, 37.787931], [-122.4080783, 37.7879349], [-122.4080924, 37.787958], [-122.40811060000001, 37.787979], [-122.40811780000001, 37.7879874], [-122.40813910000001, 37.7879768]]]}}, {"id": "150", "type": "Feature", "properties": {"building_id": "332500661", "area_m2": 100.79274793559523}, "geometry": {"type": "Polygon", "coordinates": [[[-122.40800379999999, 37.78782769999999], [-122.40800419999998, 37.787791099999986], [-122.4080057, 37.7877844], [-122.40801120000002, 37.7877603], [-122.4080228, 37.7877316], [-122.4080365, 37.7876981], [-122.4080861, 37.78771290000001], [-122.40811060000001, 37.7878273], [-122.40800379999999, 37.78782769999999]]]}}, {"id": "151", "type": "Feature", "properties": {"building_id": "332520725", "area_m2": 194.58222680552603}, "geometry": {"type": "Polygon", "coordinates": [[[-122.40542189999998, 37.7875522], [-122.40543590000001, 37.7876247], [-122.40516740000001, 37.7876569], [-122.4051534, 37.7875844], [-122.40542189999998, 37.7875522]]]}}, {"id": "152", "type": "Feature", "properties": {"building_id": "332521036", "area_m2": 3892.5184272910533}, "geometry": {"type": "Polygon", "coordinates": [[[-122.40543590000001, 37.7876247], [-122.4064774, 37.7874924], [-122.4064026, 37.7871154], [-122.40552820000002, 37.7872327], [-122.4053951, 37.787249], [-122.4053644, 37.7872527], [-122.40537830000001, 37.78732530000002], [-122.4053928, 37.7874006], [-122.4054081, 37.7874801], [-122.40542189999998, 37.7875522], [-122.40543590000001, 37.7876247]]]}}, {"id": "153", "type": "Feature", "properties": {"building_id": "332627424", "area_m2": 24270.195528792465}, "geometry": {"type": "Polygon", "coordinates": [[[-122.4067213, 37.7837705], [-122.4067315, 37.7837786], [-122.4067807, 37.7837395], [-122.4069462, 37.7836074], [-122.40717170000002, 37.7834276], [-122.40749370000002, 37.7836878], [-122.40783720000002, 37.7839649], [-122.4077652, 37.784023], [-122.4076973, 37.7840767], [-122.4076104, 37.7841454], [-122.40751, 37.7842241], [-122.40709839999998, 37.7845485], [-122.4068833, 37.7847177], [-122.4068236, 37.7847647], [-122.406795, 37.7847872], [-122.40677520000001, 37.7848028], [-122.406527, 37.7850012], [-122.4064915, 37.7850262], [-122.40635, 37.7849167], [-122.4055278, 37.7842551], [-122.40540530000001, 37.7843513], [-122.4050316, 37.7840553], [-122.4055064, 37.7836797], [-122.4060811, 37.78322510000001], [-122.4061728, 37.7832994], [-122.40618320000002, 37.7832918], [-122.4064678, 37.783515500000014], [-122.4064312, 37.7835452], [-122.4067213, 37.7837705]]]}}, {"id": "154", "type": "Feature", "properties": {"building_id": "337652876", "area_m2": 381.6431177672574}, "geometry": {"type": "Polygon", "coordinates": [[[-122.4109216, 37.7874628], [-122.4110369, 37.7874479], [-122.41101360000002, 37.7873352], [-122.41100280000002, 37.7872827], [-122.41096869999998, 37.7871179], [-122.4108534, 37.7871328], [-122.4108984, 37.78735039999999], [-122.4109216, 37.7874628]]]}}, {"id": "155", "type": "Feature", "properties": {"building_id": "474354570", "area_m2": 535.9652483397854}, "geometry": {"type": "Polygon", "coordinates": [[[-122.4058738, 37.788092], [-122.40571279999999, 37.7881118], [-122.4056463, 37.7877774], [-122.40580550000001, 37.7877577], [-122.4058738, 37.788092]]]}}, {"id": "156", "type": "Feature", "properties": {"building_id": "585642018", "area_m2": 589.5095846077846}, "geometry": {"type": "Polygon", "coordinates": [[[-122.4086546, 37.7872166], [-122.40881839999999, 37.7871957], [-122.40874510000002, 37.7868395], [-122.40873079999999, 37.7868382], [-122.4085806, 37.7868577], [-122.4086062, 37.7869811], [-122.4086546, 37.7872166]]]}}, {"id": "157", "type": "Feature", "properties": {"building_id": "616479963", "area_m2": 25.916498623619056}, "geometry": {"type": "Polygon", "coordinates": [[[-122.40703080000002, 37.7880428], [-122.40705240000001, 37.7880428], [-122.4070511, 37.78807410000001], [-122.4070434, 37.78810780000001], [-122.407033, 37.788138], [-122.4070186, 37.78816840000002], [-122.40699890000002, 37.7881627], [-122.4070116, 37.7881331], [-122.4070246, 37.7881035], [-122.4070301, 37.7880738], [-122.40703080000002, 37.7880428]]]}}, {"id": "158", "type": "Feature", "properties": {"building_id": "616479964", "area_m2": 90.98286901866437}, "geometry": {"type": "Polygon", "coordinates": [[[-122.4069133, 37.7879734], [-122.40703329999998, 37.787944], [-122.4070175, 37.7879112], [-122.4069984, 37.787882], [-122.40697629999998, 37.78785580000001], [-122.40695049999998, 37.7878295], [-122.4068942, 37.7878685], [-122.40689709999998, 37.7878846], [-122.4069151, 37.787875], [-122.406966, 37.7879344], [-122.4069094, 37.7879522], [-122.4069133, 37.7879734]]]}}, {"id": "159", "type": "Feature", "properties": {"building_id": "616479965", "area_m2": 76.99833508310432}, "geometry": {"type": "Polygon", "coordinates": [[[-122.4076272, 37.7880807], [-122.4076222, 37.7881443], [-122.40758380000001, 37.7881545], [-122.40758370000002, 37.7881584], [-122.4075446, 37.7881637], [-122.4075429, 37.7881584], [-122.40750220000001, 37.78816], [-122.40747150000001, 37.7881014], [-122.4075008, 37.7881051], [-122.4075265, 37.7881054], [-122.4075525, 37.7881037], [-122.4075786, 37.7880986], [-122.4076033, 37.7880916], [-122.4076272, 37.7880807]]]}}, {"id": "160", "type": "Feature", "properties": {"building_id": "616479966", "area_m2": 33.30316614319637}, "geometry": {"type": "Polygon", "coordinates": [[[-122.4080031, 37.7877126], [-122.40801490000001, 37.7876917], [-122.4080365, 37.7876981], [-122.4080228, 37.7877316], [-122.40801120000002, 37.7877603], [-122.40800419999998, 37.787791099999986], [-122.40800379999999, 37.78782769999999], [-122.40797809999998, 37.7878277], [-122.40797809999998, 37.7878226], [-122.40797809999998, 37.7878181], [-122.4079785, 37.7878135], [-122.4079788, 37.7878093], [-122.407979, 37.7878041], [-122.4079797, 37.787798], [-122.40798049999998, 37.787792], [-122.40798129999999, 37.7877852], [-122.40798280000001, 37.7877774], [-122.40798409999998, 37.78776950000001], [-122.4079857, 37.7877633], [-122.407988, 37.7877548], [-122.4079964, 37.7877292], [-122.40799930000001, 37.78772110000001], [-122.4080031, 37.7877126]]]}}, {"id": "161", "type": "Feature", "properties": {"building_id": "616479967", "area_m2": 114.29712511893368}, "geometry": {"type": "Polygon", "coordinates": [[[-122.40812940000002, 37.7879115], [-122.4081258, 37.7878872], [-122.4080007, 37.7879056], [-122.4080035, 37.7879188], [-122.40800520000002, 37.7879247], [-122.4080073, 37.7879316], [-122.4080096, 37.7879388], [-122.4080128, 37.7879463], [-122.40801570000002, 37.787953], [-122.4080187, 37.7879598], [-122.408022, 37.7879667], [-122.40802540000001, 37.7879731], [-122.40802869999999, 37.7879791], [-122.4080334, 37.7879859], [-122.40803719999998, 37.787991799999986], [-122.4080424, 37.7879992], [-122.40804879999999, 37.7880073], [-122.4080557, 37.7880154], [-122.40806350000001, 37.7880239], [-122.40807070000001, 37.7880315], [-122.4080789, 37.7880394], [-122.4081432, 37.7880044], [-122.40813910000001, 37.7879768], [-122.40811780000001, 37.7879874], [-122.4080924, 37.787958], [-122.4080759, 37.787931], [-122.40812940000002, 37.7879115]]]}}, {"id": "162", "type": "Feature", "properties": {"building_id": "616479968", "area_m2": 135.3547947156542}, "geometry": {"type": "Polygon", "coordinates": [[[-122.4071948, 37.787712], [-122.4070101, 37.7877355], [-122.4069936, 37.7876543], [-122.40710790000001, 37.78763979999999], [-122.4071122, 37.7876609], [-122.4071452, 37.7876567], [-122.40718260000001, 37.787652], [-122.4071948, 37.787712]]]}}, {"id": "163", "type": "Feature", "properties": {"building_id": "700791868", "area_m2": 10426.9536082394}, "geometry": {"type": "Polygon", "coordinates": [[[-122.41117260000001, 37.7859447], [-122.41119930000002, 37.7859087], [-122.41112490000002, 37.7855598], [-122.4110456, 37.7851949], [-122.41080690000001, 37.7852273], [-122.41032720000001, 37.7852912], [-122.40964070000001, 37.7853765], [-122.4097875, 37.7861159], [-122.410472, 37.7860232], [-122.41117260000001, 37.7859447]]]}}, {"id": "164", "type": "Feature", "properties": {"building_id": "779012330", "area_m2": 353.3042930672112}, "geometry": {"type": "Polygon", "coordinates": [[[-122.407437, 37.7890118], [-122.40742860000002, 37.7890129], [-122.40740820000002, 37.7889163], [-122.4073766, 37.7887612], [-122.4073307, 37.7885359], [-122.4074042, 37.788526199999986], [-122.40747459999999, 37.7888693], [-122.4074839, 37.78891440000001], [-122.4075025, 37.7890032], [-122.407437, 37.7890118]]]}}, {"id": "165", "type": "Feature", "properties": {"building_id": "929589610", "area_m2": 283.27447857559156}, "geometry": {"type": "Polygon", "coordinates": [[[-122.4091924, 37.7886246], [-122.4091996, 37.7886687], [-122.4091149, 37.78867910000001], [-122.4090981, 37.7885997], [-122.4091163, 37.7885974], [-122.4090785, 37.788407], [-122.40905780000001, 37.7884096], [-122.40903859999999, 37.7883186], [-122.4091296, 37.7883068], [-122.4091924, 37.7886246]]]}}, {"id": "166", "type": "Feature", "properties": {"building_id": "937963043", "area_m2": 950.2300503934306}, "geometry": {"type": "Polygon", "coordinates": [[[-122.4101394, 37.7877497], [-122.4105905, 37.7876979], [-122.41058489999999, 37.7876675], [-122.4105659, 37.7875643], [-122.41056150000001, 37.7875408], [-122.41053410000002, 37.7873916], [-122.41033790000002, 37.78741389999998], [-122.4103689, 37.7875826], [-122.41011389999998, 37.7876119], [-122.4101394, 37.7877497]]]}}, {"id": "167", "type": "Feature", "properties": {"building_id": "937963046", "area_m2": 118.28561209042553}, "geometry": {"type": "Polygon", "coordinates": [[[-122.4110406, 37.78711], [-122.41096869999998, 37.7871179], [-122.41100280000002, 37.7872827], [-122.4110749, 37.7872733], [-122.4110406, 37.78711]]]}}, {"id": "168", "type": "Feature", "properties": {"building_id": "939463770", "area_m2": 275.0317261299386}, "geometry": {"type": "Polygon", "coordinates": [[[-122.40812020000001, 37.7862554], [-122.4081313, 37.7863136], [-122.4086118, 37.7862544], [-122.4086002, 37.7861981], [-122.4085721, 37.7862015], [-122.408474, 37.7862132], [-122.40823140000002, 37.7862421], [-122.40812020000001, 37.7862554]]]}}, {"id": "169", "type": "Feature", "properties": {"building_id": "939466397", "area_m2": 113.79602288190544}, "geometry": {"type": "Polygon", "coordinates": [[[-122.40653960000002, 37.7878841], [-122.4065304, 37.7878389], [-122.40627920000001, 37.78787089999999], [-122.40628850000002, 37.7879161], [-122.40653960000002, 37.7878841]]]}}, {"id": "170", "type": "Feature", "properties": {"building_id": "939466398", "area_m2": 65.02433653002196}, "geometry": {"type": "Polygon", "coordinates": [[[-122.4063127, 37.7880362], [-122.406274, 37.7880416], [-122.4062434, 37.7878942], [-122.40623960000002, 37.7878759], [-122.40627920000001, 37.78787089999999], [-122.4063127, 37.7880362]]]}}, {"id": "171", "type": "Feature", "properties": {"building_id": "939466399", "area_m2": 254.64362076072348}, "geometry": {"type": "Polygon", "coordinates": [[[-122.406274, 37.7880416], [-122.4061019, 37.7880637], [-122.4060708, 37.7879166], [-122.4062434, 37.7878942], [-122.406274, 37.7880416]]]}}, {"id": "172", "type": "Feature", "properties": {"building_id": "939466400", "area_m2": 267.6086541255439}, "geometry": {"type": "Polygon", "coordinates": [[[-122.4059709, 37.7881808], [-122.4058095, 37.7882009], [-122.4058427, 37.7883666], [-122.405927, 37.788356], [-122.406004, 37.7883464], [-122.4059709, 37.7881808]]]}}, {"id": "173", "type": "Feature", "properties": {"building_id": "939466401", "area_m2": 169.76300601561175}, "geometry": {"type": "Polygon", "coordinates": [[[-122.40662930000002, 37.7883623], [-122.4064053, 37.78839030000002], [-122.4064204, 37.7884658], [-122.40646580000002, 37.7884605], [-122.4066444, 37.7884378], [-122.40662930000002, 37.7883623]]]}}, {"id": "174", "type": "Feature", "properties": {"building_id": "939466402", "area_m2": 206.32200349178896}, "geometry": {"type": "Polygon", "coordinates": [[[-122.40662930000002, 37.7883623], [-122.4066109, 37.7882703], [-122.4063868, 37.7882984], [-122.4064053, 37.78839030000002], [-122.40662930000002, 37.7883623]]]}}, {"id": "175", "type": "Feature", "properties": {"building_id": "939466403", "area_m2": 187.60732000974681}, "geometry": {"type": "Polygon", "coordinates": [[[-122.40596050000002, 37.7885233], [-122.4058485, 37.7885373], [-122.40581729999998, 37.7883815], [-122.405815, 37.78837], [-122.4058427, 37.7883666], [-122.405927, 37.788356], [-122.40596050000002, 37.7885233]]]}}, {"id": "176", "type": "Feature", "properties": {"building_id": "939466404", "area_m2": 345.50295070898085}, "geometry": {"type": "Polygon", "coordinates": [[[-122.4058485, 37.7885373], [-122.40572270000001, 37.788553], [-122.40567989999998, 37.7883395], [-122.4056769, 37.7883247], [-122.405656, 37.7882201], [-122.40574010000002, 37.78820959999999], [-122.4057756, 37.7883867], [-122.40581729999998, 37.7883815], [-122.4058485, 37.7885373]]]}}, {"id": "177", "type": "Feature", "properties": {"building_id": "939466405", "area_m2": 119.91261213264892}, "geometry": {"type": "Polygon", "coordinates": [[[-122.4058427, 37.7883666], [-122.4058095, 37.7882009], [-122.40574010000002, 37.78820959999999], [-122.4057756, 37.7883867], [-122.40581729999998, 37.7883815], [-122.405815, 37.78837], [-122.4058427, 37.7883666]]]}}, {"id": "178", "type": "Feature", "properties": {"building_id": "939466406", "area_m2": 248.28947539150437}, "geometry": {"type": "Polygon", "coordinates": [[[-122.4060298, 37.7880731], [-122.4059552, 37.7880827], [-122.4058869, 37.7877505], [-122.4059614, 37.787741], [-122.4060298, 37.7880731]]]}}, {"id": "179", "type": "Feature", "properties": {"building_id": "939466407", "area_m2": 224.38584709178755}, "geometry": {"type": "Polygon", "coordinates": [[[-122.40533989999999, 37.7878158], [-122.40519340000002, 37.787834], [-122.40522379999999, 37.787987], [-122.4053703, 37.7879688], [-122.40533989999999, 37.7878158]]]}}, {"id": "180", "type": "Feature", "properties": {"building_id": "939466408", "area_m2": 141.0983014901547}, "geometry": {"type": "Polygon", "coordinates": [[[-122.4063991, 37.7888465], [-122.4064737, 37.7888371], [-122.4064349, 37.78864620000002], [-122.406362, 37.7886552], [-122.4063991, 37.7888465]]]}}, {"id": "181", "type": "Feature", "properties": {"building_id": "939467973", "area_m2": 249.96055135916694}, "geometry": {"type": "Polygon", "coordinates": [[[-122.40920720000001, 37.7882968], [-122.4091296, 37.7883068], [-122.4091924, 37.7886246], [-122.4092718, 37.7886148], [-122.40920720000001, 37.7882968]]]}}, {"id": "182", "type": "Feature", "properties": {"building_id": "939467974", "area_m2": 180.24601877509463}, "geometry": {"type": "Polygon", "coordinates": [[[-122.40868480000002, 37.7889198], [-122.4086733, 37.7888646], [-122.40899839999999, 37.7888221], [-122.4090099, 37.7888774], [-122.40868480000002, 37.7889198]]]}}, {"id": "183", "type": "Feature", "properties": {"building_id": "939467975", "area_m2": 363.10155855911125}, "geometry": {"type": "Polygon", "coordinates": [[[-122.40865060000002, 37.7887532], [-122.4086619, 37.788809], [-122.4086733, 37.7888646], [-122.40899839999999, 37.7888221], [-122.40898660000002, 37.7887659], [-122.40897829999999, 37.7887267], [-122.40897490000002, 37.7887106], [-122.40893350000002, 37.7887161], [-122.40865060000002, 37.7887532]]]}}, {"id": "184", "type": "Feature", "properties": {"building_id": "941560577", "area_m2": 411.862896902917}, "geometry": {"type": "Polygon", "coordinates": [[[-122.40827290000001, 37.7870238], [-122.40824790000002, 37.7869005], [-122.4085806, 37.7868577], [-122.4086062, 37.7869811], [-122.40827290000001, 37.7870238]]]}}, {"id": "185", "type": "Feature", "properties": {"building_id": "941560578", "area_m2": 703.6564372426672}, "geometry": {"type": "Polygon", "coordinates": [[[-122.40756459999999, 37.78563719999999], [-122.4073093, 37.78566820000001], [-122.40734130000001, 37.7858327], [-122.4073834, 37.78582759999998], [-122.4074104, 37.785966299999984], [-122.4074813, 37.7859577], [-122.4075949, 37.7859439], [-122.4075925, 37.785931499999975], [-122.4075868, 37.785902], [-122.4076154, 37.7858985], [-122.4075869, 37.7857521], [-122.40756459999999, 37.78563719999999]]]}}, {"id": "186", "type": "Feature", "properties": {"building_id": "941560579", "area_m2": 448.17521770881876}, "geometry": {"type": "Polygon", "coordinates": [[[-122.4071899, 37.78548940000001], [-122.4072569, 37.785481], [-122.4072198, 37.7852958], [-122.4069665, 37.7851006], [-122.4068821, 37.785169], [-122.4071702, 37.7853911], [-122.4071899, 37.78548940000001]]]}}, {"id": "187", "type": "Feature", "properties": {"building_id": "941560580", "area_m2": 222.56832665396277}, "geometry": {"type": "Polygon", "coordinates": [[[-122.4069665, 37.7851006], [-122.40703809999998, 37.7850468], [-122.40719640000002, 37.7851649], [-122.4072198, 37.7852958], [-122.4069665, 37.7851006]]]}}, {"id": "188", "type": "Feature", "properties": {"building_id": "941563171", "area_m2": 412.6187208275969}, "geometry": {"type": "Polygon", "coordinates": [[[-122.4089885, 37.7859469], [-122.40896749999999, 37.785848], [-122.40893960000001, 37.7857535], [-122.40887080000002, 37.7855959], [-122.408822, 37.7854762], [-122.40895720000002, 37.7854579], [-122.409031, 37.7858253], [-122.4090369, 37.7858526], [-122.4090078, 37.7858564], [-122.40902590000002, 37.785942], [-122.4089885, 37.7859469]]]}}, {"id": "189", "type": "Feature", "properties": {"building_id": "1222884511", "area_m2": 105.17514930958882}, "geometry": {"type": "Polygon", "coordinates": [[[-122.40657260000002, 37.7853142], [-122.4066197, 37.7853513], [-122.4064749, 37.7854657], [-122.4064278, 37.7854285], [-122.40657260000002, 37.7853142]]]}}, {"id": "190", "type": "Feature", "properties": {"building_id": "1261913582", "area_m2": 32.53520032859702}, "geometry": {"type": "Polygon", "coordinates": [[[-122.40753489999999, 37.7885091], [-122.4075314, 37.7884923], [-122.4075297, 37.7884843], [-122.407399, 37.7885014], [-122.4074007, 37.7885094], [-122.4074042, 37.788526199999986], [-122.40753489999999, 37.7885091]]]}}, {"id": "191", "type": "Feature", "properties": {"building_id": "1261920374", "area_m2": 681.2739907229351}, "geometry": {"type": "Polygon", "coordinates": [[[-122.40953249999998, 37.7883932], [-122.4097522, 37.7883658], [-122.4097596, 37.7884026], [-122.4098335, 37.7883934], [-122.4098741, 37.788597], [-122.4098387, 37.7886014], [-122.4095695, 37.7886345], [-122.4095652, 37.7886126], [-122.4095761, 37.788611199999984], [-122.40953249999998, 37.7883932]]]}}, {"id": "192", "type": "Feature", "properties": {"building_id": "1261984858", "area_m2": 381.20754884049427}, "geometry": {"type": "Polygon", "coordinates": [[[-122.4108534, 37.7871328], [-122.4107385, 37.7871477], [-122.4107618, 37.7872614], [-122.4107708, 37.787305], [-122.4107833, 37.7873661], [-122.41078779999998, 37.7873881], [-122.4107948, 37.7874223], [-122.4108062, 37.7874777], [-122.4109216, 37.7874628], [-122.4108984, 37.78735039999999], [-122.4108534, 37.7871328]]]}}, {"id": "193", "type": "Feature", "properties": {"building_id": "47dd53ed-fbee-4fbb-8b4f-ffd6e7a4fc4c", "area_m2": 1570.685545645121}, "geometry": {"type": "Polygon", "coordinates": [[[-122.41138890000002, 37.789323], [-122.4113177, 37.7889737], [-122.4108893, 37.7890282], [-122.41096680000001, 37.7894086], [-122.41115250000001, 37.789385], [-122.4111459, 37.7893526], [-122.41127340000001, 37.7893363], [-122.41127920000001, 37.7893651], [-122.4113324, 37.7893583], [-122.4113268, 37.7893309], [-122.41138890000002, 37.789323]]]}}, {"id": "194", "type": "Feature", "properties": {"building_id": "83955c81-eb25-4662-823b-4624374e30ea", "area_m2": 8561.68755902827}, "geometry": {"type": "Polygon", "coordinates": [[[-122.4050908, 37.7860485], [-122.40501340000002, 37.7859867], [-122.404967, 37.7860229], [-122.404903, 37.7859718], [-122.404855, 37.7860093], [-122.404791, 37.7859582], [-122.404731, 37.7860051], [-122.4045368, 37.78585], [-122.40411850000001, 37.7855159], [-122.4036536, 37.7851446], [-122.40384030000001, 37.7849986], [-122.40391920000002, 37.7849369], [-122.4039694, 37.7848976], [-122.4042, 37.7847173], [-122.404228, 37.7847397], [-122.404257, 37.784717], [-122.404287, 37.784741], [-122.404321, 37.7847144], [-122.4045881, 37.7849283], [-122.4046466, 37.7849751], [-122.4047654, 37.7850701], [-122.4048566, 37.7851431], [-122.40507580000002, 37.785319], [-122.4050968, 37.7853352], [-122.4047404, 37.7856134], [-122.40465460000001, 37.78568030000001], [-122.4046601, 37.7856847], [-122.4047037, 37.7857196], [-122.404879, 37.7858598], [-122.4049686, 37.7857899], [-122.40512560000002, 37.785918899999984], [-122.4051902, 37.7859709], [-122.4050908, 37.7860485]], [[-122.40393010000001, 37.7850702], [-122.40383049999998, 37.78514469999999], [-122.40406479999999, 37.7853313], [-122.40416209999998, 37.7852549], [-122.40393010000001, 37.7850702]]]}}]}