{"type": "FeatureCollection", "features": [{"id": "0", "type": "Feature", "properties": {"building_id": "180594", "area_m2": 13516.522057733822}, "geometry": {"type": "Polygon", "coordinates": [[[13.3923536, 52.5175043], [13.3923545, 52.5174985], [13.3922237, 52.5174907], [13.3922225, 52.517498199999984], [13.3918369, 52.5174752], [13.3918381, 52.5174675], [13.3916425, 52.5174558], [13.3914441, 52.517444], [13.3914429, 52.517451], [13.3910587, 52.517428], [13.3910605, 52.5174168], [13.3909287, 52.5174089], [13.3909272, 52.5174182], [13.3909053, 52.5174169], [13.3909036, 52.5174276], [13.3908902, 52.5174268], [13.3908767, 52.5175105], [13.3908911, 52.51751139999999], [13.3908603, 52.517702599999986], [13.3908071, 52.5176994], [13.3907905, 52.5178019], [13.3908129, 52.51780320000001], [13.3907933, 52.517925], [13.3907611, 52.5181244], [13.390737, 52.51812289999999], [13.3907229, 52.5182106], [13.3907385, 52.5182116], [13.3907057, 52.5184151], [13.3906899, 52.5184142], [13.3906772, 52.5184931], [13.3906904, 52.5184938], [13.3906885, 52.5185058], [13.390703, 52.5185066], [13.390665, 52.5187422], [13.3906507, 52.518831], [13.3906311, 52.5188298], [13.3906159, 52.5189238], [13.3906396, 52.5189252], [13.3906383, 52.5189332], [13.3907767, 52.5189414], [13.3907778, 52.5189344], [13.3912413, 52.518962], [13.391239, 52.5189768], [13.3913421, 52.5189829], [13.3913433, 52.518975], [13.391395, 52.5189781], [13.3914439, 52.518981], [13.3914423, 52.51899070000001], [13.3915411, 52.5189966], [13.3915431, 52.5189846], [13.3920085, 52.5190124], [13.392007, 52.5190219], [13.3921439, 52.5190301], [13.3921448, 52.5190243], [13.3921586, 52.5190251], [13.3921597, 52.519018], [13.3921695, 52.5190186], [13.3921845, 52.5189256], [13.3921655, 52.5189245], [13.3921881, 52.5187847], [13.3922169, 52.5186056], [13.3922392, 52.5186069], [13.3922405, 52.5185989], [13.3922525, 52.51859959999999], [13.3922664, 52.5185133], [13.3922561, 52.5185127], [13.392277, 52.5183835], [13.3922886, 52.5183114], [13.3923005, 52.5183122], [13.3923138, 52.5182292], [13.3922957, 52.5182281], [13.3922972, 52.5182185], [13.3922859, 52.5182178], [13.3923165, 52.5180277], [13.3923339, 52.5179199], [13.3923375, 52.51789789999999], [13.3923625, 52.5178994], [13.3923789, 52.517798], [13.3923279, 52.517795], [13.392359, 52.5176021], [13.3923712, 52.5176029], [13.3923847, 52.517519], [13.3923717, 52.5175182], [13.3923738, 52.5175056], [13.3923536, 52.5175043]], [[13.3918067, 52.5176233], [13.3918078, 52.5176169], [13.3920386, 52.5176317], [13.3919998, 52.5178554], [13.391703, 52.5178363], [13.3917056, 52.5178215], [13.3916595, 52.5178185], [13.3915815, 52.5178135], [13.3915143, 52.5178092], [13.3914561, 52.5178055], [13.3914534, 52.51782080000001], [13.3911568, 52.5178018], [13.3911957, 52.5175776], [13.3914252, 52.5175924], [13.3914241, 52.5175987], [13.3914482, 52.5176002], [13.3914473, 52.5176057], [13.3914758, 52.5176076], [13.3914768, 52.5176021], [13.3915508, 52.5176068], [13.3915499, 52.5176121], [13.3915788, 52.517614], [13.3915797, 52.5176087], [13.3916163, 52.517611], [13.3916512, 52.5176133], [13.3916503, 52.5176184], [13.3916788, 52.51762020000001], [13.3916797, 52.5176151], [13.3917552, 52.51762], [13.3917542, 52.5176253], [13.3917811, 52.517627], [13.391782, 52.5176217], [13.3918067, 52.5176233]], [[13.3922198, 52.5178416], [13.3922075, 52.5179219], [13.3920793, 52.5179146], [13.3920916, 52.517834399999984], [13.3922198, 52.5178416]], [[13.3913478, 52.5181146], [13.390957, 52.518091], [13.3909821, 52.5179378], [13.3913382, 52.5179594], [13.391326, 52.5180343], [13.3913606, 52.518036399999986], [13.3913478, 52.5181146]], [[13.3917686, 52.5179872], [13.3921309, 52.5180098], [13.3921052, 52.5181629], [13.3917288, 52.5181395], [13.3917421, 52.5180601], [13.3917562, 52.518061], [13.3917686, 52.5179872]], [[13.39091, 52.5184258], [13.3909408, 52.5182273], [13.3911875, 52.5182415], [13.3911567, 52.51844], [13.39091, 52.5184258]], [[13.3920477, 52.51849639999998], [13.3917884, 52.5184807], [13.3918203, 52.5182847], [13.3920796, 52.5183003], [13.3920477, 52.51849639999998]], [[13.3908854, 52.5185617], [13.3911366, 52.5185759], [13.3910945, 52.5188512], [13.3908433, 52.518837], [13.3908854, 52.5185617]], [[13.3919765, 52.5189093], [13.3917198, 52.5188934], [13.3917661, 52.51861679999998], [13.3920228, 52.5186326], [13.3919765, 52.5189093]]]}}, {"id": "1", "type": "Feature", "properties": {"building_id": "1734778", "area_m2": 567.9857670324352}, "geometry": {"type": "Polygon", "coordinates": [[[13.3893347, 52.5184263], [13.3892906, 52.5186813], [13.3896223, 52.5187025], [13.3896499, 52.51854260000001], [13.3896664, 52.5184476], [13.3893347, 52.5184263]], [[13.3894542, 52.5184707], [13.3895707, 52.5184792], [13.3895536, 52.5185661], [13.3894372, 52.5185576], [13.3894542, 52.5184707]]]}}, {"id": "2", "type": "Feature", "properties": {"building_id": "5886327", "area_m2": 1232.792105254184}, "geometry": {"type": "Polygon", "coordinates": [[[13.3882384, 52.5151464], [13.3882541, 52.5150552], [13.3882729, 52.5149459], [13.3882747, 52.5149352], [13.3882859, 52.5148705], [13.3882895, 52.5148492], [13.3882921, 52.5148344], [13.3882942, 52.5148221], [13.3882973, 52.5148038], [13.3882263, 52.5147993], [13.3879967, 52.5147847], [13.3877543, 52.51476919999999], [13.3876858, 52.5147646], [13.3876562, 52.5147626], [13.3876302, 52.5147609], [13.3875992, 52.5147589], [13.3875716, 52.5147566], [13.3875685, 52.5147745], [13.3875664, 52.5147881], [13.3875636, 52.5148029], [13.3875488, 52.5148888], [13.3876043, 52.5148926], [13.3876071, 52.5148926], [13.3876629, 52.5148962], [13.3877983, 52.5149049], [13.3877786, 52.5150195], [13.3878483, 52.5150239], [13.3878428, 52.51505610000001], [13.3878372, 52.5150882], [13.3879033, 52.5150925], [13.3878974, 52.5151249], [13.3882384, 52.5151464]], [[13.387988, 52.5149169], [13.3881633, 52.5149281], [13.3881381, 52.5150748], [13.3879628, 52.5150637], [13.387988, 52.5149169]]]}}, {"id": "3", "type": "Feature", "properties": {"building_id": "5886330", "area_m2": 1447.495901300788}, "geometry": {"type": "Polygon", "coordinates": [[[13.3875716, 52.515448599999985], [13.3875708, 52.515453], [13.3875933, 52.5154544], [13.3876146, 52.5154557], [13.3876154, 52.5154513], [13.3877357, 52.5154586], [13.3877351, 52.5154616], [13.3877736, 52.515464], [13.3878196, 52.5154667], [13.3878202, 52.5154638], [13.3878395, 52.51546470000001], [13.3878431, 52.5154437], [13.3878611, 52.51533830000001], [13.3878849, 52.5151984], [13.3878862, 52.515191], [13.3878974, 52.5151249], [13.3879033, 52.5150925], [13.3878372, 52.5150882], [13.3878428, 52.51505610000001], [13.3878483, 52.5150239], [13.3877786, 52.5150195], [13.3875288, 52.5150051], [13.3875197, 52.5150578], [13.3874192, 52.5150514], [13.387357, 52.5154227], [13.3873555, 52.5154301], [13.3873673, 52.5154308], [13.3873668, 52.515436], [13.3873751, 52.5154366], [13.3873746, 52.5154397], [13.3874102, 52.5154418], [13.3874506, 52.5154443], [13.3874512, 52.5154412], [13.3875716, 52.515448599999985]], [[13.3874731, 52.5153016], [13.3874753, 52.5152895], [13.3874122, 52.5152853], [13.3874217, 52.5152318], [13.3875314, 52.515239], [13.3875197, 52.5153046], [13.3874731, 52.5153016]], [[13.3877255, 52.5153182], [13.3877374, 52.5152514], [13.3878397, 52.51525809999998], [13.3878278, 52.515325], [13.3877255, 52.5153182]]]}}, {"id": "4", "type": "Feature", "properties": {"building_id": "7944385", "area_m2": 1286.2858708269532}, "geometry": {"type": "Polygon", "coordinates": [[[13.3907063, 52.5161363], [13.3907209, 52.5160584], [13.390736, 52.5159782], [13.390757, 52.515856], [13.3903105, 52.5158275], [13.3902408, 52.51623219999998], [13.3906849, 52.5162605], [13.3907063, 52.5161363]], [[13.3903424, 52.5159709], [13.3904405, 52.5159762], [13.3904222, 52.516095800000016], [13.3903241, 52.5160903], [13.3903424, 52.5159709]]]}}, {"id": "5", "type": "Feature", "properties": {"building_id": "9446808", "area_m2": 1460.6720418041978}, "geometry": {"type": "Polygon", "coordinates": [[[13.3869176, 52.5147338], [13.3869135, 52.51475760000002], [13.3868604, 52.5150656], [13.3874107, 52.5151007], [13.3874192, 52.5150514], [13.3875197, 52.5150578], [13.3875288, 52.5150051], [13.3875339, 52.514975599999985], [13.3875488, 52.5148888], [13.3875636, 52.5148029], [13.3875685, 52.5147745], [13.3875716, 52.5147566], [13.387275, 52.5147376], [13.3870992, 52.5147264], [13.3869208, 52.514715], [13.3869176, 52.5147338]], [[13.387076, 52.514860699999986], [13.3872519, 52.514872], [13.3873099, 52.5148757], [13.3873035, 52.51491269999999], [13.3872865, 52.5150118], [13.3870526, 52.5149969], [13.387076, 52.514860699999986]]]}}, {"id": "6", "type": "Feature", "properties": {"building_id": "14488485", "area_m2": 1225.196512225215}, "geometry": {"type": "Polygon", "coordinates": [[[13.386322, 52.5171179], [13.3861113, 52.5171047], [13.3860428, 52.5175094], [13.3860764, 52.5175111], [13.3861582, 52.5175164], [13.3862319, 52.5175206], [13.3863662, 52.517529], [13.3864898, 52.5175372], [13.3864989, 52.5174852], [13.3865203, 52.5173601], [13.3865323, 52.5172876], [13.3865588, 52.51713250000001], [13.386322, 52.5171179]], [[13.3863084, 52.51726870000001], [13.386356, 52.5172716], [13.3863574, 52.5172647], [13.386411, 52.5172675], [13.3864318, 52.5172847], [13.3864009, 52.5174401], [13.3862822, 52.51743109999999], [13.3863084, 52.51726870000001]]]}}, {"id": "7", "type": "Feature", "properties": {"building_id": "24044883", "area_m2": 5390.99970915417}, "geometry": {"type": "Polygon", "coordinates": [[[13.3887332, 52.5165821], [13.3887372, 52.5165569], [13.3886654, 52.5165527], [13.3886681, 52.5165361], [13.388739, 52.51654029999999], [13.3888225, 52.5160186], [13.3888563, 52.5158075], [13.388778, 52.515750799999985], [13.3885981, 52.5157395], [13.3882307, 52.515719], [13.3876553, 52.5156843], [13.3876019, 52.5160175], [13.3876612, 52.516021], [13.3876521, 52.516078], [13.3879795, 52.516097399999985], [13.3879882, 52.5160428], [13.3881014, 52.5160495], [13.3880951, 52.516089], [13.3884403, 52.5161094], [13.3884341, 52.5161482], [13.3884036, 52.5161464], [13.3883846, 52.5162653], [13.3884197, 52.5162674], [13.3883844, 52.5164879], [13.388375, 52.5165464], [13.3883031, 52.51654209999999], [13.3883052, 52.51652859999999], [13.3881372, 52.5165186], [13.3880883, 52.5165157], [13.3880627, 52.5166753], [13.3883528, 52.5166925], [13.3886277, 52.5167093], [13.3887121, 52.5167138], [13.3887214, 52.516656], [13.3887292, 52.5166073], [13.3887332, 52.5165821]]]}}, {"id": "8", "type": "Feature", "properties": {"building_id": "24246950", "area_m2": 1503.04209278808}, "geometry": {"type": "Polygon", "coordinates": [[[13.3861857, 52.5186485], [13.3862384, 52.5186519], [13.3862395, 52.5186456], [13.3862934, 52.518649], [13.3862923, 52.5186554], [13.3866483, 52.5186784], [13.3866493, 52.518673], [13.386705, 52.5186766], [13.386704, 52.518682], [13.3867999, 52.5186882], [13.3868509, 52.5186915], [13.3868369, 52.5187738], [13.3866861, 52.5187643], [13.3866462, 52.5189986], [13.3863054, 52.5189771], [13.3862887, 52.5190755], [13.3862384, 52.5190723], [13.3862334, 52.5191016], [13.3861102, 52.5190939], [13.3861857, 52.5186485]]]}}, {"id": "9", "type": "Feature", "properties": {"building_id": "24247016", "area_m2": 1039.3934955105299}, "geometry": {"type": "Polygon", "coordinates": [[[13.3884334, 52.5186234], [13.3884367, 52.5186042], [13.3884512, 52.5185201], [13.3884982, 52.5182464], [13.3885212, 52.5181128], [13.3884891, 52.5181108], [13.3882545, 52.5180958], [13.3882076, 52.5183684], [13.3881667, 52.5186064], [13.3883662, 52.5186191], [13.3883734, 52.5186196], [13.3884334, 52.5186234]]]}}, {"id": "10", "type": "Feature", "properties": {"building_id": "24247021", "area_m2": 4517.36908002693}, "geometry": {"type": "Polygon", "coordinates": [[[13.3868346, 52.5183696], [13.3868967, 52.5180089], [13.3872547, 52.5180321], [13.3875076, 52.51804820000001], [13.3876348, 52.5180562], [13.387703, 52.5180606], [13.3877786, 52.5180655], [13.3879033, 52.5180734], [13.3881762, 52.5180908], [13.3882545, 52.5180958], [13.3882076, 52.5183684], [13.3881667, 52.5186064], [13.3879574, 52.5185933], [13.3874854, 52.518563], [13.3875112, 52.5184127], [13.3874523, 52.518409], [13.3872808, 52.5183978], [13.3871294, 52.5183886], [13.3868346, 52.5183696]]]}}, {"id": "11", "type": "Feature", "properties": {"building_id": "24247065", "area_m2": 426.0437191192797}, "geometry": {"type": "Polygon", "coordinates": [[[13.3888698, 52.5186544], [13.3888967, 52.5184985], [13.3892547, 52.5185214], [13.3892278, 52.5186773], [13.3889196, 52.5186576], [13.3888698, 52.5186544]]]}}, {"id": "12", "type": "Feature", "properties": {"building_id": "24247420", "area_m2": 1231.8002432992073}, "geometry": {"type": "Polygon", "coordinates": [[[13.3923333, 52.5169421], [13.3923585, 52.51678170000001], [13.3923597, 52.5167741], [13.3925041, 52.5167825], [13.3927543, 52.5167971], [13.3929647, 52.5168093], [13.3930907, 52.5168166], [13.3930851, 52.51685220000001], [13.3932708, 52.516863], [13.3932476, 52.517011], [13.392793, 52.5169846], [13.3923308, 52.5169576], [13.3923333, 52.5169421]]]}}, {"id": "13", "type": "Feature", "properties": {"building_id": "24247456", "area_m2": 2156.7775709617686}, "geometry": {"type": "Polygon", "coordinates": [[[13.3932259, 52.516017], [13.3932233, 52.5160439], [13.3931765, 52.5160759], [13.3931149, 52.5161334], [13.3930726, 52.5161863], [13.3930463, 52.5162316], [13.3930283, 52.5162768], [13.3930199, 52.5163273], [13.3928579, 52.5163159], [13.3928441, 52.5164079], [13.3928282, 52.5165054], [13.3929825, 52.5165161], [13.3929794, 52.5165786], [13.3929865, 52.5166413], [13.3930062, 52.5166964], [13.3930378, 52.5167531], [13.3930679, 52.5167893], [13.3930907, 52.5168166], [13.3930851, 52.51685220000001], [13.3932708, 52.516863], [13.3932823, 52.5168637], [13.393303, 52.5168786], [13.3933568, 52.51684549999999], [13.393341, 52.5168336], [13.39336, 52.5168166], [13.393366, 52.5168012], [13.3933666, 52.5167779], [13.3933559, 52.5167566], [13.3933778, 52.5167478], [13.3933579, 52.5167278], [13.3933338, 52.5167067], [13.3933171, 52.5167142], [13.393286, 52.5166719], [13.3932651, 52.5166306], [13.3932556, 52.5165852], [13.3932525, 52.5165353], [13.3933059, 52.51653679999998], [13.3933224, 52.5164391], [13.3933404, 52.5163455], [13.3932894, 52.5163432], [13.3933067, 52.5162872], [13.3933272, 52.5162499], [13.3933565, 52.516212], [13.3934008, 52.5161727], [13.3934204, 52.5161821], [13.3934476, 52.5161664], [13.3934747, 52.5161491], [13.3934586, 52.5161385], [13.3934687, 52.5161328], [13.3934788, 52.51612], [13.3934868, 52.5160962], [13.3934816, 52.5160752], [13.3934721, 52.516061], [13.3934923, 52.5160509], [13.3934734, 52.5160315], [13.3934483, 52.5160101], [13.3934204, 52.5160218], [13.3932268, 52.5160106], [13.3932259, 52.516017]]]}}, {"id": "14", "type": "Feature", "properties": {"building_id": "24247494", "area_m2": 2824.564089875878}, "geometry": {"type": "Polygon", "coordinates": [[[13.3909473, 52.5160451], [13.3909758, 52.5158704], [13.3912079, 52.5158844], [13.3912084, 52.5158817], [13.3914907, 52.5158987], [13.3914918, 52.5158918], [13.3917025, 52.51590439999999], [13.3917012, 52.51591229999999], [13.3919851, 52.5159294], [13.3919842, 52.515935], [13.392411, 52.5159608], [13.39241, 52.5159669], [13.3923893, 52.516093699999985], [13.3920633, 52.516074], [13.3920133, 52.5163608], [13.3917969, 52.5163476], [13.391809, 52.5162742], [13.3916253, 52.5162629], [13.3916131, 52.5163361], [13.3914369, 52.516325399999985], [13.3914777, 52.516078], [13.3913591, 52.5160707], [13.3912129, 52.5160611], [13.3909473, 52.5160451]]]}}, {"id": "15", "type": "Feature", "properties": {"building_id": "24247539", "area_m2": 738.4793860558506}, "geometry": {"type": "Polygon", "coordinates": [[[13.3923893, 52.516093699999985], [13.39241, 52.5159669], [13.3924537, 52.515970199999984], [13.3925816, 52.5159772], [13.3932259, 52.516017], [13.3932233, 52.5160439], [13.3931765, 52.5160759], [13.3931149, 52.5161334], [13.3924332, 52.5160964], [13.3923893, 52.516093699999985]]]}}, {"id": "16", "type": "Feature", "properties": {"building_id": "24247607", "area_m2": 4884.399695035111}, "geometry": {"type": "Polygon", "coordinates": [[[13.3895635, 52.5167787], [13.3895618, 52.516788], [13.3896826, 52.5167961], [13.3897929, 52.516803399999986], [13.3897946, 52.5167941], [13.3903308, 52.5168276], [13.3903585, 52.5166666], [13.3903601, 52.5166573], [13.390318, 52.5166543], [13.390353, 52.5164623], [13.3903999, 52.516464], [13.3904221, 52.5163351], [13.3903721, 52.5163319], [13.3897664, 52.516294], [13.3897021, 52.51629], [13.3891062, 52.5162523], [13.3890221, 52.5167449], [13.3891454, 52.5167527], [13.3895635, 52.5167787]]]}}, {"id": "17", "type": "Feature", "properties": {"building_id": "25945204", "area_m2": 537.2045560372856}, "geometry": {"type": "Polygon", "coordinates": [[[13.3905392, 52.5149486], [13.3903981, 52.5149397], [13.3902564, 52.5149307], [13.3902244, 52.5151171], [13.3901974, 52.5152745], [13.3904792, 52.5152924], [13.3904895, 52.5152322], [13.3903, 52.5152202], [13.3903241, 52.5150796], [13.3905146, 52.515091699999985], [13.3905392, 52.5149486]]]}}, {"id": "18", "type": "Feature", "properties": {"building_id": "25945205", "area_m2": 3499.4903732622834}, "geometry": {"type": "Polygon", "coordinates": [[[13.3891191, 52.5161646], [13.3894886, 52.5161862], [13.3898604, 52.5162086], [13.3899406, 52.5162131], [13.3902013, 52.5162297], [13.3902408, 52.51623219999998], [13.3903105, 52.5158275], [13.3901596, 52.5158177], [13.3899793, 52.5158055], [13.3894491, 52.515771], [13.3891816, 52.5157532], [13.3891435, 52.51599629999998], [13.3891191, 52.5161646]]]}}, {"id": "19", "type": "Feature", "properties": {"building_id": "25945206", "area_m2": 419.8556888035388}, "geometry": {"type": "Polygon", "coordinates": [[[13.3894288, 52.5154523], [13.389394, 52.5154501], [13.3893972, 52.515435], [13.3894021, 52.5154354], [13.389411, 52.5154309], [13.3894069, 52.51542769999999], [13.3894104, 52.51542589999998], [13.3894125, 52.5154159], [13.3894024, 52.5154078], [13.3893809, 52.515407], [13.3892346, 52.5153977], [13.3892229, 52.5154706], [13.3892112, 52.5155372], [13.3892386, 52.5155577], [13.3894821, 52.515573], [13.3895855, 52.515579], [13.3896127, 52.5154205], [13.3895458, 52.5154163], [13.3895235, 52.5154155], [13.3895171, 52.515458], [13.3894865, 52.515456], [13.3894867, 52.5154551], [13.3894715, 52.5154437], [13.3894477, 52.515442], [13.3894295, 52.5154512], [13.3894288, 52.5154523]]]}}, {"id": "20", "type": "Feature", "properties": {"building_id": "25945207", "area_m2": 1269.7376322944656}, "geometry": {"type": "Polygon", "coordinates": [[[13.3892577, 52.5152626], [13.3892492, 52.5153126], [13.3894433, 52.515325], [13.3896271, 52.5153367], [13.3896708, 52.515082], [13.3897028, 52.5148955], [13.3893263, 52.5148716], [13.389306, 52.5149901], [13.3892942, 52.5150585], [13.3892664, 52.5152121], [13.3892577, 52.5152626]]]}}, {"id": "21", "type": "Feature", "properties": {"building_id": "25945210", "area_m2": 787.8921777755407}, "geometry": {"type": "Polygon", "coordinates": [[[13.3902564, 52.5149307], [13.3901966, 52.5149269], [13.3900115, 52.51491509999999], [13.3897028, 52.5148955], [13.3896708, 52.515082], [13.3902244, 52.5151171], [13.3902564, 52.5149307]]]}}, {"id": "22", "type": "Feature", "properties": {"building_id": "25945406", "area_m2": 313.18385539380654}, "geometry": {"type": "Polygon", "coordinates": [[[13.3902338, 52.5156202], [13.3902389, 52.5156205], [13.3902398, 52.5156153], [13.3903339, 52.5156213], [13.3904211, 52.5156268], [13.3904203, 52.5156312], [13.3904239, 52.5156315], [13.3904428, 52.5155214], [13.3905099, 52.5155257], [13.390523, 52.5154492], [13.3904587, 52.5154451], [13.3904605, 52.5154342], [13.3904559, 52.5154339], [13.3904551, 52.5154384], [13.3902699, 52.5154267], [13.3902706, 52.5154223], [13.3902678, 52.51542220000001], [13.3902338, 52.5156202]]]}}, {"id": "23", "type": "Feature", "properties": {"building_id": "25945407", "area_m2": 979.8739149866346}, "geometry": {"type": "Polygon", "coordinates": [[[13.3896195, 52.515381], [13.3896127, 52.5154205], [13.3895855, 52.515579], [13.3898461, 52.5155956], [13.3902338, 52.5156202], [13.3902678, 52.51542220000001], [13.3896195, 52.515381]]]}}, {"id": "24", "type": "Feature", "properties": {"building_id": "26443646", "area_m2": 776.8384583824047}, "geometry": {"type": "Polygon", "coordinates": [[[13.3874496, 52.5164779], [13.3874454, 52.5165041], [13.3874258, 52.51662670000001], [13.3874241, 52.5166375], [13.3876968, 52.516653599999984], [13.3878328, 52.5166617], [13.3880627, 52.5166753], [13.3880883, 52.5165157], [13.3874496, 52.5164779]]]}}, {"id": "25", "type": "Feature", "properties": {"building_id": "26443910", "area_m2": 797.7213588823057}, "geometry": {"type": "Polygon", "coordinates": [[[13.3858817, 52.5170908], [13.3858176, 52.5174798], [13.3858024, 52.517564599999986], [13.3859748, 52.517576], [13.3859873, 52.5175066], [13.3860428, 52.5175094], [13.3861113, 52.5171047], [13.3860719, 52.51710219999999], [13.3858817, 52.5170908]]]}}, {"id": "26", "type": "Feature", "properties": {"building_id": "26443912", "area_m2": 3823.4588693469664}, "geometry": {"type": "Polygon", "coordinates": [[[13.3871257, 52.5178584], [13.3872159, 52.51786409999998], [13.3872629, 52.5175894], [13.3871895, 52.5175847], [13.3872351, 52.5173185], [13.3873106, 52.5173233], [13.387312, 52.517315], [13.3873349, 52.5171818], [13.3865588, 52.51713250000001], [13.3865323, 52.5172876], [13.3865991, 52.5172918], [13.3865867, 52.5173643], [13.3865203, 52.5173601], [13.3864989, 52.5174852], [13.3865636, 52.5174893], [13.3865547, 52.5175414], [13.3864898, 52.5175372], [13.3864397, 52.517815], [13.3865008, 52.5178189], [13.3869122, 52.5178449], [13.3870393, 52.51785289999999], [13.387083, 52.5178557], [13.3871257, 52.5178584]]]}}, {"id": "27", "type": "Feature", "properties": {"building_id": "32699535", "area_m2": 5864.663628978086}, "geometry": {"type": "Polygon", "coordinates": [[[13.3863942, 52.5163109], [13.3864135, 52.5161891], [13.3862011, 52.5161766], [13.3862211, 52.5160509], [13.3864347, 52.5160635], [13.3864826, 52.5157625], [13.386551, 52.5157665], [13.3865793, 52.51558879999998], [13.3868226, 52.5156031], [13.3869858, 52.5156127], [13.387371, 52.5156354], [13.387549, 52.5156459], [13.3874695, 52.51614510000001], [13.3874334, 52.516372099999984], [13.3869745, 52.5163467], [13.3869427, 52.5163452], [13.3865366, 52.5163193], [13.3865269, 52.5163187], [13.3863942, 52.5163109]]]}}, {"id": "28", "type": "Feature", "properties": {"building_id": "32699536", "area_m2": 944.3609039361498}, "geometry": {"type": "Polygon", "coordinates": [[[13.3868743, 52.5164703], [13.3868738, 52.5164594], [13.3868022, 52.5164546], [13.3868038, 52.51646609999999], [13.3865198, 52.5164493], [13.3865063, 52.5164485], [13.3864407, 52.5164446], [13.3864211, 52.5165671], [13.3874258, 52.51662670000001], [13.3874454, 52.5165041], [13.3874115, 52.5165021], [13.3869336, 52.5164738], [13.3868969, 52.5164716], [13.3868743, 52.5164703]]]}}, {"id": "29", "type": "Feature", "properties": {"building_id": "32799078", "area_m2": 2344.775117123663}, "geometry": {"type": "Polygon", "coordinates": [[[13.3886794, 52.5192402], [13.3887444, 52.5188223], [13.3890084, 52.51883749999999], [13.389007, 52.51884660000001], [13.38949, 52.51887439999999], [13.3894694, 52.5190075], [13.3894481, 52.5191444], [13.3894451, 52.5191635], [13.3894265, 52.5192832], [13.3894052, 52.519282], [13.3886794, 52.5192402]]]}}, {"id": "30", "type": "Feature", "properties": {"building_id": "32898110", "area_m2": 2099.610219671151}, "geometry": {"type": "Polygon", "coordinates": [[[13.3886431, 52.51863989999999], [13.3886924, 52.5186431], [13.3888698, 52.5186544], [13.3888967, 52.5184985], [13.3892547, 52.5185214], [13.3892278, 52.5186773], [13.3892906, 52.5186813], [13.3893347, 52.5184263], [13.3893789, 52.5181704], [13.3892861, 52.5181644], [13.3891518, 52.5181558], [13.3889132, 52.5181406], [13.3887743, 52.5181316], [13.3887314, 52.51812889999999], [13.3886998, 52.5183117], [13.3886727, 52.5184687], [13.3886513, 52.51859249999998], [13.3886479, 52.518612], [13.3886431, 52.51863989999999]]]}}, {"id": "31", "type": "Feature", "properties": {"building_id": "36996396", "area_m2": 338.2410505254849}, "geometry": {"type": "Polygon", "coordinates": [[[13.3862499, 52.5152043], [13.3862264, 52.51535209999999], [13.3862451, 52.5153658], [13.3865011, 52.5153825], [13.386503, 52.5153701], [13.3865195, 52.5152719], [13.3865222, 52.5152583], [13.3865269, 52.515221799999985], [13.3862499, 52.5152043]]]}}, {"id": "32", "type": "Feature", "properties": {"building_id": "37414692", "area_m2": 603.6336641474182}, "geometry": {"type": "Polygon", "coordinates": [[[13.3918426, 52.5169127], [13.3918694, 52.5167497], [13.3923585, 52.51678170000001], [13.3923333, 52.5169421], [13.3921952, 52.5169337], [13.3920574, 52.5169253], [13.3918426, 52.5169127]]]}}, {"id": "33", "type": "Feature", "properties": {"building_id": "37414732", "area_m2": 3649.817931160738}, "geometry": {"type": "Polygon", "coordinates": [[[13.3908891, 52.516359], [13.3908838, 52.516397], [13.390878, 52.5164334], [13.3908345, 52.5167054], [13.3908081, 52.51685770000001], [13.3910612, 52.5168737], [13.391841, 52.5169231], [13.3918426, 52.5169127], [13.3918694, 52.5167497], [13.3917701, 52.5167434], [13.3917723, 52.5167343], [13.3916906, 52.51673], [13.3917368, 52.5164492], [13.3918891, 52.5164591], [13.3918978, 52.516408], [13.3914361, 52.5163789], [13.3912502, 52.5163679], [13.391255, 52.51634], [13.3911641, 52.5163336], [13.3911256, 52.51633120000001], [13.3911208, 52.5163599], [13.3910297, 52.5163542], [13.3910274, 52.51636779999998], [13.3908891, 52.516359]]]}}, {"id": "34", "type": "Feature", "properties": {"building_id": "37415524", "area_m2": 5918.226780535931}, "geometry": {"type": "Polygon", "coordinates": [[[13.3900227, 52.5173552], [13.3894867, 52.5173239], [13.3889419, 52.5172838], [13.3888832, 52.5172795], [13.3887621, 52.5179582], [13.3888084, 52.5179616], [13.3893498, 52.5180014], [13.3896113, 52.518018099999985], [13.3897065, 52.5180238], [13.3898107, 52.51803009999998], [13.3898444, 52.5180321], [13.3899085, 52.518036], [13.389932, 52.51788569999999], [13.3899341, 52.5178722], [13.3899621, 52.5176941], [13.389978, 52.5175928], [13.3900227, 52.5173552]]]}}, {"id": "35", "type": "Feature", "properties": {"building_id": "37415535", "area_m2": 1205.3211524186813}, "geometry": {"type": "Polygon", "coordinates": [[[13.3886313, 52.5174716], [13.3885533, 52.517949], [13.3885199, 52.5179466], [13.3882166, 52.5179253], [13.3882927, 52.5174722], [13.3883903, 52.5174723], [13.3884023, 52.51747009999998], [13.3884028, 52.5174574], [13.3886011, 52.5174697], [13.3886313, 52.5174716]]]}}, {"id": "36", "type": "Feature", "properties": {"building_id": "43011244", "area_m2": 370.96216187036146}, "geometry": {"type": "Polygon", "coordinates": [[[13.3926771, 52.5165066], [13.3926783, 52.5164996], [13.3926921, 52.5164166], [13.3925473, 52.5164077], [13.3925501, 52.5163909], [13.3925526, 52.5163756], [13.3926971, 52.5163845], [13.3927123, 52.5162934], [13.3924625, 52.5162781], [13.3924271, 52.5164913], [13.3924366, 52.5164919], [13.3926771, 52.5165066]]]}}, {"id": "37", "type": "Feature", "properties": {"building_id": "43232372", "area_m2": 3273.1175049739754}, "geometry": {"type": "Polygon", "coordinates": [[[13.3883543, 52.5152545], [13.3883401, 52.515342], [13.3883557, 52.515343], [13.3884122, 52.5153465], [13.3884158, 52.5153252], [13.3885308, 52.5153325], [13.3885238, 52.5153736], [13.3887234, 52.5153862], [13.3887188, 52.515413], [13.3885192, 52.5154004], [13.3884043, 52.5153932], [13.3883898, 52.5154782], [13.3883862, 52.5154992], [13.387949, 52.5154716], [13.3878948, 52.5154682], [13.3878395, 52.51546470000001], [13.3878431, 52.5154437], [13.3878611, 52.51533830000001], [13.3878849, 52.5151984], [13.3878862, 52.515191], [13.3878974, 52.5151249], [13.3882384, 52.5151464], [13.3882541, 52.5150552], [13.3882729, 52.5149459], [13.3882747, 52.5149352], [13.3882859, 52.5148705], [13.3882895, 52.5148492], [13.3882921, 52.5148344], [13.3882942, 52.5148221], [13.3882973, 52.5148038], [13.3883621, 52.5148079], [13.3884585, 52.514814], [13.3889944, 52.5148481], [13.3889611, 52.5150417], [13.3889391, 52.5150403], [13.3887736, 52.5150298], [13.3887636, 52.5150877], [13.3887589, 52.5151254], [13.388748, 52.5151302], [13.3887404, 52.5151797], [13.3886484, 52.5151727], [13.3886485, 52.5151734], [13.3886446, 52.5151955], [13.3886396, 52.5152233], [13.388727, 52.5152296], [13.3887468, 52.5152463], [13.3887421, 52.5152799], [13.3883543, 52.5152545]]]}}, {"id": "38", "type": "Feature", "properties": {"building_id": "44098899", "area_m2": 567.5432046271048}, "geometry": {"type": "Polygon", "coordinates": [[[13.3883862, 52.5154992], [13.3883898, 52.5154782], [13.3884043, 52.5153932], [13.3885192, 52.5154004], [13.3887188, 52.515413], [13.3887234, 52.5153862], [13.3887404, 52.5152927], [13.3889222, 52.5153028], [13.3889065, 52.5154037], [13.3888897, 52.515512], [13.3888474, 52.5155266], [13.3883862, 52.5154992]]]}}, {"id": "39", "type": "Feature", "properties": {"building_id": "56179619", "area_m2": 1449.0933888774423}, "geometry": {"type": "Polygon", "coordinates": [[[13.3879954, 52.5172243], [13.3876926, 52.5172054], [13.3876639, 52.5172036], [13.3875933, 52.5176114], [13.3875515, 52.5178827], [13.3879037, 52.5179055], [13.3879217, 52.5177983], [13.3879235, 52.5177882], [13.3879155, 52.5177877], [13.3879161, 52.5177839], [13.3879044, 52.5177832], [13.3879073, 52.5177664], [13.3877277, 52.5177552], [13.3877503, 52.5176215], [13.3878134, 52.5176255], [13.3878085, 52.51765479999999], [13.3879219, 52.5176619], [13.3879262, 52.5176367], [13.3879444, 52.5175286], [13.3879486, 52.5175035], [13.387836, 52.5174964], [13.3878319, 52.5175211], [13.3877821, 52.517518], [13.3878039, 52.5173886], [13.387966, 52.5173987], [13.387971, 52.5173692], [13.3879954, 52.5172243]]]}}, {"id": "40", "type": "Feature", "properties": {"building_id": "56179620", "area_m2": 270.8562887975339}, "geometry": {"type": "Polygon", "coordinates": [[[13.3873862, 52.5178739], [13.3874456, 52.5178771], [13.3874637, 52.517878], [13.3875515, 52.5178827], [13.3875933, 52.5176114], [13.3874311, 52.5176021], [13.3874238, 52.5176491], [13.3874989, 52.5176534], [13.3874808, 52.5177705], [13.3874035, 52.5177661], [13.3873862, 52.5178739]]]}}, {"id": "41", "type": "Feature", "properties": {"building_id": "56179621", "area_m2": 739.1835574084367}, "geometry": {"type": "Polygon", "coordinates": [[[13.3873349, 52.5171818], [13.3876639, 52.5172036], [13.3875933, 52.5176114], [13.3874311, 52.5176021], [13.3873102, 52.5175919], [13.3873247, 52.5175149], [13.3874432, 52.5175219], [13.3874689, 52.5173735], [13.3874978, 52.5173753], [13.3875061, 52.5173272], [13.387312, 52.517315], [13.3873349, 52.5171818]]]}}, {"id": "42", "type": "Feature", "properties": {"building_id": "56179623", "area_m2": 285.54063235451235}, "geometry": {"type": "Polygon", "coordinates": [[[13.3872159, 52.51786409999998], [13.3873592, 52.5178723], [13.3873862, 52.5178739], [13.3874035, 52.5177661], [13.3873236, 52.517762], [13.3873142, 52.5177553], [13.38733, 52.5177484], [13.3873474, 52.5176505], [13.3873549, 52.5176461], [13.3874238, 52.5176491], [13.3874311, 52.5176021], [13.3873102, 52.5175919], [13.3872629, 52.5175894], [13.3872159, 52.51786409999998]]]}}, {"id": "43", "type": "Feature", "properties": {"building_id": "56179624", "area_m2": 1471.8361159046246}, "geometry": {"type": "Polygon", "coordinates": [[[13.3883308, 52.5172452], [13.3880331, 52.5172267], [13.3879954, 52.5172243], [13.387971, 52.5173692], [13.3880044, 52.5173713], [13.3880574, 52.5173745], [13.3880306, 52.517534], [13.3879759, 52.5175306], [13.3879444, 52.5175286], [13.3879262, 52.5176367], [13.3879559, 52.5176386], [13.3880448, 52.5176441], [13.3880179, 52.5178043], [13.3879397, 52.5177994], [13.3879217, 52.5177983], [13.3879037, 52.5179055], [13.3879184, 52.5179068], [13.3881867, 52.5179234], [13.3882166, 52.5179253], [13.3882927, 52.5174722], [13.3883308, 52.5172452]]]}}, {"id": "44", "type": "Feature", "properties": {"building_id": "99493120", "area_m2": 218.20264942831707}, "geometry": {"type": "Polygon", "coordinates": [[[13.3881446, 52.5164723], [13.3883111, 52.5164821], [13.3883275, 52.5163802], [13.3880832, 52.5163658], [13.3880659, 52.5163649], [13.3880487, 52.5163637], [13.3880418, 52.5164065], [13.3880764, 52.5164086], [13.3880669, 52.5164677], [13.3880957, 52.5164694], [13.3880883, 52.5165157], [13.3881372, 52.5165186], [13.3881446, 52.5164723]]]}}, {"id": "45", "type": "Feature", "properties": {"building_id": "99493122", "area_m2": 471.7840954902877}, "geometry": {"type": "Polygon", "coordinates": [[[13.3880961, 52.5162854], [13.3880832, 52.5163658], [13.3883275, 52.5163802], [13.3883648, 52.5161473], [13.3881224, 52.5161329], [13.3880878, 52.516130799999985], [13.3880634, 52.516283399999985], [13.3880961, 52.5162854]]]}}, {"id": "46", "type": "Feature", "properties": {"building_id": "105187866", "area_m2": 1701.331131377285}, "geometry": {"type": "Polygon", "coordinates": [[[13.3868509, 52.5186915], [13.3868814, 52.5186935], [13.3869142, 52.5186957], [13.3869161, 52.5186851], [13.3869612, 52.518688099999984], [13.3872352, 52.5187064], [13.3872333, 52.518717], [13.3872438, 52.5187177], [13.387209, 52.51891639999999], [13.3871587, 52.518913], [13.3871541, 52.5189389], [13.3871319, 52.5189374], [13.3871251, 52.5189756], [13.3871489, 52.5189772], [13.3871453, 52.5190031], [13.387163, 52.5190147], [13.387159, 52.5190176], [13.3871563, 52.5190366], [13.387147, 52.5190504], [13.3871122, 52.5190483], [13.387102, 52.519105], [13.3871255, 52.5191065], [13.3871209, 52.5191327], [13.3870974, 52.51913119999998], [13.3870905, 52.5191697], [13.3871149, 52.5191713], [13.3871106, 52.519195], [13.3870863, 52.5191934], [13.387071, 52.5192789], [13.3871111, 52.5192815], [13.3871099, 52.5192897], [13.3871197, 52.5192902], [13.3871162, 52.5193145], [13.3871064, 52.519314], [13.3870993, 52.519321], [13.3870903, 52.5193252], [13.3870762, 52.5193273], [13.3870623, 52.5193277], [13.3870507, 52.519393], [13.3867323, 52.5193721], [13.3867386, 52.519335], [13.3868145, 52.5193397], [13.3868223, 52.5192938], [13.3867464, 52.5192891], [13.3867565, 52.5192293], [13.3868539, 52.5192367], [13.3868824, 52.519079], [13.3867842, 52.51907289999998], [13.3868369, 52.5187738], [13.3868509, 52.5186915]]]}}, {"id": "47", "type": "Feature", "properties": {"building_id": "128441442", "area_m2": 996.1147325890586}, "geometry": {"type": "Polygon", "coordinates": [[[13.3901748, 52.5184801], [13.390219, 52.5182241], [13.3899684, 52.5182067], [13.3897601, 52.5181945], [13.3897106, 52.5181916], [13.3896664, 52.5184476], [13.3901748, 52.5184801]]]}}, {"id": "48", "type": "Feature", "properties": {"building_id": "128441444", "area_m2": 334.5523807630085}, "geometry": {"type": "Polygon", "coordinates": [[[13.3903903, 52.5182351], [13.3903566, 52.5184296], [13.390346, 52.518491], [13.3901748, 52.5184801], [13.390219, 52.5182241], [13.3903031, 52.5182295], [13.3903903, 52.5182351]]]}}, {"id": "49", "type": "Feature", "properties": {"building_id": "128441446", "area_m2": 687.0136173731238}, "geometry": {"type": "Polygon", "coordinates": [[[13.390346, 52.518491], [13.3903399, 52.5185199], [13.3903278, 52.5185963], [13.390302, 52.518746], [13.3897955, 52.5187136], [13.3898231, 52.5185537], [13.3898252, 52.5185495], [13.3900233, 52.5185636], [13.3900556, 52.5185812], [13.3900437, 52.5186449], [13.3901456, 52.518651599999984], [13.3901748, 52.5184801], [13.390346, 52.518491]]]}}, {"id": "50", "type": "Feature", "properties": {"building_id": "128441447", "area_m2": 648.0683537975384}, "geometry": {"type": "Polygon", "coordinates": [[[13.3897106, 52.5181916], [13.3896278, 52.5181863], [13.3894539, 52.5181752], [13.3893789, 52.5181704], [13.3893347, 52.5184263], [13.3896664, 52.5184476], [13.3897106, 52.5181916]]]}}, {"id": "51", "type": "Feature", "properties": {"building_id": "128441454", "area_m2": 211.4032769966854}, "geometry": {"type": "Polygon", "coordinates": [[[13.3897955, 52.5187136], [13.3896223, 52.5187025], [13.3896499, 52.51854260000001], [13.3898231, 52.5185537], [13.3897955, 52.5187136]]]}}, {"id": "52", "type": "Feature", "properties": {"building_id": "157099365", "area_m2": 1141.2654733023303}, "geometry": {"type": "Polygon", "coordinates": [[[13.3928124, 52.5150791], [13.3922887, 52.51504809999999], [13.3922684, 52.5151686], [13.3922592, 52.5152236], [13.3925332, 52.5152407], [13.3925062, 52.5154157], [13.3925418, 52.5154179], [13.3927837, 52.515433], [13.3927916, 52.5154334], [13.3928513, 52.51510969999999], [13.3928124, 52.5150791]]]}}, {"id": "53", "type": "Feature", "properties": {"building_id": "157099366", "area_m2": 628.0098681880023}, "geometry": {"type": "Polygon", "coordinates": [[[13.3924716, 52.5157564], [13.3924816, 52.5157573], [13.3924813, 52.5157531], [13.3924995, 52.5157546], [13.392501, 52.5157637], [13.3927288, 52.515778], [13.3927904, 52.5154409], [13.3927757, 52.5154393], [13.3927761, 52.5154372], [13.3927826, 52.5154376], [13.3927837, 52.515433], [13.3925418, 52.5154179], [13.3925217, 52.51554139999999], [13.3925681, 52.515545], [13.3925543, 52.5156343], [13.3924997, 52.5156298], [13.3924967, 52.5156422], [13.3924921, 52.5156419], [13.3924716, 52.5157564]]]}}, {"id": "54", "type": "Feature", "properties": {"building_id": "157099367", "area_m2": 443.46420514572617}, "geometry": {"type": "Polygon", "coordinates": [[[13.3919945, 52.5151529], [13.3922684, 52.5151686], [13.3922887, 52.51504809999999], [13.3918083, 52.5150196], [13.3918068, 52.515026], [13.3917879, 52.51514119999999], [13.3919945, 52.5151529]]]}}, {"id": "55", "type": "Feature", "properties": {"building_id": "157099368", "area_m2": 388.934673334697}, "geometry": {"type": "Polygon", "coordinates": [[[13.3916834, 52.515705], [13.3917267, 52.5154574], [13.3917346, 52.5154579], [13.391735, 52.5154467], [13.3916238, 52.5154395], [13.3916145, 52.5154936], [13.3916324, 52.5154948], [13.3916168, 52.515586], [13.3914954, 52.5155783], [13.3913915, 52.5155717], [13.391371, 52.5156916], [13.3914784, 52.5156984], [13.3916689, 52.5157105], [13.3916693, 52.5157078], [13.3916828, 52.5157087], [13.3916834, 52.515705]]]}}, {"id": "56", "type": "Feature", "properties": {"building_id": "157099369", "area_m2": 927.7000885529183}, "geometry": {"type": "Polygon", "coordinates": [[[13.3921674, 52.5157354], [13.3921799, 52.5156595], [13.3922074, 52.5154886], [13.3919405, 52.5154699], [13.3917346, 52.5154579], [13.3917267, 52.5154574], [13.3916834, 52.515705], [13.3917091, 52.5157063], [13.3917082, 52.515713199999986], [13.3917213, 52.5157139], [13.3917219, 52.5157173], [13.3917854, 52.5157219], [13.3917859, 52.5157133], [13.3920683, 52.5157309], [13.392068, 52.5157402], [13.3921271, 52.515744], [13.392128, 52.5157402], [13.3921416, 52.5157404], [13.3921423, 52.5157337], [13.3921674, 52.5157354]]]}}, {"id": "57", "type": "Feature", "properties": {"building_id": "157099372", "area_m2": 843.1052181379698}, "geometry": {"type": "Polygon", "coordinates": [[[13.3917734, 52.515229], [13.3917879, 52.51514119999999], [13.3918068, 52.515026], [13.3914169, 52.5150026], [13.3914176, 52.5149959], [13.3912462, 52.5149861], [13.3912174, 52.5151698], [13.3912351, 52.5151708], [13.3913865, 52.5151791], [13.3913897, 52.515168], [13.3915492, 52.515176], [13.3916661, 52.5151815], [13.3916507, 52.5152788], [13.3917633, 52.5152875], [13.3917695, 52.5152507], [13.3919746, 52.5152632], [13.3919785, 52.515243], [13.3917734, 52.515229]]]}}, {"id": "58", "type": "Feature", "properties": {"building_id": "157099374", "area_m2": 396.10300246806753}, "geometry": {"type": "Polygon", "coordinates": [[[13.3912085, 52.515332], [13.3913964, 52.5153416], [13.3915186, 52.5153505], [13.3915492, 52.515176], [13.3913897, 52.515168], [13.3913865, 52.5151791], [13.3912351, 52.5151708], [13.391228, 52.515214], [13.3912085, 52.515332]]]}}, {"id": "59", "type": "Feature", "properties": {"building_id": "157099375", "area_m2": 560.8827471255136}, "geometry": {"type": "Polygon", "coordinates": [[[13.3911378, 52.5156772], [13.391371, 52.5156916], [13.3913915, 52.5155717], [13.39136, 52.5155698], [13.3913726, 52.5155042], [13.3913822, 52.5154122], [13.3913844, 52.5153902], [13.3913458, 52.5153873], [13.3913468, 52.5153716], [13.3913912, 52.51537429999998], [13.3913964, 52.5153416], [13.3912085, 52.515332], [13.3911966, 52.5153312], [13.391195, 52.51534189999999], [13.3911903, 52.5153419], [13.3911671, 52.5154901], [13.3911378, 52.5156772]]]}}, {"id": "60", "type": "Feature", "properties": {"building_id": "217114826", "area_m2": 826.5321560544353}, "geometry": {"type": "Polygon", "coordinates": [[[13.3874334, 52.516372099999984], [13.3874757, 52.5163746], [13.3879112, 52.5164003], [13.3879471, 52.5161744], [13.3876776, 52.5161585], [13.3876788, 52.516151], [13.3876326, 52.5161483], [13.3876316, 52.51615469999999], [13.3874695, 52.51614510000001], [13.3874334, 52.516372099999984]]]}}, {"id": "61", "type": "Feature", "properties": {"building_id": "217515514", "area_m2": 664.5435760605956}, "geometry": {"type": "Polygon", "coordinates": [[[13.3919945, 52.5151529], [13.3919785, 52.515243], [13.3919746, 52.5152632], [13.3919405, 52.5154699], [13.3922074, 52.5154886], [13.3922288, 52.5153998], [13.3922592, 52.5152236], [13.3922684, 52.5151686], [13.3919945, 52.5151529]]]}}, {"id": "62", "type": "Feature", "properties": {"building_id": "217515515", "area_m2": 644.6212339471615}, "geometry": {"type": "Polygon", "coordinates": [[[13.3922869, 52.51564649999999], [13.3923087, 52.51553], [13.3925094, 52.5155429], [13.39251, 52.5155403], [13.3925217, 52.51554139999999], [13.3925418, 52.5154179], [13.3925062, 52.5154157], [13.3922288, 52.5153998], [13.3922074, 52.5154886], [13.3921799, 52.5156595], [13.3921674, 52.5157354], [13.3924716, 52.5157564], [13.3924921, 52.5156419], [13.3924943, 52.5156286], [13.3924115, 52.5156229], [13.3924086, 52.5156325], [13.3923812, 52.5156299], [13.3923773, 52.5156512], [13.3922869, 52.51564649999999]]]}}, {"id": "63", "type": "Feature", "properties": {"building_id": "273503357", "area_m2": 536.007869994963}, "geometry": {"type": "Polygon", "coordinates": [[[13.3861251, 52.5176843], [13.3861073, 52.5177926], [13.38577, 52.5177717], [13.3858024, 52.517564599999986], [13.3859748, 52.517576], [13.3859873, 52.5175066], [13.3860428, 52.5175094], [13.3860764, 52.5175111], [13.3860677, 52.5175609], [13.3861483, 52.5175659], [13.3861348, 52.517634], [13.3860013, 52.517625], [13.3859785, 52.5176368], [13.385974, 52.517675199999985], [13.3860405, 52.51767920000001], [13.3860409, 52.5176767], [13.3860748, 52.5176788], [13.3860744, 52.5176812], [13.3861251, 52.5176843]]]}}, {"id": "64", "type": "Feature", "properties": {"building_id": "284514064", "area_m2": 33.382434943095674}, "geometry": {"type": "Polygon", "coordinates": [[[13.3868969, 52.5164716], [13.3869336, 52.5164738], [13.3869745, 52.5163467], [13.3869427, 52.5163452], [13.3868969, 52.5164716]]]}}, {"id": "65", "type": "Feature", "properties": {"building_id": "294390569", "area_m2": 1853.81099750547}, "geometry": {"type": "Polygon", "coordinates": [[[13.3908003, 52.5149667], [13.3907796, 52.5149574], [13.3907572, 52.5149529], [13.3907365, 52.5149504], [13.3907119, 52.5149495], [13.3906732, 52.5149584], [13.3906564, 52.5149507], [13.3906326, 52.5149447], [13.3906097, 52.5149417], [13.3905759, 52.5149421], [13.3905392, 52.5149486], [13.3905146, 52.515091699999985], [13.3905837, 52.5150986], [13.390523, 52.5154492], [13.3905099, 52.5155257], [13.3904428, 52.5155214], [13.3904239, 52.5156315], [13.3904587, 52.5156432], [13.3904887, 52.5156461], [13.3905276, 52.5156451], [13.390552, 52.51563929999999], [13.3905788, 52.515649], [13.3906105, 52.5156542], [13.3906481, 52.5156532], [13.3906682, 52.5156498], [13.390679, 52.5156471], [13.3908179, 52.5156554], [13.3908299, 52.5155843], [13.3909327, 52.5149753], [13.3908003, 52.5149667]]]}}, {"id": "66", "type": "Feature", "properties": {"building_id": "294390573", "area_m2": 84.26715330904624}, "geometry": {"type": "Polygon", "coordinates": [[[13.3894354, 52.5153715], [13.3895522, 52.5153789], [13.3895458, 52.5154163], [13.3896127, 52.5154205], [13.3896195, 52.515381], [13.3896271, 52.5153367], [13.3894433, 52.515325], [13.3894354, 52.5153715]]]}}, {"id": "67", "type": "Feature", "properties": {"building_id": "294390575", "area_m2": 111.9882201594501}, "geometry": {"type": "Polygon", "coordinates": [[[13.3892346, 52.5153977], [13.3893809, 52.515407], [13.3893875, 52.515368399999986], [13.3894354, 52.5153715], [13.3894433, 52.515325], [13.3892492, 52.5153126], [13.3892426, 52.5153508], [13.3892346, 52.5153977]]]}}, {"id": "68", "type": "Feature", "properties": {"building_id": "312214133", "area_m2": 2650.4399026218043}, "geometry": {"type": "Polygon", "coordinates": [[[13.3861001, 52.5184763], [13.3862937, 52.518488], [13.3863495, 52.51849159999998], [13.3868088, 52.5185199], [13.3868346, 52.5183696], [13.3868967, 52.5180089], [13.3862439, 52.5179675], [13.3862018, 52.5182244], [13.3861477, 52.5182212], [13.3861025, 52.5184696], [13.3861001, 52.5184763]]]}}, {"id": "69", "type": "Feature", "properties": {"building_id": "312214135", "area_m2": 1841.203543403788}, "geometry": {"type": "Polygon", "coordinates": [[[13.3860765, 52.517957299999985], [13.3857454, 52.5179373], [13.385657, 52.5184454], [13.3861001, 52.5184763], [13.3861025, 52.5184696], [13.3861477, 52.5182212], [13.3862018, 52.5182244], [13.3862439, 52.5179675], [13.3860765, 52.517957299999985]]]}}, {"id": "70", "type": "Feature", "properties": {"building_id": "392619652", "area_m2": 220.9543993584541}, "geometry": {"type": "Polygon", "coordinates": [[[13.3887404, 52.5151797], [13.388748, 52.5151302], [13.3887589, 52.5151254], [13.3887636, 52.5150877], [13.3887736, 52.5150298], [13.3889391, 52.5150403], [13.3889611, 52.5150417], [13.3889505, 52.5151154], [13.3889429, 52.5151682], [13.3889393, 52.515193], [13.3887404, 52.5151797]]]}}, {"id": "71", "type": "Feature", "properties": {"building_id": "392619653", "area_m2": 1558.0369699344978}, "geometry": {"type": "Polygon", "coordinates": [[[13.3862773, 52.5150289], [13.3863073, 52.5150308], [13.3866122, 52.51505049999999], [13.3868604, 52.5150656], [13.3869135, 52.51475760000002], [13.3869176, 52.5147338], [13.3869208, 52.514715], [13.386735, 52.5147018], [13.3866175, 52.5146945], [13.3863448, 52.5146774], [13.3863206, 52.514798700000014], [13.3862808, 52.5150145], [13.3862786, 52.5150227], [13.3862773, 52.5150289]]]}}, {"id": "72", "type": "Feature", "properties": {"building_id": "392619654", "area_m2": 196.99739033633165}, "geometry": {"type": "Polygon", "coordinates": [[[13.3887404, 52.5152927], [13.3887421, 52.5152799], [13.3887468, 52.5152463], [13.388727, 52.5152296], [13.3886396, 52.5152233], [13.3886446, 52.5151955], [13.3886485, 52.5151734], [13.3887404, 52.5151797], [13.3889393, 52.515193], [13.3889312, 52.5152447], [13.3889222, 52.5153028], [13.3887404, 52.5152927]]]}}, {"id": "73", "type": "Feature", "properties": {"building_id": "392619657", "area_m2": 413.99935391323584}, "geometry": {"type": "Polygon", "coordinates": [[[13.3862499, 52.5152043], [13.3862724, 52.5150598], [13.3862773, 52.5150289], [13.3863073, 52.5150308], [13.3866122, 52.51505049999999], [13.3866021, 52.5151107], [13.3866, 52.5151229], [13.3865979, 52.5151399], [13.3865956, 52.5151436], [13.3865928, 52.5151463], [13.386588, 52.5151491], [13.3865829, 52.5151509], [13.3865793, 52.5151516], [13.3865736, 52.5151522], [13.3865348, 52.5151505], [13.3865269, 52.515221799999985], [13.3862499, 52.5152043]]]}}, {"id": "74", "type": "Feature", "properties": {"building_id": "493933237", "area_m2": 238.01536180026457}, "geometry": {"type": "Polygon", "coordinates": [[[13.3861073, 52.5177926], [13.3862734, 52.5178039], [13.3862937, 52.5176913], [13.3862031, 52.5176865], [13.3862319, 52.5175206], [13.3861582, 52.5175164], [13.3861483, 52.5175659], [13.3861348, 52.517634], [13.3861251, 52.5176843], [13.3861073, 52.5177926]]]}}, {"id": "75", "type": "Feature", "properties": {"building_id": "539706408", "area_m2": 138.36591899825004}, "geometry": {"type": "Polygon", "coordinates": [[[13.3904577, 52.5166335], [13.3904476, 52.5166723], [13.3903585, 52.5166666], [13.3903601, 52.5166573], [13.3903999, 52.516464], [13.3904865, 52.5164697], [13.3904577, 52.5166335]]]}}, {"id": "76", "type": "Feature", "properties": {"building_id": "539706409", "area_m2": 438.2302127993404}, "geometry": {"type": "Polygon", "coordinates": [[[13.3904577, 52.5166335], [13.3904865, 52.5164697], [13.3903999, 52.516464], [13.3904221, 52.5163351], [13.3906665, 52.5163492], [13.3906148, 52.5166437], [13.3904577, 52.5166335]]]}}, {"id": "77", "type": "Feature", "properties": {"building_id": "539706410", "area_m2": 353.3741639889563}, "geometry": {"type": "Polygon", "coordinates": [[[13.3903308, 52.5168276], [13.3905795, 52.5168436], [13.3906148, 52.5166437], [13.3904577, 52.5166335], [13.3904476, 52.5166723], [13.3903585, 52.5166666], [13.3903308, 52.5168276]]]}}, {"id": "78", "type": "Feature", "properties": {"building_id": "555247156", "area_m2": 151.90638852731547}, "geometry": {"type": "Polygon", "coordinates": [[[13.3882307, 52.515719], [13.3882358, 52.5156849], [13.3882389, 52.5156647], [13.3886063, 52.5156852], [13.3886032, 52.5157057], [13.3885981, 52.5157395], [13.3882307, 52.515719]]]}}, {"id": "79", "type": "Feature", "properties": {"building_id": "555247159", "area_m2": 822.2480767179261}, "geometry": {"type": "Polygon", "coordinates": [[[13.3876521, 52.516078], [13.3876435, 52.5161082], [13.3876326, 52.5161483], [13.3876788, 52.516151], [13.3876776, 52.5161585], [13.3879471, 52.5161744], [13.3879112, 52.5164003], [13.3879801, 52.5164029], [13.3880418, 52.5164065], [13.3880487, 52.5163637], [13.3880659, 52.5163649], [13.3880832, 52.5163658], [13.3880961, 52.5162854], [13.3880634, 52.516283399999985], [13.3880878, 52.516130799999985], [13.3881224, 52.5161329], [13.3883648, 52.5161473], [13.3883275, 52.5163802], [13.3883111, 52.5164821], [13.3883844, 52.5164879], [13.3884197, 52.5162674], [13.3883846, 52.5162653], [13.3884036, 52.5161464], [13.3884341, 52.5161482], [13.3884403, 52.5161094], [13.3880951, 52.516089], [13.3881014, 52.5160495], [13.3879882, 52.5160428], [13.3879795, 52.516097399999985], [13.3876521, 52.516078]]]}}, {"id": "80", "type": "Feature", "properties": {"building_id": "556467771", "area_m2": 619.7290104779942}, "geometry": {"type": "Polygon", "coordinates": [[[13.3913591, 52.5160707], [13.391344, 52.5161622], [13.3914383, 52.516168], [13.391412, 52.5163271], [13.3914173, 52.5163275], [13.3914168, 52.5163304], [13.391408, 52.5163299], [13.3914034, 52.5163305], [13.3913986, 52.5163322], [13.3913949, 52.5163348], [13.391393, 52.5163373], [13.3913923, 52.5163401], [13.3913927, 52.5163429], [13.3913945, 52.5163456], [13.3913973, 52.5163479], [13.3914005, 52.5163494], [13.3914055, 52.5163507], [13.3914111, 52.5163509], [13.3914156, 52.5163503], [13.3914196, 52.5163491], [13.3914232, 52.516347], [13.3914257, 52.5163445], [13.3914263, 52.5163411], [13.3914424, 52.5163421], [13.3914361, 52.5163789], [13.3918978, 52.516408], [13.3918891, 52.5164591], [13.3919127, 52.5164688], [13.3918897, 52.51660729999998], [13.3920047, 52.5166144], [13.3920259, 52.5164859], [13.391993, 52.5164839], [13.3920133, 52.5163608], [13.3917969, 52.5163476], [13.391809, 52.5162742], [13.3916253, 52.5162629], [13.3916131, 52.5163361], [13.3914369, 52.516325399999985], [13.3914777, 52.516078], [13.3913591, 52.5160707]]]}}, {"id": "81", "type": "Feature", "properties": {"building_id": "672729145", "area_m2": 539.8487311002475}, "geometry": {"type": "Polygon", "coordinates": [[[13.3882927, 52.5174722], [13.3883308, 52.5172452], [13.3886361, 52.51726379999999], [13.3886648, 52.5172656], [13.3886574, 52.5173113], [13.3886313, 52.5174716], [13.3886011, 52.5174697], [13.3884028, 52.5174574], [13.3884023, 52.51747009999998], [13.3883903, 52.5174723], [13.3882927, 52.5174722]]]}}, {"id": "82", "type": "Feature", "properties": {"building_id": "744493886", "area_m2": 370.72138941507063}, "geometry": {"type": "Polygon", "coordinates": [[[13.3871294, 52.5183886], [13.3871134, 52.518483], [13.3871038, 52.5185389], [13.3874266, 52.5185593], [13.38743, 52.5185396], [13.3874523, 52.518409], [13.3872808, 52.5183978], [13.3871294, 52.5183886]]]}}, {"id": "83", "type": "Feature", "properties": {"building_id": "753490096", "area_m2": 650.9651046683799}, "geometry": {"type": "Polygon", "coordinates": [[[13.3909148, 52.5162496], [13.3909038, 52.5163149], [13.3908966, 52.5163145], [13.3908891, 52.516359], [13.3910274, 52.51636779999998], [13.3910297, 52.5163542], [13.3911208, 52.5163599], [13.3911256, 52.51633120000001], [13.3911641, 52.5163336], [13.391165, 52.5163282], [13.3911843, 52.5163294], [13.3912289, 52.5160657], [13.3912123, 52.5160646], [13.3912129, 52.5160611], [13.3909473, 52.5160451], [13.3909453, 52.5160419], [13.3909414, 52.51606549999999], [13.3909378, 52.51608679999999], [13.3909432, 52.5160871], [13.3909324, 52.5161508], [13.3909255, 52.5161504], [13.3909088, 52.5162492], [13.3909148, 52.5162496]]]}}, {"id": "84", "type": "Feature", "properties": {"building_id": "915068029", "area_m2": 1789.6646992996461}, "geometry": {"type": "Polygon", "coordinates": [[[13.3905224, 52.5173847], [13.3903428, 52.5173749], [13.3902764, 52.5173713], [13.3902508, 52.51753], [13.390228, 52.5175295], [13.3902131, 52.5176072], [13.3901483, 52.5176032], [13.3900594, 52.5175978], [13.389978, 52.5175928], [13.3899621, 52.5176941], [13.3902158, 52.5177075], [13.3902036, 52.5177816], [13.3901842, 52.5179001], [13.389932, 52.51788569999999], [13.3899085, 52.518036], [13.3901578, 52.5180523], [13.3904083, 52.5180687], [13.3904327, 52.5179177], [13.3904538, 52.517796], [13.3905224, 52.5173847]]]}}, {"id": "85", "type": "Feature", "properties": {"building_id": "1036234485", "area_m2": 2142.673605804614}, "geometry": {"type": "Polygon", "coordinates": [[[13.3865011, 52.5153825], [13.3868093, 52.5154015], [13.3869983, 52.5154133], [13.3870476, 52.5154163], [13.3871139, 52.5154205], [13.3871629, 52.5154235], [13.3873548, 52.5154355], [13.3873555, 52.5154301], [13.387357, 52.5154227], [13.3874107, 52.5151007], [13.3868604, 52.5150656], [13.3866122, 52.51505049999999], [13.3866021, 52.5151107], [13.3866, 52.5151229], [13.3865979, 52.5151399], [13.3865956, 52.5151436], [13.3865928, 52.5151463], [13.386588, 52.5151491], [13.3865829, 52.5151509], [13.3865793, 52.5151516], [13.3865736, 52.5151522], [13.3865348, 52.5151505], [13.3865269, 52.515221799999985], [13.3865222, 52.5152583], [13.3865195, 52.5152719], [13.386503, 52.5153701], [13.3865011, 52.5153825]]]}}, {"id": "86", "type": "Feature", "properties": {"building_id": "1087427490", "area_m2": 385.40230633955906}, "geometry": {"type": "Polygon", "coordinates": [[[13.389978, 52.5175928], [13.3900594, 52.5175978], [13.3900735, 52.5175084], [13.3900986, 52.5174943], [13.3901519, 52.5174979], [13.3901483, 52.5175103], [13.390177, 52.5175126], [13.3901752, 52.5175164], [13.3901624, 52.51752590000001], [13.3901483, 52.5176032], [13.3902131, 52.5176072], [13.390228, 52.5175295], [13.3902508, 52.51753], [13.3902764, 52.5173713], [13.3902774, 52.5173644], [13.3902623, 52.51736360000001], [13.3902613, 52.5173705], [13.3901773, 52.5173658], [13.3901785, 52.5173584], [13.3901217, 52.5173549], [13.3901204, 52.5173623], [13.3900391, 52.51735639999998], [13.3900403, 52.5173501], [13.3900239, 52.5173489], [13.3900227, 52.5173552], [13.389978, 52.5175928]]]}}, {"id": "87", "type": "Feature", "properties": {"building_id": "1088358102", "area_m2": 5399.7851763491635}, "geometry": {"type": "Polygon", "coordinates": [[[13.3866827, 52.5196654], [13.3867163, 52.5196675], [13.3881095, 52.51975560000001], [13.3881425, 52.5195677], [13.3881503, 52.5195235], [13.3881618, 52.5195068], [13.3881625, 52.5194685], [13.3881739, 52.5194419], [13.388169, 52.519417], [13.3881827, 52.5193389], [13.3881993, 52.5192445], [13.3882121, 52.5192192], [13.388213, 52.51916619999999], [13.3882289, 52.5191253], [13.3882293, 52.5190735], [13.3882628, 52.5188827], [13.3882802, 52.5187838], [13.3872438, 52.5187177], [13.387209, 52.51891639999999], [13.3879184, 52.5189613], [13.3878192, 52.5195382], [13.3870353, 52.5194864], [13.3870507, 52.519393], [13.3867323, 52.5193721], [13.3866827, 52.5196654]]]}}, {"id": "88", "type": "Feature", "properties": {"building_id": "1088362740", "area_m2": 298.9991360168749}, "geometry": {"type": "Polygon", "coordinates": [[[13.3864397, 52.517815], [13.3864898, 52.5175372], [13.3863662, 52.517529], [13.3863365, 52.5176942], [13.3862937, 52.5176913], [13.3862734, 52.5178039], [13.3864397, 52.517815]]]}}, {"id": "89", "type": "Feature", "properties": {"building_id": "facc0694-7d3d-4822-93cd-aa2886cad058", "area_m2": 5337.051133968113}, "geometry": {"type": "Polygon", "coordinates": [[[13.3860698, 52.51468039999999], [13.3860219, 52.5149751], [13.3859594, 52.5153166], [13.3859108, 52.5153418], [13.3847113, 52.5152608], [13.3846699, 52.5152355], [13.3847786, 52.5148954], [13.3848122, 52.5147902], [13.384825, 52.5147502], [13.3848795, 52.5145798], [13.3850592, 52.51459220000001], [13.3851111, 52.51459569999999], [13.3851998, 52.5146018], [13.3860501, 52.5146603], [13.3860698, 52.51468039999999]], [[13.3853882, 52.5148325], [13.3854009, 52.5147615], [13.3854085, 52.5147241], [13.385185, 52.5147085], [13.3850688, 52.51470039999999], [13.3850417, 52.5148073], [13.3853882, 52.5148325]], [[13.3854179, 52.5149318], [13.3850689, 52.514912], [13.3850355, 52.5151386], [13.3853845, 52.5151584], [13.3854179, 52.5149318]], [[13.3855135, 52.5150489], [13.3854908, 52.515178499999976], [13.3857586, 52.5151959], [13.3857814, 52.5150663], [13.3855135, 52.5150489]]]}}, {"id": "90", "type": "Feature", "properties": {"building_id": "7198c23d-441a-4e86-b25f-85f4cad61f7c", "area_m2": 2785.9984207470825}, "geometry": {"type": "Polygon", "coordinates": [[[13.3860586, 52.5190918], [13.386045, 52.5191768], [13.3857264, 52.5191571], [13.3857598, 52.5189509], [13.385547, 52.5189376], [13.3855425, 52.5189643], [13.3855303, 52.5189636], [13.3855199, 52.5190252], [13.3855321, 52.519026], [13.3855248, 52.5190694], [13.3855129, 52.5190687], [13.3855026, 52.5191297], [13.3855145, 52.5191304], [13.3855071, 52.5191743], [13.3854944, 52.5191735], [13.3854839, 52.5192355], [13.3854967, 52.5192363], [13.3854384, 52.5195823], [13.3859674, 52.5196149], [13.3859669, 52.5196177], [13.3860388, 52.5196223], [13.3862325, 52.5196345], [13.3862681, 52.5196367], [13.3863552, 52.5196422], [13.3863764, 52.5195168], [13.3861911, 52.5195046], [13.3862226, 52.5193118], [13.3864061, 52.5193237], [13.3864281, 52.5191939], [13.3862202, 52.5191808], [13.3862334, 52.5191016], [13.3861102, 52.5190939], [13.3860586, 52.5190918]], [[13.3860235, 52.5192972], [13.3859898, 52.519495499999984], [13.3856642, 52.519475], [13.3856979, 52.5192767], [13.3860235, 52.5192972]]]}}, {"id": "91", "type": "Feature", "properties": {"building_id": "8404558b-e3ec-42fa-b808-55ac5d0e4ef0", "area_m2": 1409.508872767084}, "geometry": {"type": "Polygon", "coordinates": [[[13.385604, 52.5186083], [13.385547, 52.5189376], [13.3857598, 52.5189509], [13.3859932, 52.5189656], [13.3859735, 52.519087], [13.3860586, 52.5190918], [13.3861102, 52.5190939], [13.3861857, 52.5186485], [13.385604, 52.5186083]], [[13.3859429, 52.518747], [13.3859325, 52.5188046], [13.3859815, 52.5188079], [13.3859714, 52.518864], [13.3857471, 52.518849], [13.3857676, 52.5187353], [13.3859429, 52.518747]]]}}, {"id": "92", "type": "Feature", "properties": {"building_id": "36a58fa0-36a2-455a-b339-8d432ff5933d", "area_m2": 10238.224724386435}, "geometry": {"type": "Polygon", "coordinates": [[[13.3924562, 52.5189144], [13.3926564, 52.5189272], [13.3927421, 52.5184322], [13.3928271, 52.51794049999999], [13.3925979, 52.5179258], [13.392667, 52.5175265], [13.3932062, 52.517561], [13.3932044, 52.5175718], [13.3931866, 52.5176745], [13.3931317, 52.5179918], [13.3934874, 52.51801459999999], [13.3934921, 52.5179876], [13.393502, 52.5179882], [13.3935053, 52.5179695], [13.3937025, 52.5179823], [13.3939096, 52.51799590000001], [13.3939061, 52.5180154], [13.3939144, 52.518016], [13.3939097, 52.5180419], [13.3942644, 52.5180656], [13.3943219, 52.51774669999999], [13.3943397, 52.5176477], [13.3943411, 52.5176402], [13.3948735, 52.5176758], [13.394802, 52.5180723], [13.3945541, 52.5180557], [13.3943763, 52.5190412], [13.3945236, 52.5190511], [13.394504, 52.5191594], [13.3944936, 52.5191587], [13.3944898, 52.51918040000001], [13.3944016, 52.5191746], [13.3944, 52.5191834], [13.394311, 52.5191776], [13.3941545, 52.519167299999985], [13.3941562, 52.519158], [13.3940677, 52.5191521], [13.3942263, 52.5182448], [13.3938803, 52.5182222], [13.3938753, 52.5182482], [13.3938693, 52.5182477], [13.3938252, 52.5182452], [13.3937696, 52.5182415], [13.3935542, 52.5182275], [13.3935228, 52.5182255], [13.3934543, 52.518221], [13.3934459, 52.5182205], [13.3934503, 52.5181954], [13.3931116, 52.51817350000001], [13.3929533, 52.5190791], [13.3928342, 52.5190714], [13.3928329, 52.51907889999998], [13.3925421, 52.5190602], [13.3925434, 52.5190526], [13.3924335, 52.5190455], [13.3924562, 52.5189144]], [[13.3929474, 52.5178264], [13.3929711, 52.5176786], [13.3927955, 52.5176682], [13.3927715, 52.5178158], [13.3929474, 52.5178264]], [[13.3945103, 52.5178905], [13.394684, 52.5179035], [13.3947072, 52.5177883], [13.3945335, 52.5177753], [13.3945103, 52.5178905]]]}}]}