{"type": "FeatureCollection", "features": [{"id": "0", "type": "Feature", "properties": {"building_id": "48041355", "area_m2": 976.1570572439198}, "geometry": {"type": "Polygon", "coordinates": [[[-77.0289224, 38.899937], [-77.0289284, 38.9000918], [-77.0288439, 38.9001261], [-77.0289196, 38.9002576], [-77.0286939, 38.9003382], [-77.0286215, 38.900207], [-77.0286166, 38.8999358], [-77.0289224, 38.899937]]]}}, {"id": "1", "type": "Feature", "properties": {"building_id": "48041485", "area_m2": 1016.7422599046031}, "geometry": {"type": "Polygon", "coordinates": [[[-77.0289284, 38.9000918], [-77.0289224, 38.899937], [-77.0294079, 38.8999388], [-77.0294189, 38.8999439], [-77.029425, 38.8999538], [-77.0294266, 38.9000573], [-77.0294185, 38.9000715], [-77.02940820000002, 38.9000796], [-77.0289993, 38.9002233], [-77.0289284, 38.9000918]]]}}, {"id": "2", "type": "Feature", "properties": {"building_id": "48041629", "area_m2": 1574.864121374642}, "geometry": {"type": "Polygon", "coordinates": [[[-77.0282374, 38.9004883], [-77.0282379, 38.9001647], [-77.0283686, 38.9001641], [-77.0283271, 38.900092], [-77.0282356, 38.9001231], [-77.0282349, 38.9001234], [-77.0282322, 38.8999397], [-77.0285834, 38.899939], [-77.0285841, 38.899939], [-77.0285801, 38.9001947], [-77.0286576, 38.9003426], [-77.0284723, 38.9003405], [-77.0285031, 38.900393], [-77.0282374, 38.9004883]]]}}, {"id": "3", "type": "Feature", "properties": {"building_id": "48056734", "area_m2": 1686.1841349608142}, "geometry": {"type": "Polygon", "coordinates": [[[-77.0308322, 38.9043085], [-77.030832, 38.9038645], [-77.03121, 38.9038598], [-77.0312094, 38.9039632], [-77.0312222, 38.9039633], [-77.0312214, 38.90407960000001], [-77.0312345, 38.90407960000001], [-77.0312332, 38.9041903], [-77.0312252, 38.9041903], [-77.0312253, 38.90431010000001], [-77.0308322, 38.9043102], [-77.0308322, 38.9043085]]]}}, {"id": "4", "type": "Feature", "properties": {"building_id": "48056737", "area_m2": 877.4337068461626}, "geometry": {"type": "Polygon", "coordinates": [[[-77.0333491, 38.9021087], [-77.033349, 38.9020836], [-77.0333413, 38.9020836], [-77.0333403, 38.9020409], [-77.0334545, 38.9020391], [-77.0334549, 38.9020715], [-77.0334631, 38.9020715], [-77.0334659, 38.9020727], [-77.0334682, 38.9020745], [-77.0334698, 38.9020767], [-77.0334707, 38.90207919999999], [-77.0334707, 38.90208], [-77.0334729, 38.9021519], [-77.0334552, 38.9021533], [-77.0334571, 38.9022464], [-77.0334609, 38.9022469], [-77.0334644, 38.90224820000002], [-77.0334674, 38.90225], [-77.0334697, 38.9022522], [-77.0334712, 38.9022549], [-77.0334719, 38.9022577], [-77.0334723, 38.9023259], [-77.0330604, 38.9023224], [-77.0330593, 38.9023138], [-77.0330589, 38.9022359], [-77.0330939, 38.90223369999999], [-77.0330902, 38.9021116], [-77.0333491, 38.9021087]]]}}, {"id": "5", "type": "Feature", "properties": {"building_id": "48056738", "area_m2": 506.51982871513076}, "geometry": {"type": "Polygon", "coordinates": [[[-77.0331487, 38.9018866], [-77.0334509, 38.9018878], [-77.0334545, 38.9020391], [-77.0333403, 38.9020409], [-77.0332411, 38.9020424], [-77.0332418, 38.9020672], [-77.0331293, 38.9020687], [-77.0331299, 38.9018902], [-77.0331487, 38.9018904], [-77.0331487, 38.9018866]]]}}, {"id": "6", "type": "Feature", "properties": {"building_id": "48056758", "area_m2": 1615.3338064090938}, "geometry": {"type": "Polygon", "coordinates": [[[-77.0323186, 38.8994667], [-77.0324717, 38.8997284], [-77.0324694, 38.9000802], [-77.0321563, 38.9000809], [-77.0321556, 38.8995772], [-77.0321571, 38.8995691], [-77.0321628, 38.8995532], [-77.0321719, 38.8995385], [-77.0321841, 38.8995252], [-77.0321992, 38.8995138], [-77.0322148, 38.8995053], [-77.0323186, 38.8994667]]]}}, {"id": "7", "type": "Feature", "properties": {"building_id": "48056764", "area_m2": 1454.9800652124873}, "geometry": {"type": "Polygon", "coordinates": [[[-77.0294313, 38.9007652], [-77.0294308, 38.9008841], [-77.0294132, 38.9008961], [-77.0294314, 38.9009089], [-77.0294335, 38.9011975], [-77.0294184, 38.9012102], [-77.029047, 38.9012092], [-77.0290406, 38.9012044], [-77.0290417, 38.9009174], [-77.0291678, 38.9008947], [-77.0291971, 38.9008597], [-77.0292131, 38.900769], [-77.0294313, 38.9007652]]]}}, {"id": "8", "type": "Feature", "properties": {"building_id": "48056767", "area_m2": 1853.8105795545512}, "geometry": {"type": "Polygon", "coordinates": [[[-77.0289803, 38.904031], [-77.0289813, 38.903867], [-77.0290659, 38.9038673], [-77.0290659, 38.903858], [-77.0292271, 38.9038583], [-77.0292296, 38.9038677], [-77.0293508, 38.9038676], [-77.0293546, 38.9038586], [-77.0294121, 38.9038576], [-77.0294123, 38.9039781], [-77.0294274, 38.9039815], [-77.029427, 38.9040516], [-77.02941380000001, 38.904056], [-77.0294134, 38.9041156], [-77.0294272, 38.9041195], [-77.0294269, 38.9041686], [-77.0294169, 38.9041719], [-77.0294168, 38.9041788], [-77.0294267, 38.9041804], [-77.0294264, 38.9042316], [-77.0294117, 38.9042354], [-77.02941140000001, 38.904294599999986], [-77.0294275, 38.9042971], [-77.0294273, 38.90433559999999], [-77.0294128, 38.9043385], [-77.0294125, 38.9043983], [-77.0294268, 38.9043998], [-77.0294261, 38.9045017], [-77.0294079, 38.9045017], [-77.0294079, 38.9044987], [-77.029387, 38.9044986], [-77.0293711, 38.9045249], [-77.0293689, 38.9045285], [-77.0293669, 38.904532], [-77.0292783, 38.9045018], [-77.0292563, 38.9044943], [-77.0292593, 38.9044827], [-77.029234, 38.9044742], [-77.0292291, 38.9044801], [-77.0292132, 38.9044761], [-77.0292155, 38.9044661], [-77.0291417, 38.9044418], [-77.0291349, 38.9044478], [-77.0291116, 38.9044402], [-77.0291119, 38.904431899999985], [-77.029062, 38.904415], [-77.0290962, 38.9043504], [-77.0290881, 38.9043478], [-77.0290974, 38.9043287], [-77.0292051, 38.90432710000002], [-77.0292059, 38.9042897], [-77.0292061, 38.9042835], [-77.0291911, 38.9042835], [-77.0291905, 38.9041678], [-77.0291897, 38.904024], [-77.0291258, 38.904024], [-77.0291258, 38.9040292], [-77.0289803, 38.904031]]]}}, {"id": "9", "type": "Feature", "properties": {"building_id": "48056768", "area_m2": 190.01233413162421}, "geometry": {"type": "Polygon", "coordinates": [[[-77.0291032, 38.9005794], [-77.0292497, 38.9005299], [-77.0292543, 38.90053910000001], [-77.0293135, 38.90064419999999], [-77.0292462, 38.9006681], [-77.0291708, 38.9006929], [-77.0291032, 38.9005794]]]}}, {"id": "10", "type": "Feature", "properties": {"building_id": "48056769", "area_m2": 1039.492554875774}, "geometry": {"type": "Polygon", "coordinates": [[[-77.0291606, 38.9023352], [-77.0291578, 38.9023283], [-77.0291589, 38.9023207], [-77.0291642, 38.9023149], [-77.0291737, 38.9023125], [-77.0291733, 38.90195269999999], [-77.0291628, 38.9019503], [-77.0291556, 38.9019439], [-77.0291539, 38.9019356], [-77.0291581, 38.9019277], [-77.0291667, 38.9019229], [-77.0291773, 38.9019223], [-77.0291868, 38.901926], [-77.0291924, 38.901933], [-77.0294131, 38.901933], [-77.0294197, 38.9019256], [-77.0294306, 38.90192250000001], [-77.0294418, 38.9019248], [-77.0294501, 38.9019337], [-77.0294483, 38.9019446], [-77.0294374, 38.9019516], [-77.0294365, 38.9020131], [-77.0294472, 38.9020168], [-77.0294545, 38.9020238], [-77.0294567, 38.9020327], [-77.0294539, 38.9020408], [-77.029447, 38.90204710000001], [-77.0294373, 38.9020505], [-77.0294384, 38.9022132], [-77.0294483, 38.90221720000001], [-77.0294549, 38.9022244], [-77.0294566, 38.902233], [-77.0294534, 38.902241], [-77.0294461, 38.9022472], [-77.029436, 38.9022503], [-77.0294349, 38.9022918], [-77.02943590000001, 38.90231210000001], [-77.0294468, 38.9023179], [-77.0294499, 38.90232790000001], [-77.0294437, 38.902337], [-77.0294328, 38.9023405], [-77.0294214, 38.9023382], [-77.029414, 38.902331], [-77.0291935, 38.9023316], [-77.0291879, 38.9023377], [-77.0291791, 38.90234070000001], [-77.0291695, 38.9023399], [-77.0291606, 38.9023352]]]}}, {"id": "11", "type": "Feature", "properties": {"building_id": "48056774", "area_m2": 271.5001974220354}, "geometry": {"type": "Polygon", "coordinates": [[[-77.0292462, 38.9006681], [-77.0293135, 38.90064419999999], [-77.0292543, 38.90053910000001], [-77.0292697, 38.9005284], [-77.0292806, 38.9005228], [-77.029296, 38.9005185], [-77.0293078, 38.9005149], [-77.0293195, 38.9005136], [-77.0293314, 38.9005143], [-77.029326, 38.9005037], [-77.02941580000001, 38.9004717], [-77.0294141, 38.9006993], [-77.029246, 38.9007012], [-77.0292462, 38.9006681]]]}}, {"id": "12", "type": "Feature", "properties": {"building_id": "48056776", "area_m2": 4015.932041120622}, "geometry": {"type": "Polygon", "coordinates": [[[-77.0298157, 38.900774], [-77.0300352, 38.9007755], [-77.0300361, 38.900815], [-77.03023920000001, 38.9008149], [-77.0302389, 38.9008878], [-77.0304343, 38.90088930000001], [-77.0304342, 38.900817199999985], [-77.0307764, 38.9008148], [-77.0307764, 38.9008171], [-77.0308783, 38.9008167], [-77.0308791, 38.9009144], [-77.0308811, 38.9011792], [-77.0308819, 38.9012117], [-77.0308799, 38.9012117], [-77.0308095, 38.9012118], [-77.0298136, 38.9012125], [-77.0298157, 38.900774]]]}}, {"id": "13", "type": "Feature", "properties": {"building_id": "48056777", "area_m2": 5275.3024042946645}, "geometry": {"type": "Polygon", "coordinates": [[[-77.0312281, 38.9027301], [-77.0312241, 38.903126], [-77.0306388, 38.9031255], [-77.0305502, 38.9031254], [-77.0298149, 38.9031247], [-77.0298152, 38.9030108], [-77.029816, 38.9027251], [-77.0300328, 38.90272539999999], [-77.0300328, 38.9027547], [-77.0301362, 38.9027549], [-77.0301362, 38.9027275], [-77.0303061, 38.9027277], [-77.030306, 38.9027585], [-77.0303582, 38.902758599999984], [-77.0304116, 38.9027587], [-77.0304116, 38.902726], [-77.0306295, 38.9027264], [-77.0306295, 38.9027551], [-77.03077530000002, 38.90275539999998], [-77.03077530000002, 38.902729], [-77.0309039, 38.9027293], [-77.0309038, 38.9027582], [-77.0310146, 38.90275829999999], [-77.0310147, 38.9027288], [-77.0312281, 38.9027301]]]}}, {"id": "14", "type": "Feature", "properties": {"building_id": "48056779", "area_m2": 1920.2884870647288}, "geometry": {"type": "Polygon", "coordinates": [[[-77.0314211, 38.90045279999999], [-77.0314224, 38.9005156], [-77.0314232, 38.9005687], [-77.0313108, 38.9005697], [-77.0313125, 38.9006936], [-77.0308181, 38.90069780000001], [-77.0308132, 38.9003462], [-77.0314204, 38.9003411], [-77.0314211, 38.90045279999999]]]}}, {"id": "15", "type": "Feature", "properties": {"building_id": "48056781", "area_m2": 433.49391940245994}, "geometry": {"type": "Polygon", "coordinates": [[[-77.0312345, 38.90407960000001], [-77.0312214, 38.90407960000001], [-77.0312222, 38.9039633], [-77.0312094, 38.9039632], [-77.03121, 38.9038598], [-77.031422, 38.9038607], [-77.0314201, 38.9040803], [-77.0312345, 38.90407960000001]]]}}, {"id": "16", "type": "Feature", "properties": {"building_id": "48056782", "area_m2": 3846.8240471864956}, "geometry": {"type": "Polygon", "coordinates": [[[-77.0307095, 38.9036129], [-77.0307068, 38.9034942], [-77.0307098, 38.9032198], [-77.0307099, 38.9032107], [-77.0311199, 38.90321239999999], [-77.0311199, 38.9032146], [-77.0311195, 38.90328919999999], [-77.0313131, 38.9032901], [-77.0313136, 38.903211], [-77.0317354, 38.9032127], [-77.0317351, 38.903273099999986], [-77.0317592, 38.90327319999999], [-77.0317596, 38.9034881], [-77.031671, 38.9034898], [-77.0316709, 38.9035196], [-77.0316926, 38.9035198], [-77.0316924, 38.903526], [-77.0317005, 38.903526], [-77.0317004, 38.9035466], [-77.0317162, 38.9035466], [-77.031716, 38.90357479999999], [-77.0316993, 38.9035747], [-77.0316991, 38.9035959], [-77.0316921, 38.9035959], [-77.031692, 38.903604], [-77.0316838, 38.9036039], [-77.0316837, 38.9036098], [-77.0316554, 38.9036096], [-77.0316553, 38.9036215], [-77.031585, 38.9036211], [-77.031585, 38.903612], [-77.0314451, 38.90361140000001], [-77.0314451, 38.9036203], [-77.0313741, 38.9036201], [-77.0313742, 38.9036126], [-77.0312342, 38.903612], [-77.0312342, 38.903615400000014], [-77.0312341, 38.9036221], [-77.0311646, 38.9036219], [-77.0311636, 38.9036122], [-77.0310246, 38.9036116], [-77.0310245, 38.9036216], [-77.03095250000001, 38.9036212], [-77.03095250000001, 38.9036127], [-77.0308122, 38.9036121], [-77.0308122, 38.9036219], [-77.0307424, 38.9036215], [-77.0307414, 38.903613], [-77.0307095, 38.9036129]]]}}, {"id": "17", "type": "Feature", "properties": {"building_id": "48056783", "area_m2": 291.15260370462073}, "geometry": {"type": "Polygon", "coordinates": [[[-77.0321675, 38.9018664], [-77.03246550000001, 38.9018639], [-77.0324669, 38.9019547], [-77.0321464, 38.9019567], [-77.0321456, 38.9019451], [-77.0321298, 38.9019451], [-77.0321296, 38.9018673], [-77.0321675, 38.9018664]]]}}, {"id": "18", "type": "Feature", "properties": {"building_id": "48056785", "area_m2": 594.2134676255905}, "geometry": {"type": "Polygon", "coordinates": [[[-77.0321477, 38.90327889999999], [-77.0321479, 38.9032271], [-77.0321481, 38.9031533], [-77.0326353, 38.9031537], [-77.0326346, 38.9032815], [-77.0321477, 38.90327889999999]]]}}, {"id": "19", "type": "Feature", "properties": {"building_id": "48056786", "area_m2": 2127.0951139236095}, "geometry": {"type": "Polygon", "coordinates": [[[-77.0325658, 38.9010089], [-77.0325698, 38.901216], [-77.0321533, 38.9012165], [-77.0321518, 38.9011708], [-77.0321482, 38.9008051], [-77.0325396, 38.9008049], [-77.032568, 38.9008331], [-77.0325679, 38.9008719], [-77.0326085, 38.9008715], [-77.0326075, 38.9007714], [-77.0329058, 38.9007706], [-77.0329062, 38.9009274], [-77.0325658, 38.9009326], [-77.0325658, 38.9010089]]]}}, {"id": "20", "type": "Feature", "properties": {"building_id": "48056787", "area_m2": 626.5480002287965}, "geometry": {"type": "Polygon", "coordinates": [[[-77.0326076, 38.901219], [-77.0326089, 38.9010148], [-77.0329255, 38.9010128], [-77.0329267, 38.901218], [-77.0326076, 38.901219]]]}}, {"id": "21", "type": "Feature", "properties": {"building_id": "48056788", "area_m2": 3029.342663806373}, "geometry": {"type": "Polygon", "coordinates": [[[-77.0329251, 38.90035369999999], [-77.0329252, 38.9007537], [-77.0326998, 38.9007541], [-77.0327001, 38.9006788], [-77.0325296, 38.9006792], [-77.0325308, 38.9007547], [-77.0321473, 38.9007581], [-77.0321413, 38.9004823], [-77.0321298, 38.9004825], [-77.0321297, 38.9003322], [-77.0323211, 38.9003309], [-77.0323212, 38.9003416], [-77.0328641, 38.9003374], [-77.0328651, 38.9003374], [-77.0328652, 38.90035409999999], [-77.0329251, 38.90035369999999]]]}}, {"id": "22", "type": "Feature", "properties": {"building_id": "48056789", "area_m2": 1575.758844705357}, "geometry": {"type": "Polygon", "coordinates": [[[-77.0321589, 38.9020109], [-77.03267, 38.9020101], [-77.0326707, 38.9023144], [-77.0326593, 38.902323], [-77.0326587, 38.9023235], [-77.0321489, 38.9023242], [-77.0321467, 38.9020197], [-77.0321479, 38.9020189], [-77.0321589, 38.9020109]]]}}, {"id": "23", "type": "Feature", "properties": {"building_id": "48056790", "area_m2": 1273.2765205682094}, "geometry": {"type": "Polygon", "coordinates": [[[-77.0321584, 38.9038622], [-77.0327002, 38.9038607], [-77.03273, 38.9038958], [-77.0325658, 38.9041779], [-77.032304, 38.9040877], [-77.0321579, 38.9040862], [-77.0321584, 38.9038622]]]}}, {"id": "24", "type": "Feature", "properties": {"building_id": "48056791", "area_m2": 754.4203338704071}, "geometry": {"type": "Polygon", "coordinates": [[[-77.0324817, 38.9030646], [-77.0324832, 38.9027546], [-77.0327356, 38.9027556], [-77.0327351, 38.9029728], [-77.0327344, 38.9030656], [-77.0324817, 38.9030646]]]}}, {"id": "25", "type": "Feature", "properties": {"building_id": "48056792", "area_m2": 875.2935019152237}, "geometry": {"type": "Polygon", "coordinates": [[[-77.0329654, 38.9034595], [-77.0327512, 38.9034601], [-77.0327534, 38.903154600000015], [-77.0330907, 38.9031541], [-77.0330972, 38.9031855], [-77.0331191, 38.9031968], [-77.0329654, 38.9034595]]]}}, {"id": "26", "type": "Feature", "properties": {"building_id": "48056793", "area_m2": 1460.39925319152}, "geometry": {"type": "Polygon", "coordinates": [[[-77.0321477, 38.90327889999999], [-77.0326346, 38.9032815], [-77.0326324, 38.9036149], [-77.0322713, 38.9036135], [-77.0322716, 38.90357740000001], [-77.0322819, 38.9035722], [-77.0322033, 38.9035107], [-77.0321966, 38.9035173], [-77.0321468, 38.9035177], [-77.0321477, 38.90327889999999]]]}}, {"id": "27", "type": "Feature", "properties": {"building_id": "48056796", "area_m2": 2842.751217060008}, "geometry": {"type": "Polygon", "coordinates": [[[-77.0308811, 38.9011792], [-77.0308791, 38.9009144], [-77.0309819, 38.9009138], [-77.0309805, 38.90083449999999], [-77.0314929, 38.9008365], [-77.0317213, 38.9008358], [-77.0317216, 38.9008452], [-77.031726, 38.9008451], [-77.0317254, 38.90091670000001], [-77.0317469, 38.9009186], [-77.0317602, 38.9009298], [-77.0317618, 38.90113560000001], [-77.0317494, 38.9011515], [-77.0317396, 38.9011557], [-77.031726, 38.9011566], [-77.031726, 38.9011679], [-77.0317187, 38.9011778], [-77.031706, 38.9011828], [-77.0316907, 38.9011835], [-77.0316884, 38.9011968], [-77.0316738, 38.901209], [-77.0314738, 38.9012094], [-77.0314578, 38.9011994], [-77.0314543, 38.9011826], [-77.0314357, 38.9011815], [-77.0314241, 38.9011743], [-77.0314198, 38.9011673], [-77.0314186, 38.9011523], [-77.0314047, 38.9011529], [-77.0313917, 38.9011449], [-77.0313847, 38.9011329], [-77.0313855, 38.9011197], [-77.0312577, 38.9011206], [-77.0312579, 38.90113359999999], [-77.0312522, 38.9011452], [-77.0312398, 38.901153], [-77.0312204, 38.9011547], [-77.0312206, 38.9011647], [-77.0312134, 38.9011756], [-77.0312003, 38.9011822], [-77.0311839, 38.9011833], [-77.0311821, 38.9012003], [-77.0311754, 38.9012064], [-77.0311615, 38.9012112], [-77.0309746, 38.90121039999998], [-77.0309651, 38.9012086], [-77.0309539, 38.9012011], [-77.03095010000001, 38.901194], [-77.0309511, 38.9011826], [-77.030893, 38.9011835], [-77.0308928, 38.9011791], [-77.0308811, 38.9011792]]]}}, {"id": "28", "type": "Feature", "properties": {"building_id": "48056798", "area_m2": 1228.4637159862702}, "geometry": {"type": "Polygon", "coordinates": [[[-77.0314274, 38.900089], [-77.0314282, 38.8999015], [-77.0313661, 38.8997953], [-77.0316409, 38.8997018], [-77.0316857, 38.8996753], [-77.0317145, 38.8997056], [-77.0317404, 38.8997443], [-77.0317569, 38.8997875], [-77.0317633, 38.8998294], [-77.0317647, 38.8998604], [-77.0317677, 38.90009520000001], [-77.0314274, 38.9000959], [-77.0314274, 38.900089]]]}}, {"id": "29", "type": "Feature", "properties": {"building_id": "48056799", "area_m2": 863.7104395450202}, "geometry": {"type": "Polygon", "coordinates": [[[-77.0314201, 38.9040803], [-77.031422, 38.9038607], [-77.0317579, 38.903862], [-77.0317561, 38.9041289], [-77.0314201, 38.9041275], [-77.0314201, 38.9040803]]]}}, {"id": "30", "type": "Feature", "properties": {"building_id": "48056800", "area_m2": 2412.97797962418}, "geometry": {"type": "Polygon", "coordinates": [[[-77.0324694, 38.9000802], [-77.0324717, 38.8997284], [-77.0323186, 38.8994667], [-77.0325564, 38.8993784], [-77.0325839, 38.899386], [-77.0326786, 38.8993542], [-77.0328717, 38.8996834], [-77.0327911, 38.8997133], [-77.0327914, 38.8997232], [-77.0327914, 38.8997259], [-77.0327911, 38.8997277], [-77.0327936, 38.9000676], [-77.0327934, 38.900089], [-77.0324876, 38.9000907], [-77.0324697, 38.9000908], [-77.0324694, 38.9000802]]]}}, {"id": "31", "type": "Feature", "properties": {"building_id": "48056802", "area_m2": 1254.9189856778023}, "geometry": {"type": "Polygon", "coordinates": [[[-77.0314929, 38.9008365], [-77.0314925, 38.9007737], [-77.0313915, 38.9007741], [-77.0313911, 38.9006899], [-77.0313645, 38.90069], [-77.0313641, 38.9006031], [-77.0313829, 38.900603], [-77.0313828, 38.90058169999998], [-77.0315486, 38.9005814], [-77.0315484, 38.9005153], [-77.0314224, 38.9005156], [-77.0314211, 38.90045279999999], [-77.0317721, 38.90045150000001], [-77.0317732, 38.9008357], [-77.0317213, 38.9008358], [-77.0314929, 38.9008365]]]}}, {"id": "32", "type": "Feature", "properties": {"building_id": "48056803", "area_m2": 1075.9114645819616}, "geometry": {"type": "Polygon", "coordinates": [[[-77.0314168, 38.902857], [-77.0314181, 38.9027313], [-77.0317698, 38.9027357], [-77.031769, 38.9028702], [-77.0316711, 38.9028701], [-77.0316708, 38.9029287], [-77.0316704, 38.9029862], [-77.031771, 38.9029865], [-77.03177030000002, 38.9031155], [-77.0317267, 38.90311539999998], [-77.0316768, 38.9031152], [-77.0316769, 38.903098], [-77.0315485, 38.9030975], [-77.0315483, 38.9031201], [-77.0315278, 38.90312], [-77.0315279, 38.9031096], [-77.0314506, 38.9031093], [-77.0314521, 38.9028574], [-77.0314168, 38.902857]]]}}, {"id": "33", "type": "Feature", "properties": {"building_id": "48056815", "area_m2": 1221.8421305074703}, "geometry": {"type": "Polygon", "coordinates": [[[-77.0343078, 38.9003372], [-77.0343102, 38.9004473], [-77.0341194, 38.9004483], [-77.0341199, 38.900462], [-77.0341241, 38.9004622], [-77.0341251, 38.9005035], [-77.034093, 38.90050379999999], [-77.0340921, 38.9004635], [-77.0340977, 38.90046359999999], [-77.0340973, 38.9004484], [-77.0340485, 38.9004487], [-77.0340493, 38.9004825], [-77.0340656, 38.9004823], [-77.0340664, 38.9005159], [-77.0340499, 38.9005164], [-77.0340501, 38.9005526], [-77.0342395, 38.90055339999998], [-77.0342399, 38.90067], [-77.0338259, 38.9006679], [-77.0338285, 38.9003366], [-77.0343078, 38.9003372]]]}}, {"id": "34", "type": "Feature", "properties": {"building_id": "48056818", "area_m2": 1684.3594480229801}, "geometry": {"type": "Polygon", "coordinates": [[[-77.0338381, 38.89964710000001], [-77.0343406, 38.8996462], [-77.034341, 38.8997185], [-77.0342071, 38.8997188], [-77.0342069, 38.899786], [-77.0342081, 38.9000749], [-77.0341703, 38.90007579999999], [-77.0341703, 38.9000857], [-77.03383060000002, 38.9000854], [-77.0338292, 38.8996473], [-77.0338381, 38.89964710000001]]]}}, {"id": "35", "type": "Feature", "properties": {"building_id": "48056819", "area_m2": 3947.2215543428474}, "geometry": {"type": "Polygon", "coordinates": [[[-77.0343102, 38.9004473], [-77.0343078, 38.9003372], [-77.0346653, 38.9003378], [-77.0346769, 38.9003618], [-77.0346917, 38.9003845], [-77.0347097, 38.9004059], [-77.0347306, 38.9004255], [-77.0347518, 38.9004417], [-77.0347495, 38.9004455], [-77.0342907, 38.9012087], [-77.03383060000002, 38.9012115], [-77.0338288, 38.9007281], [-77.0343076, 38.9007207], [-77.034343, 38.9006709], [-77.0343923, 38.9006908], [-77.0344842, 38.9005397], [-77.03444180000001, 38.9005251], [-77.0344417, 38.9005224], [-77.03444060000001, 38.9004867], [-77.034314, 38.9004887], [-77.0343112, 38.9004887], [-77.0343102, 38.9004473]]]}}, {"id": "36", "type": "Feature", "properties": {"building_id": "48056830", "area_m2": 1410.0532652184415}, "geometry": {"type": "Polygon", "coordinates": [[[-77.0298157, 38.900774], [-77.0298177, 38.9003509], [-77.0298285, 38.9003509], [-77.0298284, 38.9003446], [-77.0298382, 38.9003444], [-77.0298381, 38.9003376], [-77.03013030000001, 38.9003348], [-77.0301306, 38.900345], [-77.0301412, 38.9003448], [-77.0301408, 38.9003537], [-77.0301571, 38.9003535], [-77.0301564, 38.9004726], [-77.0301458, 38.900487699999985], [-77.0301273, 38.9004944], [-77.0301272, 38.9005252], [-77.0301434, 38.900528], [-77.03015160000001, 38.9005391], [-77.0301558, 38.9007727], [-77.0300352, 38.9007755], [-77.0298157, 38.900774]]]}}, {"id": "37", "type": "Feature", "properties": {"building_id": "48056831", "area_m2": 687.4126501143219}, "geometry": {"type": "Polygon", "coordinates": [[[-77.0298118, 38.9034132], [-77.0299747, 38.9034127], [-77.0301674, 38.9034122], [-77.0301661, 38.903615], [-77.0298148, 38.9036143], [-77.0298118, 38.9034132]]]}}, {"id": "38", "type": "Feature", "properties": {"building_id": "48056832", "area_m2": 2426.1354248108014}, "geometry": {"type": "Polygon", "coordinates": [[[-77.0301659, 38.9038693], [-77.0301648, 38.9041559], [-77.0301664, 38.9041874], [-77.0302598, 38.9041878], [-77.0302591, 38.904309], [-77.0302585, 38.9043959], [-77.0302552, 38.9044116], [-77.0302534, 38.9044448], [-77.0301965, 38.9044464], [-77.0300178, 38.9044457], [-77.0300175, 38.9044953], [-77.0300027, 38.9044972], [-77.0300023, 38.9045559], [-77.0299847, 38.9045558], [-77.0298139, 38.904558], [-77.0298124, 38.9038595], [-77.0301254, 38.9038596], [-77.0301246, 38.9038682], [-77.0301659, 38.9038693]]]}}, {"id": "39", "type": "Feature", "properties": {"building_id": "48056833", "area_m2": 1392.6476577178103}, "geometry": {"type": "Polygon", "coordinates": [[[-77.0307068, 38.9034942], [-77.0307095, 38.9036129], [-77.0302899, 38.9036112], [-77.0302925, 38.9032178], [-77.0306384, 38.9032192], [-77.0306366, 38.9034939], [-77.0307068, 38.9034942]]]}}, {"id": "40", "type": "Feature", "properties": {"building_id": "48056834", "area_m2": 1216.7154212736602}, "geometry": {"type": "Polygon", "coordinates": [[[-77.0305728, 38.900337], [-77.0305756, 38.9007024], [-77.0305757, 38.9007298], [-77.0302542, 38.9007315], [-77.0302511, 38.9003387], [-77.030252, 38.9003387], [-77.0305728, 38.900337]]]}}, {"id": "41", "type": "Feature", "properties": {"building_id": "48056837", "area_m2": 805.8170330189379}, "geometry": {"type": "Polygon", "coordinates": [[[-77.0301674, 38.9034122], [-77.0299747, 38.9034127], [-77.0298118, 38.9034132], [-77.0298089, 38.9032082], [-77.0302223, 38.90321010000002], [-77.030221, 38.9034121], [-77.0301674, 38.9034122]]]}}, {"id": "42", "type": "Feature", "properties": {"building_id": "48056843", "area_m2": 673.6887932292238}, "geometry": {"type": "Polygon", "coordinates": [[[-77.0305728, 38.900337], [-77.0306147, 38.900336799999984], [-77.0307642, 38.9003361], [-77.0307671, 38.9007015], [-77.0305756, 38.9007024], [-77.0305728, 38.900337]]]}}, {"id": "43", "type": "Feature", "properties": {"building_id": "48056844", "area_m2": 689.2058793891933}, "geometry": {"type": "Polygon", "coordinates": [[[-77.0312281, 38.9027301], [-77.0313896, 38.9027311], [-77.0314181, 38.9027313], [-77.0314168, 38.902857], [-77.0314033, 38.9028569], [-77.0314006, 38.9031271], [-77.0312241, 38.903126], [-77.0312281, 38.9027301]]]}}, {"id": "44", "type": "Feature", "properties": {"building_id": "48056845", "area_m2": 1101.968696766074}, "geometry": {"type": "Polygon", "coordinates": [[[-77.0313661, 38.8997953], [-77.0314282, 38.8999015], [-77.0314274, 38.900089], [-77.0310463, 38.90008859999998], [-77.0310436, 38.9000891], [-77.0310384, 38.90008959999999], [-77.0310332, 38.9000893], [-77.0310283, 38.90008839999998], [-77.0310236, 38.9000867], [-77.0310193, 38.9000844], [-77.0310156, 38.9000816], [-77.0310126, 38.9000783], [-77.0310104, 38.9000746], [-77.031009, 38.9000707], [-77.0309329, 38.9000835], [-77.0309267, 38.9000628], [-77.0308792, 38.9000736], [-77.0308539, 38.8999838], [-77.0309034, 38.8999736], [-77.0308995, 38.8999602], [-77.0309403, 38.8999524], [-77.0309745, 38.8999458], [-77.0309746, 38.8999434], [-77.0309755, 38.8999398], [-77.0309774, 38.8999362], [-77.0309799, 38.899933], [-77.0309833, 38.8999302], [-77.0309872, 38.8999279], [-77.0309916, 38.8999261], [-77.03099630000001, 38.899925], [-77.0310133, 38.899919], [-77.0313661, 38.8997953]]]}}, {"id": "45", "type": "Feature", "properties": {"building_id": "48056846", "area_m2": 404.1865957687582}, "geometry": {"type": "Polygon", "coordinates": [[[-77.0327512, 38.9034601], [-77.0329654, 38.9034595], [-77.0329643, 38.9034614], [-77.0329857, 38.90346139999998], [-77.0329826, 38.9034654], [-77.0329968, 38.903471], [-77.0329752, 38.90350620000001], [-77.0329611, 38.9035001], [-77.0329093, 38.9035882], [-77.0329247, 38.903595], [-77.0328999, 38.903632399999985], [-77.0328485, 38.90363519999999], [-77.0328485, 38.9036224], [-77.032757, 38.903622], [-77.0327568, 38.9036322], [-77.0326917, 38.9036321], [-77.0326928, 38.9034637], [-77.0327512, 38.9034639], [-77.0327512, 38.9034624], [-77.0327512, 38.9034601]]]}}, {"id": "46", "type": "Feature", "properties": {"building_id": "48056848", "area_m2": 444.6590483560812}, "geometry": {"type": "Polygon", "coordinates": [[[-77.0327936, 38.9000676], [-77.0327911, 38.8997277], [-77.0328052, 38.899729], [-77.0329027, 38.8997274], [-77.0329027, 38.8998098], [-77.0329322, 38.8998098], [-77.0329322, 38.90009589999998], [-77.0328927, 38.9000967], [-77.0328923, 38.9000672], [-77.0327936, 38.9000676]]]}}, {"id": "47", "type": "Feature", "properties": {"building_id": "48056849", "area_m2": 1768.835477414525}, "geometry": {"type": "Polygon", "coordinates": [[[-77.0329252, 38.9007537], [-77.0329251, 38.90035369999999], [-77.0329251, 38.9003379], [-77.0334453, 38.9003375], [-77.0334455, 38.9004774], [-77.03330780000002, 38.9004775], [-77.0331139, 38.9004777], [-77.033114, 38.9005829], [-77.0333069, 38.9005828], [-77.0334465, 38.9005826], [-77.0334468, 38.9007568], [-77.0329252, 38.900758], [-77.0329252, 38.9007537]]]}}, {"id": "48", "type": "Feature", "properties": {"building_id": "48056851", "area_m2": 513.3443110566275}, "geometry": {"type": "Polygon", "coordinates": [[[-77.0327364, 38.902322], [-77.032737, 38.9019627], [-77.0328857, 38.90196130000002], [-77.0328837, 38.9023224], [-77.0327364, 38.902322]]]}}, {"id": "49", "type": "Feature", "properties": {"building_id": "48056852", "area_m2": 643.1208276199598}, "geometry": {"type": "Polygon", "coordinates": [[[-77.0328837, 38.9023224], [-77.0328857, 38.90196130000002], [-77.0328849, 38.9019336], [-77.0328863, 38.901933599999985], [-77.0330557, 38.9019332], [-77.0330604, 38.9019332], [-77.0330633, 38.9020468], [-77.0330568, 38.9020469], [-77.0330432, 38.90204710000001], [-77.0330455, 38.9021386], [-77.0330575, 38.9021384], [-77.0330585, 38.9021384], [-77.0330589, 38.9022359], [-77.0330593, 38.9023138], [-77.0330593, 38.9023228], [-77.0328837, 38.9023224]]]}}, {"id": "50", "type": "Feature", "properties": {"building_id": "48056853", "area_m2": 1885.8884691231428}, "geometry": {"type": "Polygon", "coordinates": [[[-77.0329641, 38.9008098], [-77.0331706, 38.90081030000001], [-77.0331705, 38.9008492], [-77.0332536, 38.900849399999984], [-77.0332537, 38.900809099999975], [-77.0334498, 38.9008096], [-77.0334484, 38.90122020000001], [-77.03296260000002, 38.9012191], [-77.0329641, 38.9008098]]]}}, {"id": "51", "type": "Feature", "properties": {"building_id": "48056855", "area_m2": 374.0433767288539}, "geometry": {"type": "Polygon", "coordinates": [[[-77.0331487, 38.9018866], [-77.0331504, 38.9017571], [-77.0334481, 38.9017583], [-77.0334509, 38.9018878], [-77.0331487, 38.9018866]]]}}, {"id": "52", "type": "Feature", "properties": {"building_id": "48056856", "area_m2": 1803.9347766051974}, "geometry": {"type": "Polygon", "coordinates": [[[-77.0327351, 38.9029728], [-77.0327356, 38.9027556], [-77.0331603, 38.90275720000001], [-77.0331605, 38.9027253], [-77.0333968, 38.90272619999999], [-77.0334076, 38.9027392], [-77.0332021, 38.9030941], [-77.032821, 38.9030925], [-77.0328218, 38.90297330000001], [-77.0327351, 38.9029728]]]}}, {"id": "53", "type": "Feature", "properties": {"building_id": "48056864", "area_m2": 2021.9157779491761}, "geometry": {"type": "Polygon", "coordinates": [[[-77.0327326, 38.9017649], [-77.0327358, 38.9015318], [-77.0327501, 38.9015223], [-77.0327559, 38.9015187], [-77.0327553, 38.9014633], [-77.0334427, 38.9014644], [-77.0334411, 38.9014993], [-77.0334478, 38.9014992], [-77.0334481, 38.9017583], [-77.0331504, 38.9017571], [-77.0329943, 38.9017568], [-77.0329947, 38.901765], [-77.0327326, 38.9017649]]]}}, {"id": "54", "type": "Feature", "properties": {"building_id": "48056868", "area_m2": 2170.9256910836743}, "geometry": {"type": "Polygon", "coordinates": [[[-77.0288902, 38.9015723], [-77.0288899, 38.9018537], [-77.0283392, 38.9018544], [-77.0283389, 38.9018282], [-77.0283046, 38.9018277], [-77.0283031, 38.901801], [-77.0282693, 38.9018003], [-77.0282687, 38.9017523], [-77.0282356, 38.9017523], [-77.0282381, 38.9015969], [-77.0282704, 38.9015968], [-77.0282699, 38.9015717], [-77.0283052, 38.9015714], [-77.0283048, 38.9015505], [-77.028291, 38.9015483], [-77.0282788, 38.9015426], [-77.0282697, 38.9015342], [-77.0282645, 38.9015239], [-77.028264, 38.9015129], [-77.0282681, 38.9015023], [-77.0282763, 38.9014934], [-77.0282885, 38.9014868], [-77.0283028, 38.9014838], [-77.0283176, 38.9014848], [-77.0283311, 38.9014896], [-77.0283416, 38.9014977], [-77.028348, 38.9015081], [-77.0283495, 38.9015196], [-77.0283743, 38.90152], [-77.0283737, 38.901491], [-77.0284096, 38.9014905], [-77.028409, 38.9014664], [-77.02871620000002, 38.9014652], [-77.0287168, 38.9014912], [-77.0287505, 38.9014912], [-77.0287514, 38.9015184], [-77.02878570000001, 38.90151789999999], [-77.0287866, 38.901545099999986], [-77.028821, 38.901545099999986], [-77.0288204, 38.901572299999984], [-77.0288902, 38.9015723]]]}}, {"id": "55", "type": "Feature", "properties": {"building_id": "48056869", "area_m2": 645.6503080131065}, "geometry": {"type": "Polygon", "coordinates": [[[-77.0286953, 38.9030413], [-77.02869250000002, 38.9027248], [-77.0288758, 38.9027238], [-77.0288787, 38.9030491], [-77.028879, 38.9030896], [-77.02869570000001, 38.9030905], [-77.0286953, 38.9030413]]]}}, {"id": "56", "type": "Feature", "properties": {"building_id": "48056870", "area_m2": 1645.6457975848912}, "geometry": {"type": "Polygon", "coordinates": [[[-77.02869250000002, 38.9027248], [-77.0286953, 38.9030413], [-77.0286017, 38.903041], [-77.0286013, 38.9031077], [-77.0286013, 38.9031084], [-77.0282327, 38.903107], [-77.0282319, 38.903107], [-77.0282333, 38.902723], [-77.02869250000002, 38.9027248]]]}}, {"id": "57", "type": "Feature", "properties": {"building_id": "48056871", "area_m2": 854.7265165934814}, "geometry": {"type": "Polygon", "coordinates": [[[-77.0284214, 38.9040561], [-77.0282316, 38.9040566], [-77.0282332, 38.9038895], [-77.0282724, 38.9038602], [-77.028708, 38.9038618], [-77.0287122, 38.9039896], [-77.0286503, 38.9039898], [-77.028651, 38.9040551], [-77.0285061, 38.904057], [-77.0284214, 38.9040561]]]}}, {"id": "58", "type": "Feature", "properties": {"building_id": "48056872", "area_m2": 1211.0470574141652}, "geometry": {"type": "Polygon", "coordinates": [[[-77.0284338, 38.9041818], [-77.0285061, 38.904057], [-77.028651, 38.9040551], [-77.0286503, 38.9039898], [-77.0287122, 38.9039896], [-77.028708, 38.9038618], [-77.0289813, 38.903867], [-77.0289803, 38.904031], [-77.028969, 38.9040264], [-77.028969, 38.9040407], [-77.0289015, 38.9040386], [-77.0288861, 38.9040525], [-77.0288686, 38.904051], [-77.0288565, 38.9040398], [-77.0287968, 38.9040378], [-77.0287538, 38.9041091], [-77.0287967, 38.9041371], [-77.0288532, 38.9041533], [-77.0288453, 38.9041628], [-77.0288663, 38.9041686], [-77.0287985, 38.9042891], [-77.0287871, 38.9043032], [-77.0287684, 38.9042997], [-77.0287648, 38.9043051], [-77.028756, 38.9043024], [-77.0287295, 38.9043121], [-77.0286765, 38.9042936], [-77.0286647, 38.9042706], [-77.0286684, 38.9042615], [-77.0286503, 38.9042558], [-77.0286455, 38.904264], [-77.02862740000002, 38.90425780000001], [-77.0286051, 38.9042621], [-77.0285876, 38.9042556], [-77.0285834, 38.9042417], [-77.0285645, 38.904237], [-77.0285699, 38.9042279], [-77.0285497, 38.904222099999984], [-77.02854540000001, 38.9042294], [-77.028513, 38.9042373], [-77.0284647, 38.9042207], [-77.0284568, 38.9041986], [-77.0284458, 38.9041953], [-77.0284513, 38.90418709999999], [-77.02844010000001, 38.9041837], [-77.0284338, 38.9041818]]]}}, {"id": "59", "type": "Feature", "properties": {"building_id": "48056873", "area_m2": 2142.3212267409344}, "geometry": {"type": "Polygon", "coordinates": [[[-77.0288915, 38.9036125], [-77.0288622, 38.9036124], [-77.0288607, 38.9036124], [-77.0288576, 38.9031498], [-77.0294287, 38.9031502], [-77.0294303, 38.903487099999985], [-77.0292317, 38.9034088], [-77.029168, 38.9034577], [-77.0292015, 38.9036132], [-77.0288915, 38.9036125]]]}}, {"id": "60", "type": "Feature", "properties": {"building_id": "48056874", "area_m2": 3553.4748518399997}, "geometry": {"type": "Polygon", "coordinates": [[[-77.0291032, 38.9005794], [-77.0291708, 38.9006929], [-77.0291994, 38.9007414], [-77.0291196, 38.9008365], [-77.0289731, 38.9008884], [-77.0289413, 38.9008889], [-77.0289373, 38.9012066], [-77.0283342, 38.901206], [-77.028259, 38.9012059], [-77.028237, 38.9011883], [-77.0282369, 38.901016099999985], [-77.0282368, 38.900907], [-77.0282485, 38.9008925], [-77.0282632, 38.90087410000001], [-77.0291032, 38.9005794]]]}}, {"id": "61", "type": "Feature", "properties": {"building_id": "48056878", "area_m2": 1029.138749127544}, "geometry": {"type": "Polygon", "coordinates": [[[-77.0282363, 38.903351499999985], [-77.0282347, 38.9031561], [-77.0287421, 38.903151], [-77.0287382, 38.9033509], [-77.0287055, 38.9033508], [-77.02852090000002, 38.9033501], [-77.0285128, 38.9033994], [-77.0283917, 38.9034004], [-77.02837380000001, 38.9033896], [-77.0283748, 38.9033695], [-77.02835250000001, 38.9033706], [-77.0283511, 38.903351], [-77.0282363, 38.903351499999985]]]}}, {"id": "62", "type": "Feature", "properties": {"building_id": "48056881", "area_m2": 1046.3836133244497}, "geometry": {"type": "Polygon", "coordinates": [[[-77.0282461, 38.9033887], [-77.0283609, 38.9033877], [-77.0283629, 38.9034056], [-77.0285791, 38.9034076], [-77.0285787, 38.9033902], [-77.0287047, 38.90338889999999], [-77.0287147, 38.9033886], [-77.0287129, 38.9036105], [-77.0287128, 38.9036174], [-77.028584, 38.9036154], [-77.0285881, 38.9036443], [-77.0283597, 38.90364309999999], [-77.0283608, 38.9036152], [-77.0282455, 38.9036154], [-77.0282461, 38.9033887]]]}}, {"id": "63", "type": "Feature", "properties": {"building_id": "48056882", "area_m2": 513.7159335751977}, "geometry": {"type": "Polygon", "coordinates": [[[-77.0342069, 38.899786], [-77.03439160000002, 38.8997856], [-77.0343927, 38.9000745], [-77.0342081, 38.9000749], [-77.0342069, 38.899786]]]}}, {"id": "64", "type": "Feature", "properties": {"building_id": "48056889", "area_m2": 304.6626344757254}, "geometry": {"type": "Polygon", "coordinates": [[[-77.0346917, 38.9000894], [-77.0346908, 38.9000341], [-77.0347309, 38.9000337], [-77.0347304, 38.9000007], [-77.0348274, 38.8999998], [-77.0348267, 38.8999495], [-77.0349659, 38.8999482], [-77.0349778, 38.899948], [-77.0349789, 38.9000162], [-77.0349632, 38.9000164], [-77.0349645, 38.9000925], [-77.0347904, 38.9000942], [-77.0347903, 38.9000885], [-77.0346917, 38.9000894]]]}}, {"id": "65", "type": "Feature", "properties": {"building_id": "48056891", "area_m2": 1712.813646987462}, "geometry": {"type": "Polygon", "coordinates": [[[-77.0288787, 38.9030491], [-77.0288758, 38.9027238], [-77.0294251, 38.9027259], [-77.029423, 38.9030499], [-77.029423, 38.9030512], [-77.0288787, 38.9030491]]]}}, {"id": "66", "type": "Feature", "properties": {"building_id": "48056892", "area_m2": 1107.1939647243967}, "geometry": {"type": "Polygon", "coordinates": [[[-77.0324832, 38.9027546], [-77.0324817, 38.9030646], [-77.0324815, 38.903095], [-77.0321446, 38.9030937], [-77.0321447, 38.9027532], [-77.0324832, 38.9027546]]]}}, {"id": "67", "type": "Feature", "properties": {"building_id": "48077280", "area_m2": 1630.012982772226}, "geometry": {"type": "Polygon", "coordinates": [[[-77.0335708, 38.9038627], [-77.0340527, 38.9038623], [-77.0340527, 38.9038707], [-77.0340541, 38.9042132], [-77.0335713, 38.9042137], [-77.0335708, 38.9038627]]]}}, {"id": "68", "type": "Feature", "properties": {"building_id": "48077287", "area_m2": 154.92384830882395}, "geometry": {"type": "Polygon", "coordinates": [[[-77.0340311, 38.9036166], [-77.0340315, 38.9035369], [-77.0340778, 38.9035371], [-77.0340781, 38.90349350000001], [-77.0341224, 38.9034937], [-77.034122, 38.903536], [-77.0341545, 38.9035361], [-77.0341547, 38.9035256], [-77.0341414, 38.9035255], [-77.034141, 38.9034751], [-77.03418060000001, 38.90347469999998], [-77.03417940000001, 38.9036172], [-77.0340311, 38.9036166]]]}}, {"id": "69", "type": "Feature", "properties": {"building_id": "48077288", "area_m2": 148.9340884684573}, "geometry": {"type": "Polygon", "coordinates": [[[-77.034141, 38.9034751], [-77.0341414, 38.9035255], [-77.0341547, 38.9035256], [-77.0341545, 38.9035361], [-77.034122, 38.903536], [-77.0341224, 38.9034937], [-77.0340781, 38.90349350000001], [-77.0340778, 38.9035371], [-77.0340315, 38.9035369], [-77.0340311, 38.9036166], [-77.0339555, 38.9036179], [-77.0339569, 38.9034774], [-77.034141, 38.9034751]]]}}, {"id": "70", "type": "Feature", "properties": {"building_id": "48077292", "area_m2": 1356.9980638598927}, "geometry": {"type": "Polygon", "coordinates": [[[-77.0340541, 38.9042132], [-77.0340527, 38.9038707], [-77.0340543, 38.9038707], [-77.0343698, 38.9038703], [-77.0343699, 38.9038827], [-77.0343611, 38.9038827], [-77.0343619, 38.9043277], [-77.0343619, 38.9043348], [-77.0343405, 38.9043352], [-77.0340901, 38.9043353], [-77.0340901, 38.9043343], [-77.03409, 38.9042745], [-77.0340557, 38.9042746], [-77.0340557, 38.9042132], [-77.0340541, 38.9042132]]]}}, {"id": "71", "type": "Feature", "properties": {"building_id": "48077295", "area_m2": 611.4476521269895}, "geometry": {"type": "Polygon", "coordinates": [[[-77.0336652, 38.9031597], [-77.0337825, 38.9029594], [-77.0340239, 38.9030472], [-77.034059, 38.903059], [-77.034058, 38.9030606], [-77.0339511, 38.9032452], [-77.033962, 38.9032481], [-77.0339539, 38.9032649], [-77.0338612, 38.903230700000016], [-77.0338885, 38.9031827], [-77.0338219, 38.9031585], [-77.0337934, 38.9032063], [-77.0336652, 38.9031597]]]}}, {"id": "72", "type": "Feature", "properties": {"building_id": "48077298", "area_m2": 265.1967044289065}, "geometry": {"type": "Polygon", "coordinates": [[[-77.0339016, 38.9033205], [-77.0336271, 38.9032248], [-77.0336652, 38.9031597], [-77.0337934, 38.9032063], [-77.0338219, 38.9031585], [-77.0338885, 38.9031827], [-77.0338612, 38.903230700000016], [-77.0339539, 38.9032649], [-77.0339724, 38.9032702], [-77.0339391, 38.9033337], [-77.0339016, 38.9033205]]]}}, {"id": "73", "type": "Feature", "properties": {"building_id": "48077303", "area_m2": 1191.6995245044625}, "geometry": {"type": "Polygon", "coordinates": [[[-77.0336271, 38.9032248], [-77.0339016, 38.9033205], [-77.0338417, 38.9034234], [-77.0338408, 38.9036146], [-77.0333985, 38.9036142], [-77.0336271, 38.9032248]]]}}, {"id": "74", "type": "Feature", "properties": {"building_id": "48077313", "area_m2": 446.1738458227107}, "geometry": {"type": "Polygon", "coordinates": [[[-77.0341178, 38.9033164], [-77.0343621, 38.9033209], [-77.0343814, 38.903321], [-77.0343805, 38.9034657], [-77.0340344, 38.9034642], [-77.0340916, 38.90332320000001], [-77.0341178, 38.9033164]]]}}, {"id": "75", "type": "Feature", "properties": {"building_id": "48077318", "area_m2": 566.9814847622148}, "geometry": {"type": "Polygon", "coordinates": [[[-77.0331738, 38.904], [-77.0332553, 38.9038616], [-77.0335348, 38.9038608], [-77.0335336, 38.9040301], [-77.033441, 38.9040299], [-77.0334086, 38.9040842], [-77.0331738, 38.904]]]}}, {"id": "76", "type": "Feature", "properties": {"building_id": "48077321", "area_m2": 2255.600668844718}, "geometry": {"type": "Polygon", "coordinates": [[[-77.0329118, 38.9044444], [-77.0331738, 38.904], [-77.0334086, 38.9040842], [-77.0335264, 38.904124299999985], [-77.0334282, 38.9042896], [-77.0335344, 38.9043284], [-77.0335343, 38.9043895], [-77.033399, 38.9046184], [-77.0329118, 38.9044444]]]}}, {"id": "77", "type": "Feature", "properties": {"building_id": "48077323", "area_m2": 1457.427026028699}, "geometry": {"type": "Polygon", "coordinates": [[[-77.0341178, 38.9033164], [-77.0341183, 38.90301190000001], [-77.0340889, 38.9030117], [-77.0340895, 38.9029388], [-77.0340897, 38.9027332], [-77.0343658, 38.9027374], [-77.0343621, 38.9033209], [-77.0341178, 38.9033164]]]}}, {"id": "78", "type": "Feature", "properties": {"building_id": "48077326", "area_m2": 301.1614958647823}, "geometry": {"type": "Polygon", "coordinates": [[[-77.03417940000001, 38.9036172], [-77.03418060000001, 38.90347469999998], [-77.0343986, 38.9034766], [-77.0343994, 38.9035196], [-77.0343873, 38.9035195], [-77.034387, 38.903578], [-77.0344012, 38.90357809999998], [-77.0344009, 38.9036171], [-77.0343969, 38.9036237], [-77.0343894, 38.9036299], [-77.0343799, 38.9036339], [-77.0343506, 38.9036338], [-77.034341, 38.9036275], [-77.0343357, 38.903620300000014], [-77.0343342, 38.9036162], [-77.0343342, 38.9036092], [-77.0342477, 38.9036088], [-77.0342476, 38.9036189], [-77.0342444, 38.9036237], [-77.0342378, 38.903628], [-77.0342338, 38.9036291], [-77.0341923, 38.903629], [-77.0341912, 38.9036288], [-77.0341847, 38.9036263], [-77.0341803, 38.9036215], [-77.03417940000001, 38.9036187], [-77.03417940000001, 38.9036172]]]}}, {"id": "79", "type": "Feature", "properties": {"building_id": "48077417", "area_m2": 4463.648990236595}, "geometry": {"type": "Polygon", "coordinates": [[[-77.0359207, 38.9010594], [-77.0359209, 38.9012143], [-77.034841, 38.9012233], [-77.034815, 38.9011911], [-77.03502050000002, 38.90084779999999], [-77.0350429, 38.9007839], [-77.0352948, 38.9003566], [-77.0353531, 38.9003271], [-77.035437, 38.9003271], [-77.0355618, 38.900327], [-77.0355624, 38.9005042], [-77.0354813, 38.9005042], [-77.035461, 38.9005117], [-77.0354278, 38.9005666], [-77.0355619, 38.9006137], [-77.0355619, 38.90075370000001], [-77.0353579, 38.9006818], [-77.0353169, 38.9007508], [-77.0354625, 38.9008019], [-77.0354515, 38.9008477], [-77.0353716, 38.900972], [-77.0352191, 38.90092269999999], [-77.0351404, 38.90105969999998], [-77.0356374, 38.9010557], [-77.0356386, 38.9008602], [-77.0358626, 38.9008601], [-77.0358639, 38.90105949999999], [-77.0359207, 38.9010594]]]}}, {"id": "80", "type": "Feature", "properties": {"building_id": "48077420", "area_m2": 3267.3603642366666}, "geometry": {"type": "Polygon", "coordinates": [[[-77.0348389, 38.9031731], [-77.034839, 38.9031425], [-77.0347668, 38.9031424], [-77.0347669, 38.9031276], [-77.0347508, 38.9031276], [-77.0347512, 38.9030076], [-77.034764, 38.9030076], [-77.0347646, 38.9028724], [-77.0347491, 38.9028724], [-77.0347497, 38.9027544], [-77.0347629, 38.9027545], [-77.034763, 38.9027288], [-77.0347971, 38.9027289], [-77.0347972, 38.9027164], [-77.0349491, 38.9027169], [-77.034949, 38.9027277], [-77.0353171, 38.9027288], [-77.0353172, 38.90271760000001], [-77.0354718, 38.902718], [-77.0354718, 38.9027315], [-77.0355055, 38.90273160000001], [-77.0355053, 38.9027969], [-77.0354928, 38.9027968], [-77.0354917, 38.9032036], [-77.0351554, 38.903203], [-77.0351555, 38.9031737], [-77.0348389, 38.9031731]]]}}, {"id": "81", "type": "Feature", "properties": {"building_id": "48077439", "area_m2": 727.8203429578797}, "geometry": {"type": "Polygon", "coordinates": [[[-77.0349188, 38.9016889], [-77.0349196, 38.9015471], [-77.0350228, 38.9015473], [-77.0350232, 38.9014596], [-77.0352306, 38.9014593], [-77.0352306, 38.9014729], [-77.0352304, 38.9017391], [-77.0349675, 38.90173950000001], [-77.0349674, 38.901689], [-77.0349188, 38.9016889]]]}}, {"id": "82", "type": "Feature", "properties": {"building_id": "48077442", "area_m2": 406.48858509118236}, "geometry": {"type": "Polygon", "coordinates": [[[-77.0350232, 38.9014596], [-77.0350228, 38.9015473], [-77.0349196, 38.9015471], [-77.0349188, 38.9016889], [-77.0347746, 38.9016886], [-77.0347755, 38.9014589], [-77.0350232, 38.9014596]]]}}, {"id": "83", "type": "Feature", "properties": {"building_id": "48077454", "area_m2": 656.6832000610201}, "geometry": {"type": "Polygon", "coordinates": [[[-77.0337825, 38.9029594], [-77.0339072, 38.9027456], [-77.033914, 38.9027377], [-77.0339235, 38.9027318], [-77.0339349, 38.9027283], [-77.0339445, 38.9027275], [-77.0340897, 38.902728], [-77.0340897, 38.9027332], [-77.0340895, 38.9029388], [-77.0340239, 38.9030472], [-77.0337825, 38.9029594]]]}}, {"id": "84", "type": "Feature", "properties": {"building_id": "48115263", "area_m2": 135.1770420873863}, "geometry": {"type": "Polygon", "coordinates": [[[-77.0282461, 38.9033887], [-77.0282455, 38.9033566], [-77.0282363, 38.903351499999985], [-77.0283511, 38.903351], [-77.02835250000001, 38.9033706], [-77.0283748, 38.9033695], [-77.02837380000001, 38.9033896], [-77.0283917, 38.9034004], [-77.0285128, 38.9033994], [-77.02852090000002, 38.9033501], [-77.0287055, 38.9033508], [-77.0287047, 38.90338889999999], [-77.0285787, 38.9033902], [-77.0285791, 38.9034076], [-77.0283629, 38.9034056], [-77.0283609, 38.9033877], [-77.0282461, 38.9033887]]]}}, {"id": "85", "type": "Feature", "properties": {"building_id": "48115379", "area_m2": 1778.0681296110931}, "geometry": {"type": "Polygon", "coordinates": [[[-77.0288899, 38.9018537], [-77.0288902, 38.9015723], [-77.0288905, 38.9015456], [-77.0289254, 38.9015458], [-77.0289248, 38.9015193], [-77.0289596, 38.9015188], [-77.028959, 38.90149129999999], [-77.028994, 38.9014907], [-77.0289934, 38.9014634], [-77.0292546, 38.9014636], [-77.0292552, 38.90149190000001], [-77.0292869, 38.9014915], [-77.0292876, 38.9015194], [-77.029324, 38.9015189], [-77.0293247, 38.9015459], [-77.0293591, 38.9015454], [-77.0293597, 38.9015746], [-77.0293927, 38.9015742], [-77.02939330000001, 38.9015997], [-77.0294292, 38.9015991], [-77.0294271, 38.9017717], [-77.0293949, 38.9017722], [-77.0293955, 38.9018015], [-77.0293608, 38.901802], [-77.0293614, 38.901827], [-77.0293237, 38.9018276], [-77.0293244, 38.9018547], [-77.0288899, 38.9018537]]]}}, {"id": "86", "type": "Feature", "properties": {"building_id": "80529409", "area_m2": 3150.896995302758}, "geometry": {"type": "Polygon", "coordinates": [[[-77.0290662, 38.9023299], [-77.0282374, 38.9023299], [-77.0282374, 38.90193510000001], [-77.0290662, 38.9019351], [-77.0290662, 38.9023299]]]}}, {"id": "87", "type": "Feature", "properties": {"building_id": "123826009", "area_m2": 1803.7076396067557}, "geometry": {"type": "Polygon", "coordinates": [[[-77.0321675, 38.9018664], [-77.0321689, 38.901475], [-77.0326763, 38.9014773], [-77.0326755, 38.9018169], [-77.03246350000002, 38.901817], [-77.03246550000001, 38.9018639], [-77.0321675, 38.9018664]]]}}, {"id": "88", "type": "Feature", "properties": {"building_id": "176111814", "area_m2": 2239.155315830232}, "geometry": {"type": "Polygon", "coordinates": [[[-77.0346889, 38.8995663], [-77.0348293, 38.8995658], [-77.0348279, 38.8993054], [-77.0349557, 38.8993058], [-77.0349564, 38.8993226], [-77.0349582, 38.8993621], [-77.03493210000002, 38.8993621], [-77.0349327, 38.8994742], [-77.0349332, 38.8995726], [-77.0349552, 38.8995726], [-77.03495540000002, 38.8996206], [-77.034831, 38.8996209], [-77.034831, 38.8996135], [-77.0347924, 38.8996136], [-77.0346873, 38.8996139], [-77.0346908, 38.9000341], [-77.0346917, 38.9000894], [-77.0344481, 38.9000918], [-77.034444, 38.8993059], [-77.0346353, 38.8993057], [-77.0346876, 38.8993056], [-77.0346889, 38.8995663]]]}}, {"id": "89", "type": "Feature", "properties": {"building_id": "288170463", "area_m2": 422.5100097601352}, "geometry": {"type": "Polygon", "coordinates": [[[-77.0314204, 38.9003411], [-77.0314203, 38.9003278], [-77.0317713, 38.9003265], [-77.0317721, 38.90045150000001], [-77.0314211, 38.90045279999999], [-77.0314204, 38.9003411]]]}}, {"id": "90", "type": "Feature", "properties": {"building_id": "604519371", "area_m2": 3171.0367553150663}, "geometry": {"type": "Polygon", "coordinates": [[[-77.0352304, 38.9017391], [-77.0349675, 38.90173950000001], [-77.0347721, 38.9017398], [-77.0347735, 38.90232229999999], [-77.0353655, 38.9023214], [-77.0353646, 38.9019488], [-77.0353352, 38.9019488], [-77.0353349, 38.9018288], [-77.0352307, 38.901829], [-77.0352304, 38.9017391]]]}}, {"id": "91", "type": "Feature", "properties": {"building_id": "647902374", "area_m2": 6674.217862317257}, "geometry": {"type": "Polygon", "coordinates": [[[-77.0357794, 38.9046557], [-77.0357551, 38.9046741], [-77.03476490000001, 38.9046717], [-77.0347679, 38.9038699], [-77.0351882, 38.9038708], [-77.0351863, 38.90438], [-77.0354351, 38.9043805], [-77.035437, 38.9038704], [-77.0358044, 38.9038712], [-77.0358031, 38.9042319], [-77.0357628, 38.9042318], [-77.0357625, 38.904327399999985], [-77.0357803, 38.9043275], [-77.0357794, 38.9046557]]]}}, {"id": "92", "type": "Feature", "properties": {"building_id": "958605480", "area_m2": 1871.8878801329934}, "geometry": {"type": "Polygon", "coordinates": [[[-77.033454, 38.8997286], [-77.033454, 38.8997586], [-77.0334539, 38.899804500000016], [-77.0334533, 38.90009580000001], [-77.0331747, 38.9000959], [-77.0329322, 38.90009589999998], [-77.0329322, 38.8998098], [-77.0329027, 38.8998098], [-77.0329027, 38.8997274], [-77.0329853, 38.8997271], [-77.033454, 38.8997286]]]}}, {"id": "93", "type": "Feature", "properties": {"building_id": "1034668660", "area_m2": 248.92603753196857}, "geometry": {"type": "Polygon", "coordinates": [[[-77.0311979, 38.9015158], [-77.0311949, 38.9015445], [-77.0310054, 38.901532], [-77.0309089, 38.9015401], [-77.0308975, 38.9014665], [-77.0309488, 38.9014616], [-77.0309541, 38.90149130000001], [-77.0309652, 38.9014981], [-77.0309947, 38.9014957], [-77.0310054, 38.9014892], [-77.0310078, 38.9014576], [-77.0311857, 38.9014696], [-77.0313179, 38.9014563], [-77.0313256, 38.901503], [-77.0311979, 38.9015158]]]}}, {"id": "94", "type": "Feature", "properties": {"building_id": "1215866490", "area_m2": 2638.7898349865695}, "geometry": {"type": "Polygon", "coordinates": [[[-77.0347753, 38.9036161], [-77.0347763, 38.9032029], [-77.0351426, 38.90320339999999], [-77.0351425, 38.9032585], [-77.0354292, 38.9032589], [-77.0354889, 38.9033071], [-77.0354882, 38.903617099999984], [-77.0347753, 38.9036161]]]}}, {"id": "95", "type": "Feature", "properties": {"building_id": "1316393024", "area_m2": 1432.3023307728085}, "geometry": {"type": "Polygon", "coordinates": [[[-77.0307598, 38.9043199], [-77.0303751, 38.9043205], [-77.0303727, 38.904156399999984], [-77.0303737, 38.9038924], [-77.0304311, 38.9038923], [-77.0304311, 38.9038726], [-77.0307647, 38.9038721], [-77.0307651, 38.9040126], [-77.0305458, 38.9040129], [-77.0305461, 38.9041241], [-77.0307592, 38.9041238], [-77.0307598, 38.9043199]]]}}, {"id": "96", "type": "Feature", "properties": {"building_id": "1316393025", "area_m2": 573.8318643379041}, "geometry": {"type": "Polygon", "coordinates": [[[-77.0303727, 38.904156399999984], [-77.0301648, 38.9041559], [-77.0301659, 38.9038693], [-77.0303737, 38.9038697], [-77.0303737, 38.9038924], [-77.0303727, 38.904156399999984]]]}}, {"id": "97", "type": "Feature", "properties": {"building_id": "f918cdcf-b061-432f-b02d-d4fbe78abee9", "area_m2": 29.656841265872472}, "geometry": {"type": "Polygon", "coordinates": [[[-77.0341091, 38.901927], [-77.0341014, 38.9019401], [-77.0340937, 38.90195330000001], [-77.0340859, 38.9019664], [-77.0340782, 38.90197950000001], [-77.0340943, 38.9019853], [-77.0341104, 38.90199109999999], [-77.0341265, 38.901997], [-77.0341343, 38.90198380000001], [-77.034142, 38.9019707], [-77.0341497, 38.90195760000001], [-77.0341576, 38.901944399999984], [-77.0341414, 38.9019386], [-77.0341253, 38.9019328], [-77.0341091, 38.901927]]]}}, {"id": "98", "type": "Feature", "properties": {"building_id": "b5934aa6-6359-4d43-be59-705df146c727", "area_m2": 47.667817263840746}, "geometry": {"type": "Polygon", "coordinates": [[[-77.0317459, 38.9018987], [-77.0316654, 38.9018991], [-77.0316655, 38.9019607], [-77.0317452, 38.90196069999999], [-77.0317459, 38.9018987]]]}}, {"id": "99", "type": "Feature", "properties": {"building_id": "8ccb6635-8d0e-4c66-b936-1e959729c3ac", "area_m2": 93.72304124825656}, "geometry": {"type": "Polygon", "coordinates": [[[-77.0308288, 38.9018906], [-77.03081670000002, 38.901891], [-77.0308046, 38.9018922], [-77.0307928, 38.9018944], [-77.0307766, 38.9018989], [-77.0307796, 38.9019032], [-77.030773, 38.9019044], [-77.0307669, 38.9019064], [-77.0307612, 38.9019092], [-77.0307563, 38.90191259999999], [-77.0307521, 38.9019167], [-77.0307489, 38.9019213], [-77.0307468, 38.9019263], [-77.0307459, 38.9019315], [-77.030746, 38.9019367], [-77.0307475, 38.9019422], [-77.0307543, 38.9019475], [-77.030762, 38.901952], [-77.0307701, 38.9019557], [-77.0307788, 38.9019587], [-77.030776, 38.901966], [-77.0307887, 38.9019687], [-77.0308016, 38.9019706], [-77.0308148, 38.9019716], [-77.0308279, 38.90197160000001], [-77.0308411, 38.9019708], [-77.0308541, 38.9019691], [-77.0308689, 38.9019659], [-77.0308676, 38.9019597], [-77.0308746, 38.9019582], [-77.0308812, 38.901956], [-77.0308873, 38.9019528], [-77.0308926, 38.901949], [-77.0308971, 38.901944599999986], [-77.0309006, 38.9019397], [-77.0309032, 38.9019344], [-77.0309047, 38.9019271], [-77.0309011, 38.90192170000001], [-77.0308966, 38.9019166], [-77.0308911, 38.9019122], [-77.0308848, 38.90190840000001], [-77.030878, 38.9019054], [-77.030873, 38.9019038], [-77.0308762, 38.901898], [-77.0308647, 38.9018948], [-77.0308529, 38.90189259999998], [-77.0308409, 38.9018911], [-77.0308288, 38.9018906]]]}}]}