{"type": "FeatureCollection", "features": [{"id": "0", "type": "Feature", "properties": {"building_id": "47026385", "area_m2": 6467.359764008865}, "geometry": {"type": "Polygon", "coordinates": [[[-81.3760415, 28.5428136], [-81.3762999, 28.542811], [-81.3762994, 28.5427692], [-81.3773285, 28.5427588], [-81.3773227, 28.5423105], [-81.3763901, 28.5423199], [-81.3763897, 28.5422956], [-81.3760348, 28.5422992], [-81.3760415, 28.5428136]]]}}, {"id": "1", "type": "Feature", "properties": {"building_id": "47026386", "area_m2": 1164.769163840922}, "geometry": {"type": "Polygon", "coordinates": [[[-81.3779707, 28.5433253], [-81.3779701, 28.5432602], [-81.3779634, 28.5432602], [-81.3779617, 28.5430135], [-81.377961, 28.5429258], [-81.377967, 28.5429258], [-81.3779666, 28.5428597], [-81.3777263, 28.5428608], [-81.3777267, 28.5429268], [-81.377734, 28.5429268], [-81.3777363, 28.5432617], [-81.3777305, 28.5432617], [-81.377731, 28.5433268], [-81.3779707, 28.5433253]]]}}, {"id": "2", "type": "Feature", "properties": {"building_id": "47027012", "area_m2": 1230.0076597117113}, "geometry": {"type": "Polygon", "coordinates": [[[-81.3805153, 28.5395728], [-81.3805235, 28.5402364], [-81.3806945, 28.5402348], [-81.3806863, 28.5395712], [-81.3805153, 28.5395728]]]}}, {"id": "3", "type": "Feature", "properties": {"building_id": "69708691", "area_m2": 1365.1936343814864}, "geometry": {"type": "Polygon", "coordinates": [[[-81.3816173, 28.5425143], [-81.3812392, 28.5425159], [-81.3812373, 28.5421828], [-81.3816155, 28.5421812], [-81.3816173, 28.5425143]]]}}, {"id": "4", "type": "Feature", "properties": {"building_id": "80581091", "area_m2": 4088.1124898253497}, "geometry": {"type": "Polygon", "coordinates": [[[-81.3814296, 28.5406785], [-81.3813146, 28.5406793], [-81.3810355, 28.5406813], [-81.3809084, 28.5406822], [-81.3809133, 28.5412084], [-81.381632, 28.5412032], [-81.3816278, 28.5407537], [-81.381615, 28.5407538], [-81.38161430000001, 28.5406771], [-81.3814647, 28.5406782], [-81.3814296, 28.5406785]]]}}, {"id": "5", "type": "Feature", "properties": {"building_id": "80581099", "area_m2": 379.3047847200987}, "geometry": {"type": "Polygon", "coordinates": [[[-81.3814267, 28.5403711], [-81.3813118, 28.540378], [-81.3813144, 28.5406539], [-81.3813146, 28.5406793], [-81.3814296, 28.5406785], [-81.3814292, 28.5406314], [-81.3814267, 28.5403711]]]}}, {"id": "6", "type": "Feature", "properties": {"building_id": "80581100", "area_m2": 530.4997438996152}, "geometry": {"type": "Polygon", "coordinates": [[[-81.3816264, 28.5403577], [-81.3814267, 28.5403711], [-81.3814292, 28.5406314], [-81.3815987, 28.5406302], [-81.3815974, 28.5404893], [-81.3816277, 28.5404891], [-81.3816264, 28.5403577]]]}}, {"id": "7", "type": "Feature", "properties": {"building_id": "80581101", "area_m2": 685.5648979944305}, "geometry": {"type": "Polygon", "coordinates": [[[-81.3813118, 28.540378], [-81.3813144, 28.5406539], [-81.3810799, 28.5406556], [-81.3810774, 28.5403921], [-81.3811899, 28.5403853], [-81.3813118, 28.540378]]]}}, {"id": "8", "type": "Feature", "properties": {"building_id": "80581159", "area_m2": 543.9460234744281}, "geometry": {"type": "Polygon", "coordinates": [[[-81.3808827, 28.5404054], [-81.380885, 28.540657], [-81.3810799, 28.5406556], [-81.3810774, 28.5403921], [-81.3808827, 28.5404054]]]}}, {"id": "9", "type": "Feature", "properties": {"building_id": "80581197", "area_m2": 752.8087676636352}, "geometry": {"type": "Polygon", "coordinates": [[[-81.3813026, 28.5401958], [-81.381481, 28.5401863], [-81.3814763, 28.5398011], [-81.3812979, 28.5398027], [-81.3813002, 28.5399988], [-81.3813026, 28.5401958]]]}}, {"id": "10", "type": "Feature", "properties": {"building_id": "80581260", "area_m2": 483.85759118894276}, "geometry": {"type": "Polygon", "coordinates": [[[-81.3812972, 28.5397467], [-81.381295, 28.5397365], [-81.3812826, 28.5397261], [-81.3812701, 28.5397158], [-81.38126, 28.5397095], [-81.3812428, 28.5397036], [-81.3812255, 28.5397008], [-81.3812079, 28.5397011], [-81.3811907, 28.5397047], [-81.3811748, 28.5397112], [-81.3811608, 28.5397205], [-81.3811492, 28.5397322], [-81.3811413, 28.5397457], [-81.3811444, 28.5400003], [-81.3813002, 28.5399988], [-81.3812979, 28.5398027], [-81.3812972, 28.5397467]]]}}, {"id": "11", "type": "Feature", "properties": {"building_id": "80641778", "area_m2": 602.0493632997042}, "geometry": {"type": "Polygon", "coordinates": [[[-81.3793626, 28.5404372], [-81.3793657, 28.5406734], [-81.3791305, 28.5406757], [-81.3791275, 28.5404395], [-81.3793626, 28.5404372]]]}}, {"id": "12", "type": "Feature", "properties": {"building_id": "80641779", "area_m2": 1099.8395389866946}, "geometry": {"type": "Polygon", "coordinates": [[[-81.3791305, 28.5406757], [-81.3793657, 28.5406734], [-81.3793956, 28.5406731], [-81.3793926, 28.5404354], [-81.3795454, 28.5404339], [-81.3795503, 28.5408163], [-81.3793673, 28.5408181], [-81.3793675, 28.5408379], [-81.3791326, 28.5408403], [-81.3791305, 28.5406757]]]}}, {"id": "13", "type": "Feature", "properties": {"building_id": "80642277", "area_m2": 216.29860629416484}, "geometry": {"type": "Polygon", "coordinates": [[[-81.3793686, 28.5409229], [-81.3791337, 28.5409252], [-81.3791326, 28.5408403], [-81.3793675, 28.5408379], [-81.3793686, 28.5409229]]]}}, {"id": "14", "type": "Feature", "properties": {"building_id": "80642464", "area_m2": 208.78756872827253}, "geometry": {"type": "Polygon", "coordinates": [[[-81.3793686, 28.5409229], [-81.3791337, 28.5409252], [-81.3791348, 28.5410072], [-81.3793697, 28.5410049], [-81.3793686, 28.5409229]]]}}, {"id": "15", "type": "Feature", "properties": {"building_id": "80642465", "area_m2": 269.25709115836355}, "geometry": {"type": "Polygon", "coordinates": [[[-81.3793697, 28.5410049], [-81.379371, 28.5411106], [-81.3791361, 28.541113], [-81.3791348, 28.5410072], [-81.3793697, 28.5410049]]]}}, {"id": "16", "type": "Feature", "properties": {"building_id": "80643085", "area_m2": 316.6172638440464}, "geometry": {"type": "Polygon", "coordinates": [[[-81.379371, 28.5411106], [-81.3791361, 28.541113], [-81.3791377, 28.5412373], [-81.3793726, 28.541235], [-81.379371, 28.5411106]]]}}, {"id": "17", "type": "Feature", "properties": {"building_id": "80643264", "area_m2": 487.54836050305204}, "geometry": {"type": "Polygon", "coordinates": [[[-81.3793752, 28.541553], [-81.37964280000001, 28.5415495], [-81.3796399, 28.5413814], [-81.3793724, 28.5413849], [-81.3793752, 28.541553]]]}}, {"id": "18", "type": "Feature", "properties": {"building_id": "80643265", "area_m2": 371.3429758730821}, "geometry": {"type": "Polygon", "coordinates": [[[-81.3793498, 28.5417081], [-81.3793466, 28.5415437], [-81.3791382, 28.5415469], [-81.3791415, 28.5417113], [-81.3793498, 28.5417081]]]}}, {"id": "19", "type": "Feature", "properties": {"building_id": "80643267", "area_m2": 739.7504756644648}, "geometry": {"type": "Polygon", "coordinates": [[[-81.3791415, 28.5417113], [-81.3793498, 28.5417081], [-81.3793564, 28.5420356], [-81.379148, 28.5420388], [-81.3791415, 28.5417113]]]}}, {"id": "20", "type": "Feature", "properties": {"building_id": "80643526", "area_m2": 1362.4665635637004}, "geometry": {"type": "Polygon", "coordinates": [[[-81.37858270000001, 28.5416394], [-81.3785836, 28.541722], [-81.3785845, 28.5418066], [-81.378939, 28.5418036], [-81.37894160000002, 28.5420423], [-81.3784923, 28.542046], [-81.3784884, 28.5416849], [-81.3784295, 28.5416854], [-81.3784291, 28.5416407], [-81.37858270000001, 28.5416394]]]}}, {"id": "21", "type": "Feature", "properties": {"building_id": "80643527", "area_m2": 317.5421062154949}, "geometry": {"type": "Polygon", "coordinates": [[[-81.3789372, 28.5416364], [-81.3789381, 28.5417191], [-81.3785836, 28.541722], [-81.37858270000001, 28.5416394], [-81.3787029, 28.5416384], [-81.3789372, 28.5416364]]]}}, {"id": "22", "type": "Feature", "properties": {"building_id": "80643528", "area_m2": 198.25555075318712}, "geometry": {"type": "Polygon", "coordinates": [[[-81.3789364, 28.5415584], [-81.3789372, 28.5416364], [-81.3787029, 28.5416384], [-81.378702, 28.5415603], [-81.3789364, 28.5415584]]]}}, {"id": "23", "type": "Feature", "properties": {"building_id": "80643529", "area_m2": 324.8746227389932}, "geometry": {"type": "Polygon", "coordinates": [[[-81.378939, 28.5418036], [-81.3785845, 28.5418066], [-81.3785836, 28.541722], [-81.3789381, 28.5417191], [-81.378939, 28.5418036]]]}}, {"id": "24", "type": "Feature", "properties": {"building_id": "80643537", "area_m2": 139.06390608508468}, "geometry": {"type": "Polygon", "coordinates": [[[-81.3785647, 28.5416141], [-81.3785075, 28.5416146], [-81.3785051, 28.5413903], [-81.3785623, 28.5413898], [-81.3785647, 28.5416141]]]}}, {"id": "25", "type": "Feature", "properties": {"building_id": "80643548", "area_m2": 740.7705949143369}, "geometry": {"type": "Polygon", "coordinates": [[[-81.3789345, 28.5413867], [-81.3789364, 28.5415584], [-81.378702, 28.5415603], [-81.3786485, 28.5415608], [-81.3786491, 28.5416134], [-81.3785647, 28.5416141], [-81.3785623, 28.5413898], [-81.3789345, 28.5413867]]]}}, {"id": "26", "type": "Feature", "properties": {"building_id": "80644892", "area_m2": 519.3669400427465}, "geometry": {"type": "Polygon", "coordinates": [[[-81.3786743, 28.542206], [-81.3789515, 28.5422047], [-81.3789525, 28.5423715], [-81.3786773, 28.5423727], [-81.3786769, 28.5423087], [-81.3786456, 28.5423088], [-81.3786452, 28.5422466], [-81.3786746, 28.5422465], [-81.3786743, 28.542206]]]}}, {"id": "27", "type": "Feature", "properties": {"building_id": "80644893", "area_m2": 636.0062869113258}, "geometry": {"type": "Polygon", "coordinates": [[[-81.3789525, 28.5423715], [-81.3789536, 28.5425629], [-81.3786471, 28.5425643], [-81.3786461, 28.5424042], [-81.3786459, 28.5423729], [-81.3786773, 28.5423727], [-81.3789525, 28.5423715]]]}}, {"id": "28", "type": "Feature", "properties": {"building_id": "80644896", "area_m2": 3291.9914457256814}, "geometry": {"type": "Polygon", "coordinates": [[[-81.3792099, 28.5422479], [-81.379487, 28.5422451], [-81.3797583, 28.5422423], [-81.3797615, 28.5424864], [-81.3797647, 28.542727], [-81.3794903, 28.5427298], [-81.3794921, 28.5428681], [-81.3792181, 28.5428709], [-81.3792131, 28.5424925], [-81.3792106, 28.5423051], [-81.3792099, 28.5422479]]]}}, {"id": "29", "type": "Feature", "properties": {"building_id": "80644900", "area_m2": 896.9325508791657}, "geometry": {"type": "Polygon", "coordinates": [[[-81.3791633, 28.542894], [-81.3795989, 28.5428893], [-81.3796016, 28.5430778], [-81.3795621, 28.5430781], [-81.379188, 28.5430856], [-81.379166, 28.5430826], [-81.3791633, 28.542894]]]}}, {"id": "30", "type": "Feature", "properties": {"building_id": "80645291", "area_m2": 955.809111401224}, "geometry": {"type": "Polygon", "coordinates": [[[-81.3786491, 28.5429967], [-81.3789619, 28.5429945], [-81.3789607, 28.5428633], [-81.3787994, 28.5428644], [-81.378799, 28.5428244], [-81.3789591, 28.5428232], [-81.3789579, 28.5426914], [-81.3786463, 28.5426936], [-81.3786464, 28.5427031], [-81.3786487, 28.5429505], [-81.3786491, 28.5429967]]]}}, {"id": "31", "type": "Feature", "properties": {"building_id": "80668821", "area_m2": 208.35687915041348}, "geometry": {"type": "Polygon", "coordinates": [[[-81.3772703, 28.5420786], [-81.3773714, 28.5420776], [-81.377369, 28.5418875], [-81.3772679, 28.54188849999999], [-81.3772697, 28.5420338], [-81.3772703, 28.5420786]]]}}, {"id": "32", "type": "Feature", "properties": {"building_id": "80668822", "area_m2": 346.9009674777211}, "geometry": {"type": "Polygon", "coordinates": [[[-81.3771317, 28.5417242], [-81.3773669, 28.5417219], [-81.3773651, 28.5415858], [-81.37713, 28.5415881], [-81.3771317, 28.5417242]]]}}, {"id": "33", "type": "Feature", "properties": {"building_id": "80668823", "area_m2": 357.7247201358512}, "geometry": {"type": "Polygon", "coordinates": [[[-81.3772697, 28.5420338], [-81.3772536, 28.542034], [-81.3772518, 28.5418934], [-81.3770841, 28.5418951], [-81.3770855, 28.5420073], [-81.3770692, 28.5420075], [-81.3770701, 28.5420806], [-81.3772703, 28.5420786], [-81.3772697, 28.5420338]]]}}, {"id": "34", "type": "Feature", "properties": {"building_id": "80668826", "area_m2": 227.40597582526516}, "geometry": {"type": "Polygon", "coordinates": [[[-81.3771328, 28.5418134], [-81.3771317, 28.5417242], [-81.3773669, 28.5417219], [-81.377368, 28.5418111], [-81.3771328, 28.5418134]]]}}, {"id": "35", "type": "Feature", "properties": {"building_id": "80668827", "area_m2": 158.31813002932742}, "geometry": {"type": "Polygon", "coordinates": [[[-81.3771328, 28.5418134], [-81.377368, 28.5418111], [-81.3773688, 28.5418732], [-81.3771336, 28.5418755], [-81.3771328, 28.5418134]]]}}, {"id": "36", "type": "Feature", "properties": {"building_id": "80668830", "area_m2": 233.7202664372446}, "geometry": {"type": "Polygon", "coordinates": [[[-81.3770903, 28.5414806], [-81.3771482, 28.5414801], [-81.37736710000001, 28.5414782], [-81.3773663, 28.5414003], [-81.3770895, 28.5414027], [-81.3770903, 28.5414806]]]}}, {"id": "37", "type": "Feature", "properties": {"building_id": "80668831", "area_m2": 117.21060027147007}, "geometry": {"type": "Polygon", "coordinates": [[[-81.37736710000001, 28.5414782], [-81.3773677, 28.5415276], [-81.3771488, 28.5415295], [-81.3771482, 28.5414801], [-81.37736710000001, 28.5414782]]]}}, {"id": "38", "type": "Feature", "properties": {"building_id": "80668843", "area_m2": 70.4021657301389}, "geometry": {"type": "Polygon", "coordinates": [[[-81.3779424, 28.5415739], [-81.3779432, 28.5416417], [-81.3778474, 28.5416425], [-81.3778466, 28.5415747], [-81.3779424, 28.5415739]]]}}, {"id": "39", "type": "Feature", "properties": {"building_id": "80668845", "area_m2": 181.71527980316014}, "geometry": {"type": "Polygon", "coordinates": [[[-81.3778466, 28.5415747], [-81.3778447, 28.5413997], [-81.3779405, 28.5413989], [-81.3779424, 28.5415739], [-81.3778466, 28.5415747]]]}}, {"id": "40", "type": "Feature", "properties": {"building_id": "80668846", "area_m2": 390.5469382547101}, "geometry": {"type": "Polygon", "coordinates": [[[-81.3777066, 28.5416437], [-81.3775582, 28.541645], [-81.3775555, 28.5414022], [-81.3777039, 28.5414009], [-81.3777066, 28.5416437]]]}}, {"id": "41", "type": "Feature", "properties": {"building_id": "80668847", "area_m2": 1159.7908662163513}, "geometry": {"type": "Polygon", "coordinates": [[[-81.3775598, 28.5417924], [-81.3779447, 28.5417892], [-81.37794780000002, 28.5420672], [-81.3775629, 28.5420704], [-81.3775598, 28.5417924]]]}}, {"id": "42", "type": "Feature", "properties": {"building_id": "80668848", "area_m2": 494.58073632677815}, "geometry": {"type": "Polygon", "coordinates": [[[-81.3775598, 28.5417924], [-81.3779447, 28.5417892], [-81.3779434, 28.5416706], [-81.3775585, 28.5416739], [-81.3775598, 28.5417924]]]}}, {"id": "43", "type": "Feature", "properties": {"building_id": "80668893", "area_m2": 370.484336203251}, "geometry": {"type": "Polygon", "coordinates": [[[-81.3777066, 28.5416437], [-81.3777039, 28.5414009], [-81.3778447, 28.5413997], [-81.3778466, 28.5415747], [-81.3778474, 28.5416425], [-81.3777066, 28.5416437]]]}}, {"id": "44", "type": "Feature", "properties": {"building_id": "80670458", "area_m2": 2977.0178770305606}, "geometry": {"type": "Polygon", "coordinates": [[[-81.3768646, 28.5429714], [-81.3773775, 28.5429667], [-81.3773837, 28.5434927], [-81.3768663, 28.5434974], [-81.376865, 28.5433877], [-81.3768336, 28.543388], [-81.3768322, 28.5432655], [-81.3768681, 28.5432652], [-81.3768646, 28.5429714]]]}}, {"id": "45", "type": "Feature", "properties": {"building_id": "80858262", "area_m2": 205.7085417602798}, "geometry": {"type": "Polygon", "coordinates": [[[-81.3784355, 28.5416152], [-81.378416, 28.5416215], [-81.3784041, 28.5416325], [-81.3783892, 28.5416255], [-81.3783887, 28.5415818], [-81.3784306, 28.5415815], [-81.3784286, 28.5413909], [-81.3785051, 28.5413903], [-81.3785075, 28.5416146], [-81.3784355, 28.5416152]]]}}, {"id": "46", "type": "Feature", "properties": {"building_id": "80858263", "area_m2": 138.895444928402}, "geometry": {"type": "Polygon", "coordinates": [[[-81.3783194, 28.5413918], [-81.37838660000001, 28.5413913], [-81.3783887, 28.5415818], [-81.3783214, 28.5415824], [-81.3783194, 28.5413918]]]}}, {"id": "47", "type": "Feature", "properties": {"building_id": "80858264", "area_m2": 293.623639355022}, "geometry": {"type": "Polygon", "coordinates": [[[-81.3781259, 28.5419146], [-81.3782494, 28.5418034], [-81.3783742, 28.5419105], [-81.3782507, 28.5420216], [-81.3781259, 28.5419146]]]}}, {"id": "48", "type": "Feature", "properties": {"building_id": "80858346", "area_m2": 272.34754627390237}, "geometry": {"type": "Polygon", "coordinates": [[[-81.3785204, 28.5423734], [-81.3783626, 28.5423742], [-81.37836170000001, 28.5422246], [-81.37840230000002, 28.5422244], [-81.3784022, 28.5422114], [-81.3785194, 28.5422108], [-81.3785204, 28.5423734]]]}}, {"id": "49", "type": "Feature", "properties": {"building_id": "80858347", "area_m2": 221.29180244133354}, "geometry": {"type": "Polygon", "coordinates": [[[-81.3786459, 28.5423729], [-81.3785204, 28.5423734], [-81.3785194, 28.5422108], [-81.378645, 28.5422103], [-81.3786452, 28.5422466], [-81.3786456, 28.5423088], [-81.3786459, 28.5423729]]]}}, {"id": "50", "type": "Feature", "properties": {"building_id": "80858348", "area_m2": 292.3266721921411}, "geometry": {"type": "Polygon", "coordinates": [[[-81.3782239, 28.5415832], [-81.37808240000001, 28.5415844], [-81.3780803, 28.5413938], [-81.3782218, 28.5413926], [-81.3782239, 28.5415832]]]}}, {"id": "51", "type": "Feature", "properties": {"building_id": "80858349", "area_m2": 201.5287530955545}, "geometry": {"type": "Polygon", "coordinates": [[[-81.3783214, 28.5415824], [-81.3782239, 28.5415832], [-81.3782218, 28.5413926], [-81.3783194, 28.5413918], [-81.3783214, 28.5415824]]]}}, {"id": "52", "type": "Feature", "properties": {"building_id": "80858350", "area_m2": 86.64199755521719}, "geometry": {"type": "Polygon", "coordinates": [[[-81.3783887, 28.5415818], [-81.37838660000001, 28.5413913], [-81.3784286, 28.5413909], [-81.3784306, 28.5415815], [-81.3783887, 28.5415818]]]}}, {"id": "53", "type": "Feature", "properties": {"building_id": "80858351", "area_m2": 210.63131579651855}, "geometry": {"type": "Polygon", "coordinates": [[[-81.3786461, 28.5424042], [-81.3785248, 28.5424047], [-81.3785257, 28.5425649], [-81.3786471, 28.5425643], [-81.3786461, 28.5424042]]]}}, {"id": "54", "type": "Feature", "properties": {"building_id": "80858352", "area_m2": 216.4455643601589}, "geometry": {"type": "Polygon", "coordinates": [[[-81.3785248, 28.5424047], [-81.3784001, 28.542405299999988], [-81.378401, 28.5425654], [-81.3785257, 28.5425649], [-81.3785248, 28.5424047]]]}}, {"id": "55", "type": "Feature", "properties": {"building_id": "80859090", "area_m2": 639.5620847574266}, "geometry": {"type": "Polygon", "coordinates": [[[-81.3760145, 28.5432432], [-81.3762388, 28.5432404], [-81.3762345, 28.5429773], [-81.3760103, 28.5429801], [-81.3760145, 28.5432432]]]}}, {"id": "56", "type": "Feature", "properties": {"building_id": "80859725", "area_m2": 639.5620847574266}, "geometry": {"type": "Polygon", "coordinates": [[[-81.3760103, 28.5429801], [-81.3762345, 28.5429773], [-81.3762388, 28.5432404], [-81.3760145, 28.5432432], [-81.3760103, 28.5429801]]]}}, {"id": "57", "type": "Feature", "properties": {"building_id": "80860059", "area_m2": 2703.59791976352}, "geometry": {"type": "Polygon", "coordinates": [[[-81.3770435, 28.5420829], [-81.376964, 28.5420837], [-81.3767397, 28.5420861], [-81.3766684, 28.5420856], [-81.3766623, 28.5414211], [-81.3767469, 28.5414205], [-81.3769512, 28.541419], [-81.3770374, 28.5414184], [-81.3770435, 28.5420829]]]}}, {"id": "58", "type": "Feature", "properties": {"building_id": "80860061", "area_m2": 1565.0033941949669}, "geometry": {"type": "Polygon", "coordinates": [[[-81.3763595, 28.541186], [-81.3763262, 28.5411862], [-81.3763267, 28.5412332], [-81.3761133, 28.5412349], [-81.3761128, 28.5411881], [-81.3760766, 28.5411884], [-81.3760727, 28.5408055], [-81.3760725, 28.5407848], [-81.3760959, 28.5407846], [-81.376095, 28.5406976], [-81.3763279, 28.5406958], [-81.3763288, 28.5407839], [-81.3763554, 28.5407837], [-81.3763556, 28.5408005], [-81.3763592, 28.5411581], [-81.3763595, 28.541186]]]}}, {"id": "59", "type": "Feature", "properties": {"building_id": "80872097", "area_m2": 2096.9961594731985}, "geometry": {"type": "Polygon", "coordinates": [[[-81.3798254, 28.5434255], [-81.3801028, 28.5434224], [-81.3801021, 28.5433756], [-81.380165, 28.5433748], [-81.3801577, 28.5428849], [-81.3800955, 28.5428832], [-81.3800948, 28.5428363], [-81.3800521, 28.5428368], [-81.3800051, 28.5428373], [-81.3798812, 28.5428388], [-81.3798168, 28.5428395], [-81.3798254, 28.5434255]]]}}, {"id": "60", "type": "Feature", "properties": {"building_id": "80872098", "area_m2": 3347.1272143848228}, "geometry": {"type": "Polygon", "coordinates": [[[-81.3807248, 28.5434149], [-81.3807166, 28.5428626], [-81.38015880000002, 28.5428689], [-81.3801577, 28.5428849], [-81.380165, 28.5433748], [-81.380167, 28.5434213], [-81.3804444, 28.5434181], [-81.3807248, 28.5434149]]]}}, {"id": "61", "type": "Feature", "properties": {"building_id": "80872099", "area_m2": 3899.0819919757305}, "geometry": {"type": "Polygon", "coordinates": [[[-81.3807166, 28.5428626], [-81.380707, 28.5422177], [-81.380435, 28.5422208], [-81.3801492, 28.5422241], [-81.38015880000002, 28.5428689], [-81.3807166, 28.5428626]]]}}, {"id": "62", "type": "Feature", "properties": {"building_id": "80872493", "area_m2": 1146.890108575977}, "geometry": {"type": "Polygon", "coordinates": [[[-81.3796502, 28.5419431], [-81.3796455, 28.5415997], [-81.3794481, 28.5416018], [-81.37944870000001, 28.541639], [-81.3793864, 28.5416397], [-81.3793874, 28.5417097], [-81.3793759, 28.5417099], [-81.3793801, 28.5420095], [-81.37957650000001, 28.5420075], [-81.3795997, 28.5420057], [-81.3796207, 28.5419963], [-81.3796374, 28.5419817], [-81.3796483, 28.5419634], [-81.3796502, 28.5419431]]]}}, {"id": "63", "type": "Feature", "properties": {"building_id": "80872494", "area_m2": 776.2665282603429}, "geometry": {"type": "Polygon", "coordinates": [[[-81.3798651, 28.5416961], [-81.3801024, 28.5416921], [-81.3800956, 28.5413827], [-81.3798944, 28.5413861], [-81.3798955, 28.5414366], [-81.3798594, 28.5414372], [-81.3798651, 28.5416961]]]}}, {"id": "64", "type": "Feature", "properties": {"building_id": "80872495", "area_m2": 355.389325629869}, "geometry": {"type": "Polygon", "coordinates": [[[-81.3802461, 28.5416359], [-81.3801213, 28.541637], [-81.3801186, 28.541389], [-81.3802459, 28.5413879], [-81.3802473, 28.5415103], [-81.3802751, 28.54151], [-81.3802756, 28.5415605], [-81.38024520000002, 28.5415608], [-81.3802461, 28.5416359]]]}}, {"id": "65", "type": "Feature", "properties": {"building_id": "80872496", "area_m2": 127.77678089966972}, "geometry": {"type": "Polygon", "coordinates": [[[-81.3800017, 28.5419759], [-81.3800911, 28.541974], [-81.3800875, 28.5418422], [-81.3799981, 28.5418441], [-81.3800017, 28.5419759]]]}}, {"id": "66", "type": "Feature", "properties": {"building_id": "80872497", "area_m2": 1741.5941447498035}, "geometry": {"type": "Polygon", "coordinates": [[[-81.3801823, 28.5419073], [-81.3804477, 28.5419054], [-81.380651, 28.5419041], [-81.3806492, 28.5417025], [-81.3805826, 28.541703], [-81.3805806, 28.5414817], [-81.3803463, 28.5414833], [-81.3803459, 28.5414456], [-81.3802904, 28.541446], [-81.3802927, 28.5417051], [-81.3801805, 28.5417058], [-81.3801823, 28.5419073]]]}}, {"id": "67", "type": "Feature", "properties": {"building_id": "80872505", "area_m2": 881.499756628587}, "geometry": {"type": "Polygon", "coordinates": [[[-81.3796649, 28.5420211], [-81.3799585, 28.5420169], [-81.3799534, 28.5417399], [-81.3796599, 28.5417441], [-81.3796649, 28.5420211]]]}}, {"id": "68", "type": "Feature", "properties": {"building_id": "80873691", "area_m2": 3308.5295536588997}, "geometry": {"type": "Polygon", "coordinates": [[[-81.3807128, 28.5409105], [-81.3806977, 28.5409106], [-81.379984, 28.5409159], [-81.3799835, 28.5408657], [-81.3799792, 28.5404135], [-81.3800951, 28.5404126], [-81.3801995, 28.5404218], [-81.3802001, 28.5406159], [-81.3803301, 28.540615], [-81.3803397, 28.540615], [-81.3803513, 28.5406151], [-81.3803618, 28.5406151], [-81.38048510000002, 28.5406134], [-81.3804939, 28.5404201], [-81.380708, 28.5404091], [-81.3807128, 28.5409105]]]}}, {"id": "69", "type": "Feature", "properties": {"building_id": "80873692", "area_m2": 1758.7258465932405}, "geometry": {"type": "Polygon", "coordinates": [[[-81.3795454, 28.5404339], [-81.3799697, 28.5404297], [-81.3799746, 28.5408121], [-81.3795503, 28.5408163], [-81.3795454, 28.5404339]]]}}, {"id": "70", "type": "Feature", "properties": {"building_id": "80873693", "area_m2": 276.098869743613}, "geometry": {"type": "Polygon", "coordinates": [[[-81.3793964, 28.5412369], [-81.3794794, 28.5412362], [-81.3794761, 28.5409293], [-81.3793931, 28.54093], [-81.3793964, 28.5412369]]]}}, {"id": "71", "type": "Feature", "properties": {"building_id": "80873696", "area_m2": 912.9542411840084}, "geometry": {"type": "Polygon", "coordinates": [[[-81.379641, 28.5408557], [-81.3796455, 28.5412087], [-81.3798841, 28.5412064], [-81.3798796, 28.5408534], [-81.379641, 28.5408557]]]}}, {"id": "72", "type": "Feature", "properties": {"building_id": "80873697", "area_m2": 2765.406429270077}, "geometry": {"type": "Polygon", "coordinates": [[[-81.3798968, 28.5412283], [-81.3798933, 28.5408664], [-81.3799835, 28.5408657], [-81.379984, 28.5409159], [-81.3806977, 28.5409106], [-81.3807007, 28.5412223], [-81.3803464, 28.541225], [-81.3798968, 28.5412283]]]}}, {"id": "73", "type": "Feature", "properties": {"building_id": "400017261", "area_m2": 4694.986725810133}, "geometry": {"type": "Polygon", "coordinates": [[[-81.3798662, 28.5402407], [-81.3798651, 28.5401902], [-81.3798596, 28.5398295], [-81.379855, 28.5397344], [-81.3798569, 28.539643], [-81.3796869, 28.5396449], [-81.3794753, 28.5396455], [-81.3793989, 28.5396479], [-81.3791762, 28.5396506], [-81.3791774, 28.5397366], [-81.379128, 28.5397372], [-81.3791354, 28.5402483], [-81.3793788, 28.5402486], [-81.3795141, 28.5402467], [-81.3798662, 28.5402407]]]}}, {"id": "74", "type": "Feature", "properties": {"building_id": "400017263", "area_m2": 1920.9830591761565}, "geometry": {"type": "Polygon", "coordinates": [[[-81.3802714, 28.5400531], [-81.3801967, 28.5399857], [-81.3801379, 28.540036], [-81.3801938, 28.5400865], [-81.3801956, 28.5402441], [-81.380094, 28.5402457], [-81.3800578, 28.5402462], [-81.3799842, 28.5401888], [-81.379927, 28.5401895], [-81.3798651, 28.5401902], [-81.3798596, 28.5398295], [-81.38042440000001, 28.5398232], [-81.3804277, 28.5400515], [-81.3802714, 28.5400531]]]}}, {"id": "75", "type": "Feature", "properties": {"building_id": "400027791", "area_m2": 1771.3868004625615}, "geometry": {"type": "Polygon", "coordinates": [[[-81.3781436, 28.5402254], [-81.3783864, 28.5400141], [-81.3783864, 28.5399716], [-81.3783864, 28.5399587], [-81.3783702, 28.5399468], [-81.3783584, 28.5399382], [-81.3778704, 28.5399464], [-81.3778218, 28.5399904], [-81.3777709, 28.5400364], [-81.3776346, 28.5401597], [-81.3776346, 28.5402192], [-81.3776509, 28.5402356], [-81.3781436, 28.5402254]]]}}, {"id": "76", "type": "Feature", "properties": {"building_id": "400031636", "area_m2": 2190.1638607248888}, "geometry": {"type": "Polygon", "coordinates": [[[-81.37645530000002, 28.5409454], [-81.376448, 28.5404908], [-81.3765448, 28.5404896], [-81.3766656, 28.5404881], [-81.3768485, 28.5404858], [-81.3768924, 28.5404853], [-81.3768931, 28.5405261], [-81.3768997, 28.5409399], [-81.37645530000002, 28.5409454]]]}}, {"id": "77", "type": "Feature", "properties": {"building_id": "400031637", "area_m2": 1719.6000215092681}, "geometry": {"type": "Polygon", "coordinates": [[[-81.3768931, 28.5405261], [-81.3772765, 28.5405214], [-81.3772831, 28.5409351], [-81.3768997, 28.5409399], [-81.3768931, 28.5405261]]]}}, {"id": "78", "type": "Feature", "properties": {"building_id": "400031638", "area_m2": 1183.877389911117}, "geometry": {"type": "Polygon", "coordinates": [[[-81.3769145, 28.5412371], [-81.3769108, 28.540975], [-81.3773275, 28.5409705], [-81.3773312, 28.5412326], [-81.3769145, 28.5412371]]]}}, {"id": "79", "type": "Feature", "properties": {"building_id": "400031641", "area_m2": 9797.808629145287}, "geometry": {"type": "Polygon", "coordinates": [[[-81.3789308, 28.5404361], [-81.3789224, 28.5404969], [-81.3789329, 28.5405428], [-81.3789329, 28.5405924], [-81.37892030000002, 28.5406474], [-81.3788764, 28.5407117], [-81.3788221, 28.5407539], [-81.3787657, 28.5407796], [-81.3787113, 28.5407906], [-81.3786821, 28.5407906], [-81.3786821, 28.5408408], [-81.3786821, 28.5408935], [-81.378749, 28.5408935], [-81.3787875, 28.5409022], [-81.3788263, 28.540921], [-81.3788724, 28.5409537], [-81.3788994, 28.5409816], [-81.378925, 28.5410247], [-81.378935, 28.5410569], [-81.3789412, 28.5411321], [-81.3789287, 28.5411817], [-81.3789454, 28.5412414], [-81.3789041, 28.5412419], [-81.3783139, 28.5412484], [-81.3783105, 28.5410125], [-81.3780933, 28.5410149], [-81.3780675, 28.5410247], [-81.3780468, 28.541033], [-81.37801330000002, 28.541046], [-81.3779778, 28.5410513], [-81.3779262, 28.5410548], [-81.3778084, 28.5410563], [-81.3777889, 28.5410565], [-81.3777376, 28.5410572], [-81.3777023, 28.5410576], [-81.3777003, 28.5410576], [-81.3775519, 28.5410594], [-81.3775422, 28.5404483], [-81.3776987, 28.5404464], [-81.37773720000001, 28.5404459], [-81.377773, 28.5404455], [-81.3780093, 28.5404426], [-81.378065, 28.5404419], [-81.3781618, 28.5404407], [-81.3781625, 28.540488], [-81.3783034, 28.5404863], [-81.3783028, 28.5404438], [-81.378914, 28.5404363], [-81.3789308, 28.5404361]]]}}, {"id": "80", "type": "Feature", "properties": {"building_id": "400032657", "area_m2": 555.2747702637821}, "geometry": {"type": "Polygon", "coordinates": [[[-81.3783139, 28.5412484], [-81.3780968, 28.5412508], [-81.3780933, 28.5410149], [-81.3783105, 28.5410125], [-81.3783139, 28.5412484]]]}}, {"id": "81", "type": "Feature", "properties": {"building_id": "400032658", "area_m2": 318.3642059271186}, "geometry": {"type": "Polygon", "coordinates": [[[-81.377555, 28.5412547], [-81.3775519, 28.5410594], [-81.3777003, 28.5410576], [-81.3777023, 28.5410576], [-81.3777026, 28.5410802], [-81.3777054, 28.5412529], [-81.377555, 28.5412547]]]}}, {"id": "82", "type": "Feature", "properties": {"building_id": "400032659", "area_m2": 394.93591440037164}, "geometry": {"type": "Polygon", "coordinates": [[[-81.3777054, 28.5412529], [-81.3779353, 28.5412501], [-81.3779336, 28.5411476], [-81.3779325, 28.5410784], [-81.3778364, 28.5410796], [-81.3778377, 28.5411676], [-81.3778022, 28.5411681], [-81.3778007, 28.541079], [-81.3777026, 28.5410802], [-81.3777054, 28.5412529]]]}}, {"id": "83", "type": "Feature", "properties": {"building_id": "556624777", "area_m2": 647.8406346102416}, "geometry": {"type": "Polygon", "coordinates": [[[-81.3786464, 28.5427031], [-81.3784048, 28.5427048], [-81.3784071, 28.5429522], [-81.3786487, 28.5429505], [-81.3786464, 28.5427031]]]}}, {"id": "84", "type": "Feature", "properties": {"building_id": "556676176", "area_m2": 1420.5539829772285}, "geometry": {"type": "Polygon", "coordinates": [[[-81.3764311, 28.540969], [-81.37691060000002, 28.5409638], [-81.3769108, 28.540975], [-81.3769145, 28.5412371], [-81.376435, 28.5412423], [-81.3764338, 28.5411573], [-81.3764311, 28.540969]]]}}, {"id": "85", "type": "Feature", "properties": {"building_id": "556676180", "area_m2": 503.61542747063663}, "geometry": {"type": "Polygon", "coordinates": [[[-81.3810683, 28.5402219], [-81.38106820000002, 28.5402121], [-81.3810651, 28.5399552], [-81.3808936, 28.5399568], [-81.3808969, 28.5402319], [-81.3810683, 28.5402219]]]}}, {"id": "86", "type": "Feature", "properties": {"building_id": "556676181", "area_m2": 1088.5339096402427}, "geometry": {"type": "Polygon", "coordinates": [[[-81.3813026, 28.5401958], [-81.3813002, 28.5399988], [-81.3811444, 28.5400003], [-81.3811413, 28.5397457], [-81.3810849, 28.5397462], [-81.3810847, 28.5397302], [-81.3809699, 28.5397312], [-81.3809709, 28.5398121], [-81.3808919, 28.5398129], [-81.3808936, 28.5399568], [-81.3810651, 28.5399552], [-81.38106820000002, 28.5402121], [-81.3811877, 28.5402038], [-81.3813026, 28.5401958]]]}}, {"id": "87", "type": "Feature", "properties": {"building_id": "1101366961", "area_m2": 2109.934354548035}, "geometry": {"type": "Polygon", "coordinates": [[[-81.3764871, 28.5414228], [-81.3762797, 28.5414258], [-81.3762803, 28.5414603], [-81.376229, 28.541461], [-81.3762282, 28.5414206], [-81.3760229, 28.5414236], [-81.3760271, 28.5416446], [-81.3762814, 28.5416409], [-81.37629, 28.5420958], [-81.3764996, 28.5420928], [-81.3764871, 28.5414228]]]}}, {"id": "88", "type": "Feature", "properties": {"building_id": "1101366962", "area_m2": 1064.0113055132324}, "geometry": {"type": "Polygon", "coordinates": [[[-81.3764871, 28.5414228], [-81.3766336, 28.5414207], [-81.3766461, 28.5420906], [-81.3764996, 28.5420928], [-81.3764871, 28.5414228]]]}}, {"id": "89", "type": "Feature", "properties": {"building_id": "1228365967", "area_m2": 732.6691701165632}, "geometry": {"type": "Polygon", "coordinates": [[[-81.3768343, 28.5432299], [-81.376832, 28.5430977], [-81.3768025, 28.5430981], [-81.3768002, 28.5429686], [-81.3765568, 28.5429719], [-81.3765614, 28.5432335], [-81.3768343, 28.5432299]]]}}, {"id": "90", "type": "Feature", "properties": {"building_id": "1381859081", "area_m2": 1174.1733720730754}, "geometry": {"type": "Polygon", "coordinates": [[[-81.376334, 28.5398744], [-81.3763343, 28.5399345], [-81.3763355, 28.5402057], [-81.3763679, 28.5402056], [-81.3763683, 28.5402556], [-81.3765574, 28.5402545], [-81.376557, 28.5402049], [-81.3765855, 28.5402048], [-81.3765854, 28.5401891], [-81.376584, 28.5398802], [-81.376584, 28.5398735], [-81.3765584, 28.5398736], [-81.3765578, 28.5397941], [-81.3763546, 28.5397953], [-81.3763552, 28.5398743], [-81.376334, 28.5398744]]]}}, {"id": "91", "type": "Feature", "properties": {"building_id": "1382648550", "area_m2": 321.4383067514867}, "geometry": {"type": "Polygon", "coordinates": [[[-81.37797390000001, 28.5428366], [-81.3779967, 28.5428366], [-81.3781326, 28.5428366], [-81.3781337, 28.5430126], [-81.3779617, 28.5430135], [-81.377961, 28.5429258], [-81.377967, 28.5429258], [-81.3779666, 28.5428597], [-81.3779741, 28.5428607], [-81.377974, 28.5428535], [-81.37797390000001, 28.5428366]]]}}, {"id": "92", "type": "Feature", "properties": {"building_id": "1382648562", "area_m2": 39.04492392415882}, "geometry": {"type": "Polygon", "coordinates": [[[-81.377579, 28.5423092], [-81.3775815, 28.5424328], [-81.3775524, 28.5424332], [-81.3775498, 28.5423097], [-81.377579, 28.5423092]]]}}, {"id": "93", "type": "Feature", "properties": {"building_id": "1382881871", "area_m2": 45.98531279217744}, "geometry": {"type": "Polygon", "coordinates": [[[-81.378895, 28.5400088], [-81.3788903, 28.5401369], [-81.3789234, 28.5401378], [-81.3789281, 28.5400098], [-81.378895, 28.5400088]]]}}, {"id": "94", "type": "Feature", "properties": {"building_id": "1385655525", "area_m2": 965.3325868336777}, "geometry": {"type": "Polygon", "coordinates": [[[-81.3760727, 28.5408055], [-81.3760389, 28.5408059], [-81.3760382, 28.5407534], [-81.376025, 28.5407535], [-81.3760224, 28.5405722], [-81.3759891, 28.5405726], [-81.3759882, 28.5405115], [-81.3760169, 28.5405112], [-81.3760167, 28.5404976], [-81.3763981, 28.5404929], [-81.3763994, 28.54058], [-81.37639020000002, 28.5405801], [-81.3763926, 28.5407457], [-81.3763813, 28.5407459], [-81.376382, 28.5408003], [-81.3763556, 28.5408005], [-81.3763554, 28.5407837], [-81.3763288, 28.5407839], [-81.3763279, 28.5406958], [-81.376095, 28.5406976], [-81.3760959, 28.5407846], [-81.3760725, 28.5407848], [-81.3760727, 28.5408055]]]}}, {"id": "95", "type": "Feature", "properties": {"building_id": "1453799536", "area_m2": 1255.410248821447}, "geometry": {"type": "Polygon", "coordinates": [[[-81.3762318, 28.5402894], [-81.3760441, 28.5402913], [-81.3760432, 28.5402226], [-81.3759941, 28.5402231], [-81.3759883, 28.5397986], [-81.3760374, 28.5397981], [-81.376037, 28.5397695], [-81.37613540000001, 28.5397685], [-81.3761358, 28.5398021], [-81.3762254, 28.5398012], [-81.3762271, 28.5399356], [-81.3762318, 28.5402894]]]}}, {"id": "96", "type": "Feature", "properties": {"building_id": "1453799537", "area_m2": 2342.1914271391993}, "geometry": {"type": "Polygon", "coordinates": [[[-81.376742, 28.5398789], [-81.3767407, 28.5397244], [-81.3767811, 28.5397241], [-81.3767808, 28.5396909], [-81.3768536, 28.5396904], [-81.3768539, 28.5397206], [-81.3769822, 28.5397204], [-81.3769826, 28.539824], [-81.3769828, 28.5398707], [-81.37722, 28.539869], [-81.3772628, 28.5398687], [-81.3773216, 28.5398683], [-81.3773252, 28.540257], [-81.3771614, 28.5402582], [-81.3771611, 28.5402256], [-81.3771594, 28.5400412], [-81.3770113, 28.5400422], [-81.377011, 28.540007], [-81.3769806, 28.5400073], [-81.3769825, 28.5402262], [-81.3767451, 28.5402279], [-81.3767448, 28.5401875], [-81.376742, 28.5398789]]]}}, {"id": "97", "type": "Feature", "properties": {"building_id": "1453799538", "area_m2": 530.8420003841765}, "geometry": {"type": "Polygon", "coordinates": [[[-81.376742, 28.5398789], [-81.376643, 28.53988], [-81.376584, 28.5398802], [-81.3765854, 28.5401891], [-81.3767448, 28.5401875], [-81.376742, 28.5398789]]]}}, {"id": "98", "type": "Feature", "properties": {"building_id": "cead8b58-807f-464d-825a-7a6dad961c67", "area_m2": 104.74694522926904}, "geometry": {"type": "Polygon", "coordinates": [[[-81.379396, 28.5415998], [-81.3796373, 28.5415979], [-81.3796369, 28.5415579], [-81.3793956, 28.5415597], [-81.379396, 28.5415998]]]}}]}